{"type": "FeatureCollection", "name": "region_aklan_simplified", "region_key": "aklan", "feature_count": 17, "features": [{"type": "Feature", "properties": {"ADM3_EN": "Altavas", "ADM3_PCODE": "PH0600401", "ADM2_EN": "Aklan", "ADM2_PCODE": "PH06004", "ADM1_EN": "Region VI (Western Visayas)", "ADM1_PCODE": "PH06", "ADM0_EN": "Philippines (the)", "ADM0_PCODE": "PH", "date": "2022-11-09", "validOn": "2023-11-06", "validTo": null, "ADM3_REF": null, "ADM3ALT1EN": null, "Shape_Leng": 0.50879840768, "Shape_Area": 0.00786399339384, "AREA_SQKM": 94.9010399281, "psgc_id": "PH0600401", "psgc_code": "0600401000", "psgc_name": "Altavas", "psgc_status": "matched", "match_confidence": 1.0, "psgc_type": "municipality", "match_method": "exact", "region_key": "panay", "province_key": "aklan"}, "geometry": {"type": "Polygon", "coordinates": [[[122.5327, 11.5182], [122.5267, 11.5128], [122.53, 11.4932], [122.5049, 11.4847], [122.4836, 11.489], [122.4738, 11.4763], [122.4051, 11.4777], [122.4009, 11.5116], [122.4103, 11.5221], [122.4076, 11.5393], [122.42, 11.5517], [122.4477, 11.5574], [122.4688, 11.551], [122.4885, 11.5613], [122.5035, 11.5277], [122.5259, 11.5263], [122.5327, 11.5182]]]}}, {"type": "Feature", "properties": {"ADM3_EN": "Balete", "ADM3_PCODE": "PH0600402", "ADM2_EN": "Aklan", "ADM2_PCODE": "PH06004", "ADM1_EN": "Region VI (Western Visayas)", "ADM1_PCODE": "PH06", "ADM0_EN": "Philippines (the)", "ADM0_PCODE": "PH", "date": "2022-11-09", "validOn": "2023-11-06", "validTo": null, "ADM3_REF": null, "ADM3ALT1EN": null, "Shape_Leng": 0.547337381266, "Shape_Area": 0.00980796870153, "AREA_SQKM": 118.355245937, "psgc_id": "PH0600402", "psgc_code": "0600402000", "psgc_name": "Balete", "psgc_status": "matched", "match_confidence": 1.0, "psgc_type": "municipality", "match_method": "exact", "region_key": "panay", "province_key": "aklan"}, "geometry": {"type": "Polygon", "coordinates": [[[122.374, 11.6177], [122.3837, 11.5941], [122.4123, 11.5805], [122.4202, 11.5504], [122.4076, 11.5393], [122.4103, 11.5221], [122.4009, 11.5116], [122.4075, 11.4825], [122.3994, 11.4741], [122.4001, 11.456], [122.3708, 11.4276], [122.3407, 11.4502], [122.364, 11.4899], [122.3659, 11.5083], [122.3502, 11.5081], [122.3318, 11.5371], [122.3454, 11.5655], [122.3419, 11.5876], [122.3553, 11.6113], [122.374, 11.6177]]]}}, {"type": "Feature", "properties": {"ADM3_EN": "Banga", "ADM3_PCODE": "PH0600403", "ADM2_EN": "Aklan", "ADM2_PCODE": "PH06004", "ADM1_EN": "Region VI (Western Visayas)", "ADM1_PCODE": "PH06", "ADM0_EN": "Philippines (the)", "ADM0_PCODE": "PH", "date": "2022-11-09", "validOn": "2023-11-06", "validTo": null, "ADM3_REF": null, "ADM3ALT1EN": null, "Shape_Leng": 0.389224503167, "Shape_Area": 0.00534753789955, "AREA_SQKM": 64.5139326099, "psgc_id": "PH0600403", "psgc_code": "0600403000", "psgc_name": "Banga", "psgc_status": "matched", "match_confidence": 1.0, "psgc_type": "municipality", "match_method": "exact", "region_key": "panay", "province_key": "aklan"}, "geometry": {"type": "Polygon", "coordinates": [[[122.3554, 11.6561], [122.3722, 11.616], [122.3565, 11.6128], [122.3419, 11.5876], [122.3456, 11.5664], [122.3345, 11.5373], [122.3131, 11.5327], [122.2903, 11.5565], [122.3133, 11.5962], [122.3094, 11.6329], [122.3351, 11.664], [122.3554, 11.6561]]]}}, {"type": "Feature", "properties": {"ADM3_EN": "Batan", "ADM3_PCODE": "PH0600404", "ADM2_EN": "Aklan", "ADM2_PCODE": "PH06004", "ADM1_EN": "Region VI (Western Visayas)", "ADM1_PCODE": "PH06", "ADM0_EN": "Philippines (the)", "ADM0_PCODE": "PH", "date": "2022-11-09", "validOn": "2023-11-06", "validTo": null, "ADM3_REF": null, "ADM3ALT1EN": null, "Shape_Leng": 1.0048367944, "Shape_Area": 0.00694854504346, "AREA_SQKM": 83.8374946327, "psgc_id": "PH0600404", "psgc_code": "0600404000", "psgc_name": "Batan", "psgc_status": "matched", "match_confidence": 1.0, "psgc_type": "municipality", "match_method": "exact", "region_key": "panay", "province_key": "aklan"}, "geometry": {"type": "MultiPolygon", "coordinates": [[[[122.3962, 11.6198], [122.4215, 11.5911], [122.4383, 11.6008], [122.4395, 11.5957], [122.4417, 11.594], [122.4415, 11.6046], [122.4462, 11.6089], [122.4674, 11.6003], [122.4663, 11.5907], [122.4848, 11.5751], [122.4851, 11.5645], [122.4738, 11.5639], [122.4602, 11.5803], [122.4429, 11.5803], [122.4418, 11.5682], [122.4516, 11.5563], [122.4208, 11.5512], [122.4123, 11.5805], [122.3837, 11.5941], [122.3747, 11.6096], [122.3939, 11.6115], [122.3962, 11.6198]]], [[[122.4388, 11.6009], [122.4397, 11.6025], [122.4398, 11.6], [122.4388, 11.6009]]], [[[122.4282, 11.5985], [122.43, 11.5989], [122.4286, 11.5976], [122.4282, 11.5985]]], [[[122.4398, 11.5974], [122.44, 11.5975], [122.4399, 11.5974], [122.4398, 11.5974]]], [[[122.4398, 11.5972], [122.4399, 11.5973], [122.4399, 11.5973], [122.4398, 11.5972]]], [[[122.5697, 11.5674], [122.5768, 11.5425], [122.5597, 11.5485], [122.5508, 11.5352], [122.5359, 11.5357], [122.5327, 11.5182], [122.5259, 11.5263], [122.5084, 11.5244], [122.4867, 11.5619], [122.498, 11.5827], [122.4939, 11.5933], [122.5697, 11.5674]]]]}}, {"type": "Feature", "properties": {"ADM3_EN": "Buruanga", "ADM3_PCODE": "PH0600405", "ADM2_EN": "Aklan", "ADM2_PCODE": "PH06004", "ADM1_EN": "Region VI (Western Visayas)", "ADM1_PCODE": "PH06", "ADM0_EN": "Philippines (the)", "ADM0_PCODE": "PH", "date": "2022-11-09", "validOn": "2023-11-06", "validTo": null, "ADM3_REF": null, "ADM3ALT1EN": null, "Shape_Leng": 0.521333728488, "Shape_Area": 0.00573757906584, "AREA_SQKM": 69.1627396425, "psgc_id": "PH0600405", "psgc_code": "0600405000", "psgc_name": "Buruanga", "psgc_status": "matched", "match_confidence": 1.0, "psgc_type": "municipality", "match_method": "exact", "region_key": "panay", "province_key": "aklan"}, "geometry": {"type": "Polygon", "coordinates": [[[122.0033, 11.8255], [121.9367, 11.8226], [121.9058, 11.7972], [121.8928, 11.7998], [121.8778, 11.7715], [121.8436, 11.7642], [121.8788, 11.8103], [121.889, 11.8468], [121.8766, 11.8658], [121.8851, 11.894], [121.9057, 11.8705], [121.9649, 11.8515], [122.0033, 11.8255]]]}}, {"type": "Feature", "properties": {"ADM3_EN": "Ibajay", "ADM3_PCODE": "PH0600406", "ADM2_EN": "Aklan", "ADM2_PCODE": "PH06004", "ADM1_EN": "Region VI (Western Visayas)", "ADM1_PCODE": "PH06", "ADM0_EN": "Philippines (the)", "ADM0_PCODE": "PH", "date": "2022-11-09", "validOn": "2023-11-06", "validTo": null, "ADM3_REF": null, "ADM3ALT1EN": null, "Shape_Leng": 0.68603046055, "Shape_Area": 0.0123248631042, "AREA_SQKM": 148.613970613, "psgc_id": "PH0600406", "psgc_code": "0600406000", "psgc_name": "Ibajay", "psgc_status": "matched", "match_confidence": 1.0, "psgc_type": "municipality", "match_method": "exact", "region_key": "panay", "province_key": "aklan"}, "geometry": {"type": "Polygon", "coordinates": [[[122.2218, 11.8137], [122.2009, 11.7042], [122.2168, 11.6567], [122.2135, 11.6425], [122.1846, 11.6317], [122.1489, 11.6357], [122.1461, 11.6561], [122.1746, 11.6963], [122.1695, 11.7324], [122.1554, 11.7468], [122.1565, 11.7568], [122.1282, 11.7636], [122.1067, 11.7815], [122.0961, 11.8058], [122.0982, 11.825], [122.1637, 11.826], [122.1998, 11.8064], [122.2218, 11.8137]]]}}, {"type": "Feature", "properties": {"ADM3_EN": "Kalibo (Capital)", "ADM3_PCODE": "PH0600407", "ADM2_EN": "Aklan", "ADM2_PCODE": "PH06004", "ADM1_EN": "Region VI (Western Visayas)", "ADM1_PCODE": "PH06", "ADM0_EN": "Philippines (the)", "ADM0_PCODE": "PH", "date": "2022-11-09", "validOn": "2023-11-06", "validTo": null, "ADM3_REF": null, "ADM3ALT1EN": null, "Shape_Leng": 0.409874766665, "Shape_Area": 0.00333143417393, "AREA_SQKM": 40.1778378475, "psgc_id": "PH0600407", "psgc_code": "0600407000", "psgc_name": "Kalibo", "psgc_status": "matched", "match_confidence": 1.0, "psgc_type": "municipality", "match_method": "exact", "region_key": "panay", "province_key": "aklan"}, "geometry": {"type": "Polygon", "coordinates": [[[122.4105, 11.6778], [122.401, 11.6634], [122.391, 11.6706], [122.3837, 11.6601], [122.3743, 11.6739], [122.3554, 11.6561], [122.3399, 11.666], [122.3455, 11.7014], [122.3626, 11.7159], [122.3677, 11.7394], [122.3919, 11.7287], [122.3968, 11.7189], [122.3971, 11.7101], [122.3942, 11.7236], [122.3853, 11.7291], [122.3934, 11.7184], [122.3912, 11.7074], [122.4105, 11.6778]]]}}, {"type": "Feature", "properties": {"ADM3_EN": "Lezo", "ADM3_PCODE": "PH0600408", "ADM2_EN": "Aklan", "ADM2_PCODE": "PH06004", "ADM1_EN": "Region VI (Western Visayas)", "ADM1_PCODE": "PH06", "ADM0_EN": "Philippines (the)", "ADM0_PCODE": "PH", "date": "2022-11-09", "validOn": "2023-11-06", "validTo": null, "ADM3_REF": null, "ADM3ALT1EN": null, "Shape_Leng": 0.169750344207, "Shape_Area": 0.00164384276334, "AREA_SQKM": 19.8262347593, "psgc_id": "PH0600408", "psgc_code": "0600408000", "psgc_name": "Lezo", "psgc_status": "matched", "match_confidence": 1.0, "psgc_type": "municipality", "match_method": "exact", "region_key": "panay", "province_key": "aklan"}, "geometry": {"type": "Polygon", "coordinates": [[[122.3427, 11.686], [122.3412, 11.6675], [122.3293, 11.6558], [122.2844, 11.6735], [122.3124, 11.7038], [122.3427, 11.686]]]}}, {"type": "Feature", "properties": {"ADM3_EN": "Libacao", "ADM3_PCODE": "PH0600409", "ADM2_EN": "Aklan", "ADM2_PCODE": "PH06004", "ADM1_EN": "Region VI (Western Visayas)", "ADM1_PCODE": "PH06", "ADM0_EN": "Philippines (the)", "ADM0_PCODE": "PH", "date": "2022-11-09", "validOn": "2023-11-06", "validTo": null, "ADM3_REF": null, "ADM3ALT1EN": null, "Shape_Leng": 0.638605876987, "Shape_Area": 0.0147120904233, "AREA_SQKM": 177.602534052, "psgc_id": "PH0600409", "psgc_code": "0600409000", "psgc_name": "Libacao", "psgc_status": "matched", "match_confidence": 1.0, "psgc_type": "municipality", "match_method": "exact", "region_key": "panay", "province_key": "aklan"}, "geometry": {"type": "Polygon", "coordinates": [[[122.3495, 11.4395], [122.3365, 11.3913], [122.2981, 11.3483], [122.2469, 11.3177], [122.1988, 11.3129], [122.2495, 11.3733], [122.2597, 11.4019], [122.2583, 11.4542], [122.2722, 11.4814], [122.2945, 11.503], [122.321, 11.4985], [122.3306, 11.5118], [122.3445, 11.5157], [122.3502, 11.5081], [122.3659, 11.5083], [122.364, 11.4899], [122.3409, 11.4512], [122.3495, 11.4395]]]}}, {"type": "Feature", "properties": {"ADM3_EN": "Madalag", "ADM3_PCODE": "PH0600410", "ADM2_EN": "Aklan", "ADM2_PCODE": "PH06004", "ADM1_EN": "Region VI (Western Visayas)", "ADM1_PCODE": "PH06", "ADM0_EN": "Philippines (the)", "ADM0_PCODE": "PH", "date": "2022-11-09", "validOn": "2023-11-06", "validTo": null, "ADM3_REF": null, "ADM3ALT1EN": null, "Shape_Leng": 0.827301188655, "Shape_Area": 0.0241624528565, "AREA_SQKM": 291.635988267, "psgc_id": "PH0600410", "psgc_code": "0600410000", "psgc_name": "Madalag", "psgc_status": "matched", "match_confidence": 1.0, "psgc_type": "municipality", "match_method": "exact", "region_key": "panay", "province_key": "aklan"}, "geometry": {"type": "Polygon", "coordinates": [[[122.2933, 11.5691], [122.2915, 11.552], [122.3131, 11.5327], [122.3318, 11.5371], [122.3445, 11.5157], [122.3306, 11.5118], [122.321, 11.4985], [122.2945, 11.503], [122.2722, 11.4814], [122.257, 11.4458], [122.2572, 11.389], [122.2377, 11.3544], [122.1988, 11.3129], [122.1825, 11.342], [122.1914, 11.3823], [122.1862, 11.3948], [122.167, 11.4024], [122.1616, 11.4454], [122.1347, 11.4685], [122.136, 11.5051], [122.1541, 11.5341], [122.2933, 11.5691]]]}}, {"type": "Feature", "properties": {"ADM3_EN": "Makato", "ADM3_PCODE": "PH0600411", "ADM2_EN": "Aklan", "ADM2_PCODE": "PH06004", "ADM1_EN": "Region VI (Western Visayas)", "ADM1_PCODE": "PH06", "ADM0_EN": "Philippines (the)", "ADM0_PCODE": "PH", "date": "2022-11-09", "validOn": "2023-11-06", "validTo": null, "ADM3_REF": null, "ADM3ALT1EN": null, "Shape_Leng": 0.378811662355, "Shape_Area": 0.00499911287434, "AREA_SQKM": 60.2870844891, "psgc_id": "PH0600411", "psgc_code": "0600411000", "psgc_name": "Makato", "psgc_status": "matched", "match_confidence": 1.0, "psgc_type": "municipality", "match_method": "exact", "region_key": "panay", "province_key": "aklan"}, "geometry": {"type": "Polygon", "coordinates": [[[122.3205, 11.7394], [122.3196, 11.7306], [122.3085, 11.735], [122.3037, 11.7282], [122.3132, 11.7171], [122.3121, 11.7028], [122.2844, 11.6735], [122.2126, 11.669], [122.2338, 11.6805], [122.2456, 11.7256], [122.2736, 11.7445], [122.2797, 11.758], [122.3205, 11.7394]]]}}, {"type": "Feature", "properties": {"ADM3_EN": "Malay", "ADM3_PCODE": "PH0600412", "ADM2_EN": "Aklan", "ADM2_PCODE": "PH06004", "ADM1_EN": "Region VI (Western Visayas)", "ADM1_PCODE": "PH06", "ADM0_EN": "Philippines (the)", "ADM0_PCODE": "PH", "date": "2022-11-09", "validOn": "2023-11-06", "validTo": null, "ADM3_REF": null, "ADM3ALT1EN": null, "Shape_Leng": 0.683328397828, "Shape_Area": 0.00599034076732, "AREA_SQKM": 72.1935741954, "psgc_id": "PH0600412", "psgc_code": "0600412000", "psgc_name": "Malay", "psgc_status": "matched", "match_confidence": 1.0, "psgc_type": "municipality", "match_method": "exact", "region_key": "panay", "province_key": "aklan"}, "geometry": {"type": "MultiPolygon", "coordinates": [[[[121.9063, 11.991], [121.9282, 11.9982], [121.9246, 11.9908], [121.9272, 11.97], [121.9347, 11.9555], [121.9476, 11.9546], [121.9429, 11.9402], [121.9387, 11.9406], [121.933, 11.9395], [121.9242, 11.9618], [121.9142, 11.9743], [121.9097, 11.9772], [121.9068, 11.9824], [121.9063, 11.991]]], [[[121.9281, 11.9972], [121.9285, 11.9973], [121.9283, 11.997], [121.9281, 11.9972]]], [[[121.9277, 11.9958], [121.9282, 11.9955], [121.9277, 11.9955], [121.9277, 11.9958]]], [[[121.9273, 11.9955], [121.9275, 11.9954], [121.9273, 11.9953], [121.9273, 11.9955]]], [[[121.9304, 11.975], [121.9303, 11.975], [121.9304, 11.975], [121.9304, 11.975]]], [[[121.9186, 11.968], [121.9187, 11.9683], [121.9188, 11.9682], [121.9186, 11.968]]], [[[121.9366, 11.9561], [121.9369, 11.956], [121.9366, 11.9559], [121.9366, 11.9561]]], [[[121.9512, 11.9495], [121.9514, 11.9504], [121.9519, 11.9496], [121.9512, 11.9495]]], [[[121.9488, 11.9489], [121.9491, 11.9493], [121.9493, 11.9488], [121.9488, 11.9489]]], [[[121.958, 11.9455], [121.9578, 11.9446], [121.957, 11.9461], [121.958, 11.9455]]], [[[121.9343, 11.9395], [121.9341, 11.9396], [121.9342, 11.9397], [121.9343, 11.9395]]], [[[121.9333, 11.9394], [121.9331, 11.9395], [121.9333, 11.9394], [121.9333, 11.9394]]], [[[121.9343, 11.9392], [121.9344, 11.9391], [121.9343, 11.9392], [121.9343, 11.9392]]], [[[121.9545, 11.9387], [121.9765, 11.9026], [121.9847, 11.8704], [122.0107, 11.8229], [121.9649, 11.8515], [121.9057, 11.8705], [121.8841, 11.896], [121.9473, 11.9174], [121.9545, 11.9387]]]]}}, {"type": "Feature", "properties": {"ADM3_EN": "Malinao", "ADM3_PCODE": "PH0600413", "ADM2_EN": "Aklan", "ADM2_PCODE": "PH06004", "ADM1_EN": "Region VI (Western Visayas)", "ADM1_PCODE": "PH06", "ADM0_EN": "Philippines (the)", "ADM0_PCODE": "PH", "date": "2022-11-09", "validOn": "2023-11-06", "validTo": null, "ADM3_REF": null, "ADM3ALT1EN": null, "Shape_Leng": 0.61486283142, "Shape_Area": 0.017360211612, "AREA_SQKM": 209.433372556, "psgc_id": "PH0600413", "psgc_code": "0600413000", "psgc_name": "Malinao", "psgc_status": "matched", "match_confidence": 1.0, "psgc_type": "municipality", "match_method": "exact", "region_key": "panay", "province_key": "aklan"}, "geometry": {"type": "Polygon", "coordinates": [[[122.2844, 11.6735], [122.3253, 11.6555], [122.3094, 11.6329], [122.3141, 11.6002], [122.3039, 11.576], [122.266, 11.5583], [122.1541, 11.5341], [122.1395, 11.5579], [122.1491, 11.5959], [122.1423, 11.6188], [122.1432, 11.6454], [122.1544, 11.6343], [122.1977, 11.6335], [122.2135, 11.6425], [122.2126, 11.669], [122.2844, 11.6735]]]}}, {"type": "Feature", "properties": {"ADM3_EN": "Nabas", "ADM3_PCODE": "PH0600414", "ADM2_EN": "Aklan", "ADM2_PCODE": "PH06004", "ADM1_EN": "Region VI (Western Visayas)", "ADM1_PCODE": "PH06", "ADM0_EN": "Philippines (the)", "ADM0_PCODE": "PH", "date": "2022-11-09", "validOn": "2023-11-06", "validTo": null, "ADM3_REF": null, "ADM3ALT1EN": null, "Shape_Leng": 0.551878962084, "Shape_Area": 0.00722245734103, "AREA_SQKM": 87.0580592089, "psgc_id": "PH0600414", "psgc_code": "0600414000", "psgc_name": "Nabas", "psgc_status": "matched", "match_confidence": 1.0, "psgc_type": "municipality", "match_method": "exact", "region_key": "panay", "province_key": "aklan"}, "geometry": {"type": "MultiPolygon", "coordinates": [[[[121.9585, 11.9442], [121.9587, 11.9453], [121.9595, 11.9432], [121.9585, 11.9442]]], [[[121.9618, 11.943], [121.9612, 11.9437], [121.9618, 11.9439], [121.9618, 11.943]]], [[[121.9617, 11.9429], [121.9617, 11.9429], [121.9617, 11.9429], [121.9617, 11.9429]]], [[[121.9568, 11.9421], [121.9574, 11.9418], [121.9571, 11.9416], [121.9568, 11.9421]]], [[[121.9596, 11.9395], [121.9599, 11.9393], [121.9598, 11.9392], [121.9596, 11.9395]]], [[[121.9621, 11.9389], [121.9612, 11.9389], [121.9613, 11.9395], [121.9621, 11.9389]]], [[[122.1017, 11.8298], [122.0961, 11.8058], [122.109, 11.779], [122.0923, 11.7768], [122.0118, 11.8213], [121.9545, 11.9387], [121.9835, 11.9142], [121.9994, 11.9129], [122.0513, 11.8551], [122.1017, 11.8298]]]]}}, {"type": "Feature", "properties": {"ADM3_EN": "New Washington", "ADM3_PCODE": "PH0600415", "ADM2_EN": "Aklan", "ADM2_PCODE": "PH06004", "ADM1_EN": "Region VI (Western Visayas)", "ADM1_PCODE": "PH06", "ADM0_EN": "Philippines (the)", "ADM0_PCODE": "PH", "date": "2022-11-09", "validOn": "2023-11-06", "validTo": null, "ADM3_REF": null, "ADM3ALT1EN": null, "Shape_Leng": 1.33000351835, "Shape_Area": 0.00457238568829, "AREA_SQKM": 55.1554164916, "psgc_id": "PH0600415", "psgc_code": "0600415000", "psgc_name": "New Washington", "psgc_status": "matched", "match_confidence": 1.0, "psgc_type": "municipality", "match_method": "exact", "region_key": "panay", "province_key": "aklan"}, "geometry": {"type": "MultiPolygon", "coordinates": [[[[122.4196, 11.6008], [122.397, 11.6196], [122.3939, 11.6115], [122.3715, 11.6165], [122.3526, 11.6503], [122.3593, 11.6638], [122.3732, 11.674], [122.3815, 11.6607], [122.391, 11.6706], [122.401, 11.6634], [122.4105, 11.6778], [122.4944, 11.6046], [122.4882, 11.593], [122.4837, 11.5965], [122.4829, 11.5953], [122.4809, 11.5953], [122.474, 11.6099], [122.4441, 11.6268], [122.4302, 11.6519], [122.4102, 11.6584], [122.4022, 11.6531], [122.409, 11.6464], [122.3986, 11.6455], [122.3972, 11.6359], [122.4034, 11.6299], [122.4126, 11.6355], [122.4107, 11.6176], [122.4248, 11.6185], [122.422, 11.6119], [122.4304, 11.6117], [122.4292, 11.603], [122.4196, 11.6008]]], [[[122.4181, 11.6511], [122.4107, 11.6529], [122.4151, 11.6548], [122.4181, 11.6511]]], [[[122.4243, 11.6532], [122.4225, 11.6512], [122.4226, 11.6518], [122.4243, 11.6532]]], [[[122.4585, 11.6081], [122.4392, 11.6195], [122.4188, 11.6471], [122.4284, 11.6504], [122.4318, 11.6364], [122.4585, 11.6081]]], [[[122.4096, 11.6499], [122.4096, 11.6495], [122.4095, 11.65], [122.4096, 11.6499]]], [[[122.4093, 11.6497], [122.4093, 11.6496], [122.4089, 11.6496], [122.4093, 11.6497]]], [[[122.4096, 11.6491], [122.4097, 11.6491], [122.4097, 11.6491], [122.4096, 11.6491]]], [[[122.4095, 11.6487], [122.4088, 11.6488], [122.4097, 11.6488], [122.4095, 11.6487]]], [[[122.41, 11.6472], [122.4097, 11.6473], [122.4102, 11.6475], [122.41, 11.6472]]], [[[122.4093, 11.6472], [122.4092, 11.6475], [122.4097, 11.6473], [122.4093, 11.6472]]], [[[122.4127, 11.638], [122.398, 11.6363], [122.4047, 11.6454], [122.4127, 11.638]]], [[[122.4223, 11.6248], [122.4291, 11.6331], [122.4295, 11.628], [122.4223, 11.6248]]], [[[122.4168, 11.6187], [122.4119, 11.6264], [122.417, 11.6305], [122.4223, 11.6218], [122.4168, 11.6187]]], [[[122.4249, 11.6122], [122.4286, 11.6202], [122.4224, 11.6216], [122.4314, 11.6253], [122.4371, 11.6174], [122.4249, 11.6122]]], [[[122.4445, 11.6149], [122.4347, 11.6036], [122.43, 11.6048], [122.4313, 11.6146], [122.4445, 11.6149]]]]}}, {"type": "Feature", "properties": {"ADM3_EN": "Numancia", "ADM3_PCODE": "PH0600416", "ADM2_EN": "Aklan", "ADM2_PCODE": "PH06004", "ADM1_EN": "Region VI (Western Visayas)", "ADM1_PCODE": "PH06", "ADM0_EN": "Philippines (the)", "ADM0_PCODE": "PH", "date": "2022-11-09", "validOn": "2023-11-06", "validTo": null, "ADM3_REF": null, "ADM3ALT1EN": null, "Shape_Leng": 0.246503972165, "Shape_Area": 0.00200359478029, "AREA_SQKM": 24.1617824224, "psgc_id": "PH0600416", "psgc_code": "0600416000", "psgc_name": "Numancia", "psgc_status": "matched", "match_confidence": 1.0, "psgc_type": "municipality", "match_method": "exact", "region_key": "panay", "province_key": "aklan"}, "geometry": {"type": "Polygon", "coordinates": [[[122.3647, 11.7336], [122.3626, 11.7159], [122.346, 11.7024], [122.3427, 11.686], [122.3161, 11.6982], [122.3037, 11.7269], [122.3085, 11.735], [122.3196, 11.7306], [122.3205, 11.7394], [122.3647, 11.7336]]]}}, {"type": "Feature", "properties": {"ADM3_EN": "Tangalan", "ADM3_PCODE": "PH0600417", "ADM2_EN": "Aklan", "ADM2_PCODE": "PH06004", "ADM1_EN": "Region VI (Western Visayas)", "ADM1_PCODE": "PH06", "ADM0_EN": "Philippines (the)", "ADM0_PCODE": "PH", "date": "2022-11-09", "validOn": "2023-11-06", "validTo": null, "ADM3_REF": null, "ADM3ALT1EN": null, "Shape_Leng": 0.398450494293, "Shape_Area": 0.00563566194397, "AREA_SQKM": 67.9559744926, "psgc_id": "PH0600417", "psgc_code": "0600417000", "psgc_name": "Tangalan", "psgc_status": "matched", "match_confidence": 1.0, "psgc_type": "municipality", "match_method": "exact", "region_key": "panay", "province_key": "aklan"}, "geometry": {"type": "Polygon", "coordinates": [[[122.2852, 11.7601], [122.2736, 11.7445], [122.2505, 11.7338], [122.2383, 11.6872], [122.2126, 11.669], [122.2009, 11.7042], [122.2218, 11.8137], [122.227, 11.7935], [122.2451, 11.7858], [122.2567, 11.7942], [122.2852, 11.7601]]]}}]}