{"type": "FeatureCollection", "name": "region_iloilo_simplified", "region_key": "iloilo", "feature_count": 42, "features": [{"type": "Feature", "properties": {"ADM3_EN": "Ajuy", "ADM3_PCODE": "PH0603001", "ADM2_EN": "Iloilo", "ADM2_PCODE": "PH06030", "ADM1_EN": "Region VI (Western Visayas)", "ADM1_PCODE": "PH06", "ADM0_EN": "Philippines (the)", "ADM0_PCODE": "PH", "date": "2022-11-09", "validOn": "2023-11-06", "validTo": null, "ADM3_REF": null, "ADM3ALT1EN": null, "Shape_Leng": 1.18203669439, "Shape_Area": 0.0141538670989, "AREA_SQKM": 171.021124157, "psgc_id": "PH0603001", "psgc_code": "0603001000", "psgc_name": "Ajuy", "psgc_status": "matched", "match_confidence": 1.0, "psgc_type": "municipality", "match_method": "exact", "region_key": "panay", "province_key": "iloilo"}, "geometry": {"type": "MultiPolygon", "coordinates": [[[[123.0453, 11.2184], [123.046, 11.2043], [123.0649, 11.1981], [123.0682, 11.1776], [123.0799, 11.1651], [123.0949, 11.1627], [123.0924, 11.1481], [123.0761, 11.1506], [123.0799, 11.1564], [123.0699, 11.1664], [123.0421, 11.1718], [123.0291, 11.1668], [123.0163, 11.1398], [123.0092, 11.0932], [122.9887, 11.0746], [122.9813, 11.0759], [122.9852, 11.0682], [122.9762, 11.0592], [122.9756, 11.0701], [122.9531, 11.0683], [122.9498, 11.0575], [122.9632, 11.048], [122.9403, 11.0281], [122.9344, 11.0437], [122.9437, 11.0579], [122.927, 11.0665], [122.9283, 11.0882], [122.9422, 11.1136], [122.9449, 11.1764], [122.9586, 11.2068], [123.003, 11.2231], [123.0453, 11.2184]]], [[[123.0483, 11.1477], [123.0497, 11.1435], [123.0485, 11.1425], [123.0483, 11.1477]]], [[[123.1388, 11.131], [123.1264, 11.1035], [123.1208, 11.098], [123.1161, 11.1001], [123.1152, 11.1256], [123.1074, 11.1324], [123.113, 11.1441], [123.1215, 11.1319], [123.1388, 11.131]]], [[[123.0497, 11.1331], [123.0456, 11.1326], [123.0471, 11.1349], [123.0497, 11.1331]]], [[[123.1558, 11.0967], [123.1548, 11.0938], [123.1526, 11.0969], [123.1558, 11.0967]]], [[[123.0232, 11.0734], [123.0187, 11.0795], [123.0189, 11.0807], [123.0232, 11.0811], [123.0232, 11.0734]]], [[[123.0148, 11.0771], [123.0111, 11.0737], [123.0126, 11.0789], [123.0148, 11.0771]]]]}}, {"type": "Feature", "properties": {"ADM3_EN": "Alimodian", "ADM3_PCODE": "PH0603002", "ADM2_EN": "Iloilo", "ADM2_PCODE": "PH06030", "ADM1_EN": "Region VI (Western Visayas)", "ADM1_PCODE": "PH06", "ADM0_EN": "Philippines (the)", "ADM0_PCODE": "PH", "date": "2022-11-09", "validOn": "2023-11-06", "validTo": null, "ADM3_REF": null, "ADM3ALT1EN": null, "Shape_Leng": 0.626482053552, "Shape_Area": 0.0083667214901, "AREA_SQKM": 101.192135119, "psgc_id": "PH0603002", "psgc_code": "0603002000", "psgc_name": "Alimodian", "psgc_status": "matched", "match_confidence": 1.0, "psgc_type": "municipality", "match_method": "exact", "region_key": "panay", "province_key": "iloilo"}, "geometry": {"type": "Polygon", "coordinates": [[[122.297, 10.9256], [122.3234, 10.9231], [122.3345, 10.9023], [122.3582, 10.91], [122.3922, 10.8753], [122.4067, 10.8781], [122.4226, 10.8545], [122.4382, 10.8538], [122.4715, 10.822], [122.4434, 10.7836], [122.4217, 10.7738], [122.4112, 10.807], [122.3725, 10.8428], [122.3501, 10.8756], [122.3304, 10.873], [122.3274, 10.8882], [122.315, 10.8912], [122.3086, 10.8851], [122.2818, 10.9078], [122.297, 10.9256]]]}}, {"type": "Feature", "properties": {"ADM3_EN": "Anilao", "ADM3_PCODE": "PH0603003", "ADM2_EN": "Iloilo", "ADM2_PCODE": "PH06030", "ADM1_EN": "Region VI (Western Visayas)", "ADM1_PCODE": "PH06", "ADM0_EN": "Philippines (the)", "ADM0_PCODE": "PH", "date": "2022-11-09", "validOn": "2023-11-06", "validTo": null, "ADM3_REF": null, "ADM3ALT1EN": null, "Shape_Leng": 0.411518793441, "Shape_Area": 0.00843333214674, "AREA_SQKM": 101.948392903, "psgc_id": "PH0603003", "psgc_code": "0603003000", "psgc_name": "Anilao", "psgc_status": "matched", "match_confidence": 1.0, "psgc_type": "municipality", "match_method": "exact", "region_key": "panay", "province_key": "iloilo"}, "geometry": {"type": "Polygon", "coordinates": [[[122.7821, 11.0291], [122.7763, 10.9641], [122.7621, 10.9487], [122.7214, 10.9446], [122.6886, 10.9522], [122.7037, 11.0177], [122.7279, 11.0531], [122.7233, 11.0662], [122.7419, 11.0775], [122.7821, 11.0291]]]}}, {"type": "Feature", "properties": {"ADM3_EN": "Badiangan", "ADM3_PCODE": "PH0603004", "ADM2_EN": "Iloilo", "ADM2_PCODE": "PH06030", "ADM1_EN": "Region VI (Western Visayas)", "ADM1_PCODE": "PH06", "ADM0_EN": "Philippines (the)", "ADM0_PCODE": "PH", "date": "2022-11-09", "validOn": "2023-11-06", "validTo": null, "ADM3_REF": null, "ADM3ALT1EN": null, "Shape_Leng": 0.38942822437, "Shape_Area": 0.0053013493417, "AREA_SQKM": 64.0888291446, "psgc_id": "PH0603004", "psgc_code": "0603004000", "psgc_name": "Badiangan", "psgc_status": "matched", "match_confidence": 1.0, "psgc_type": "municipality", "match_method": "exact", "region_key": "panay", "province_key": "iloilo"}, "geometry": {"type": "Polygon", "coordinates": [[[122.5092, 11.0301], [122.5882, 10.9968], [122.5871, 10.9828], [122.5737, 10.9764], [122.5558, 10.9446], [122.4989, 10.9809], [122.4907, 10.9786], [122.4797, 10.9951], [122.4762, 11.0262], [122.4958, 11.0232], [122.5092, 11.0301]]]}}, {"type": "Feature", "properties": {"ADM3_EN": "Balasan", "ADM3_PCODE": "PH0603005", "ADM2_EN": "Iloilo", "ADM2_PCODE": "PH06030", "ADM1_EN": "Region VI (Western Visayas)", "ADM1_PCODE": "PH06", "ADM0_EN": "Philippines (the)", "ADM0_PCODE": "PH", "date": "2022-11-09", "validOn": "2023-11-06", "validTo": null, "ADM3_REF": null, "ADM3ALT1EN": null, "Shape_Leng": 0.379572033777, "Shape_Area": 0.00467270984812, "AREA_SQKM": 56.4008788788, "psgc_id": "PH0603005", "psgc_code": "0603005000", "psgc_name": "Balasan", "psgc_status": "matched", "match_confidence": 1.0, "psgc_type": "municipality", "match_method": "exact", "region_key": "panay", "province_key": "iloilo"}, "geometry": {"type": "Polygon", "coordinates": [[[123.105, 11.5014], [123.1251, 11.4916], [123.1405, 11.4923], [123.1401, 11.4831], [123.1189, 11.4723], [123.1054, 11.4409], [123.0835, 11.4296], [123.0751, 11.4084], [123.046, 11.4038], [123.0427, 11.4421], [123.074, 11.4898], [123.1055, 11.4935], [123.105, 11.5014]]]}}, {"type": "Feature", "properties": {"ADM3_EN": "Banate", "ADM3_PCODE": "PH0603006", "ADM2_EN": "Iloilo", "ADM2_PCODE": "PH06030", "ADM1_EN": "Region VI (Western Visayas)", "ADM1_PCODE": "PH06", "ADM0_EN": "Philippines (the)", "ADM0_PCODE": "PH", "date": "2022-11-09", "validOn": "2023-11-06", "validTo": null, "ADM3_REF": null, "ADM3ALT1EN": null, "Shape_Leng": 0.447467993891, "Shape_Area": 0.00456436538127, "AREA_SQKM": 55.1704107259, "psgc_id": "PH0603006", "psgc_code": "0603006000", "psgc_name": "Banate", "psgc_status": "matched", "match_confidence": 1.0, "psgc_type": "municipality", "match_method": "exact", "region_key": "panay", "province_key": "iloilo"}, "geometry": {"type": "Polygon", "coordinates": [[[122.7965, 11.0596], [122.8546, 10.9952], [122.8463, 10.9901], [122.8315, 11.0028], [122.7831, 10.9884], [122.7821, 11.0291], [122.7419, 11.0775], [122.7713, 11.1029], [122.7965, 11.0596]]]}}, {"type": "Feature", "properties": {"ADM3_EN": "Barotac Nuevo", "ADM3_PCODE": "PH0603007", "ADM2_EN": "Iloilo", "ADM2_PCODE": "PH06030", "ADM1_EN": "Region VI (Western Visayas)", "ADM1_PCODE": "PH06", "ADM0_EN": "Philippines (the)", "ADM0_PCODE": "PH", "date": "2022-11-09", "validOn": "2023-11-06", "validTo": null, "ADM3_REF": null, "ADM3ALT1EN": null, "Shape_Leng": 0.598358424093, "Shape_Area": 0.00794228174125, "AREA_SQKM": 96.0415266402, "psgc_id": "PH0603007", "psgc_code": "0603007000", "psgc_name": "Barotac Nuevo", "psgc_status": "matched", "match_confidence": 1.0, "psgc_type": "municipality", "match_method": "exact", "region_key": "panay", "province_key": "iloilo"}, "geometry": {"type": "Polygon", "coordinates": [[[122.762, 10.9486], [122.7807, 10.9255], [122.789, 10.9], [122.7798, 10.8908], [122.7847, 10.8775], [122.7546, 10.8762], [122.7475, 10.886], [122.6937, 10.8701], [122.6899, 10.8769], [122.654, 10.8549], [122.6633, 10.8954], [122.6695, 10.904], [122.6837, 10.9043], [122.6907, 10.9194], [122.6703, 10.925], [122.6752, 10.9372], [122.6695, 10.9427], [122.6865, 10.9523], [122.7214, 10.9446], [122.762, 10.9486]]]}}, {"type": "Feature", "properties": {"ADM3_EN": "Barotac Viejo", "ADM3_PCODE": "PH0603008", "ADM2_EN": "Iloilo", "ADM2_PCODE": "PH06030", "ADM1_EN": "Region VI (Western Visayas)", "ADM1_PCODE": "PH06", "ADM0_EN": "Philippines (the)", "ADM0_PCODE": "PH", "date": "2022-11-09", "validOn": "2023-11-06", "validTo": null, "ADM3_REF": null, "ADM3ALT1EN": null, "Shape_Leng": 0.707137033426, "Shape_Area": 0.0149544052729, "AREA_SQKM": 180.728704691, "psgc_id": "PH0603008", "psgc_code": "0603008000", "psgc_name": "Barotac Viejo", "psgc_status": "matched", "match_confidence": 1.0, "psgc_type": "municipality", "match_method": "exact", "region_key": "panay", "province_key": "iloilo"}, "geometry": {"type": "Polygon", "coordinates": [[[122.9442, 11.1476], [122.9422, 11.1136], [122.9283, 11.0882], [122.9282, 11.0684], [122.9177, 11.0628], [122.9109, 11.0266], [122.8913, 11.0198], [122.8891, 11.0305], [122.8691, 11.0309], [122.8512, 11.0191], [122.8496, 11.0057], [122.7965, 11.0596], [122.7713, 11.1029], [122.8614, 11.1251], [122.8824, 11.1396], [122.8836, 11.1729], [122.9442, 11.1476]]]}}, {"type": "Feature", "properties": {"ADM3_EN": "Batad", "ADM3_PCODE": "PH0603009", "ADM2_EN": "Iloilo", "ADM2_PCODE": "PH06030", "ADM1_EN": "Region VI (Western Visayas)", "ADM1_PCODE": "PH06", "ADM0_EN": "Philippines (the)", "ADM0_PCODE": "PH", "date": "2022-11-09", "validOn": "2023-11-06", "validTo": null, "ADM3_REF": null, "ADM3ALT1EN": null, "Shape_Leng": 0.423762904164, "Shape_Area": 0.00372508316636, "AREA_SQKM": 44.9709674291, "psgc_id": "PH0603009", "psgc_code": "0603009000", "psgc_name": "Batad", "psgc_status": "matched", "match_confidence": 1.0, "psgc_type": "municipality", "match_method": "exact", "region_key": "panay", "province_key": "iloilo"}, "geometry": {"type": "MultiPolygon", "coordinates": [[[[123.1054, 11.4409], [123.1035, 11.4295], [123.1151, 11.4216], [123.1339, 11.4233], [123.1286, 11.4135], [123.1467, 11.4013], [123.1462, 11.3907], [123.1477, 11.3901], [123.1491, 11.3923], [123.1515, 11.3932], [123.1474, 11.3764], [123.0852, 11.3876], [123.0497, 11.381], [123.0351, 11.3952], [123.0751, 11.4084], [123.0835, 11.4296], [123.1054, 11.4409]]], [[[123.145, 11.412], [123.1422, 11.4103], [123.1421, 11.4135], [123.145, 11.412]]], [[[123.1477, 11.4016], [123.1475, 11.4011], [123.1471, 11.4015], [123.1477, 11.4016]]], [[[123.164, 11.388], [123.1605, 11.3872], [123.1574, 11.3878], [123.164, 11.388]]]]}}, {"type": "Feature", "properties": {"ADM3_EN": "Bingawan", "ADM3_PCODE": "PH0603010", "ADM2_EN": "Iloilo", "ADM2_PCODE": "PH06030", "ADM1_EN": "Region VI (Western Visayas)", "ADM1_PCODE": "PH06", "ADM0_EN": "Philippines (the)", "ADM0_PCODE": "PH", "date": "2022-11-09", "validOn": "2023-11-06", "validTo": null, "ADM3_REF": null, "ADM3ALT1EN": null, "Shape_Leng": 0.542435259871, "Shape_Area": 0.00473402675222, "AREA_SQKM": 57.1891134515, "psgc_id": "PH0603010", "psgc_code": "0603010000", "psgc_name": "Bingawan", "psgc_status": "matched", "match_confidence": 1.0, "psgc_type": "municipality", "match_method": "exact", "region_key": "panay", "province_key": "iloilo"}, "geometry": {"type": "MultiPolygon", "coordinates": [[[[122.6154, 11.236], [122.5902, 11.2185], [122.5799, 11.1946], [122.5883, 11.149], [122.5631, 11.1497], [122.5353, 11.1884], [122.5616, 11.2238], [122.5592, 11.2383], [122.5699, 11.2401], [122.5834, 11.258], [122.6329, 11.2666], [122.6154, 11.236]]], [[[122.4965, 11.1799], [122.5016, 11.1827], [122.5223, 11.1748], [122.5115, 11.175], [122.4965, 11.1799]]]]}}, {"type": "Feature", "properties": {"ADM3_EN": "Cabatuan", "ADM3_PCODE": "PH0603012", "ADM2_EN": "Iloilo", "ADM2_PCODE": "PH06030", "ADM1_EN": "Region VI (Western Visayas)", "ADM1_PCODE": "PH06", "ADM0_EN": "Philippines (the)", "ADM0_PCODE": "PH", "date": "2022-11-09", "validOn": "2023-11-06", "validTo": null, "ADM3_REF": null, "ADM3ALT1EN": null, "Shape_Leng": 0.393832898971, "Shape_Area": 0.00860009223703, "AREA_SQKM": 104.005537087, "psgc_id": "PH0603012", "psgc_code": "0603012000", "psgc_name": "Cabatuan", "psgc_status": "matched", "match_confidence": 1.0, "psgc_type": "municipality", "match_method": "exact", "region_key": "panay", "province_key": "iloilo"}, "geometry": {"type": "Polygon", "coordinates": [[[122.5496, 10.9254], [122.5529, 10.9026], [122.4987, 10.8167], [122.4718, 10.8197], [122.4328, 10.8538], [122.4825, 10.9444], [122.5496, 10.9254]]]}}, {"type": "Feature", "properties": {"ADM3_EN": "Calinog", "ADM3_PCODE": "PH0603013", "ADM2_EN": "Iloilo", "ADM2_PCODE": "PH06030", "ADM1_EN": "Region VI (Western Visayas)", "ADM1_PCODE": "PH06", "ADM0_EN": "Philippines (the)", "ADM0_PCODE": "PH", "date": "2022-11-09", "validOn": "2023-11-06", "validTo": null, "ADM3_REF": null, "ADM3ALT1EN": null, "Shape_Leng": 0.590018477336, "Shape_Area": 0.0111495450817, "AREA_SQKM": 134.716944748, "psgc_id": "PH0603013", "psgc_code": "0603013000", "psgc_name": "Calinog", "psgc_status": "matched", "match_confidence": 1.0, "psgc_type": "municipality", "match_method": "exact", "region_key": "panay", "province_key": "iloilo"}, "geometry": {"type": "Polygon", "coordinates": [[[122.5362, 11.197], [122.5353, 11.1884], [122.5631, 11.1497], [122.5883, 11.149], [122.5819, 11.1008], [122.5699, 11.0918], [122.5462, 11.1084], [122.5441, 11.1029], [122.5101, 11.114], [122.4804, 11.1308], [122.4604, 11.1248], [122.4244, 11.128], [122.3953, 11.1901], [122.4522, 11.193], [122.5223, 11.1748], [122.5016, 11.1827], [122.5362, 11.197]]]}}, {"type": "Feature", "properties": {"ADM3_EN": "Carles", "ADM3_PCODE": "PH0603014", "ADM2_EN": "Iloilo", "ADM2_PCODE": "PH06030", "ADM1_EN": "Region VI (Western Visayas)", "ADM1_PCODE": "PH06", "ADM0_EN": "Philippines (the)", "ADM0_PCODE": "PH", "date": "2022-11-09", "validOn": "2023-11-06", "validTo": null, "ADM3_REF": null, "ADM3ALT1EN": null, "Shape_Leng": 1.9085074821, "Shape_Area": 0.00855908420879, "AREA_SQKM": 103.286967137, "psgc_id": "PH0603014", "psgc_code": "0603014000", "psgc_name": "Carles", "psgc_status": "matched", "match_confidence": 1.0, "psgc_type": "municipality", "match_method": "exact", "region_key": "panay", "province_key": "iloilo"}, "geometry": {"type": "MultiPolygon", "coordinates": [[[[123.3488, 11.6061], [123.3409, 11.6307], [123.3577, 11.6388], [123.3598, 11.6332], [123.3488, 11.6061]]], [[[123.3727, 11.6372], [123.3712, 11.6378], [123.3724, 11.6383], [123.3727, 11.6372]]], [[[123.3604, 11.6097], [123.362, 11.6096], [123.3602, 11.6087], [123.3604, 11.6097]]], [[[123.1788, 11.6042], [123.1784, 11.6027], [123.1777, 11.6039], [123.1788, 11.6042]]], [[[123.3319, 11.5728], [123.3211, 11.5874], [123.3289, 11.598], [123.3456, 11.5928], [123.3565, 11.6007], [123.3556, 11.5851], [123.3454, 11.589], [123.3319, 11.5728]]], [[[123.131, 11.4983], [123.105, 11.5014], [123.1055, 11.4935], [123.074, 11.4898], [123.0753, 11.5101], [123.0856, 11.5145], [123.0976, 11.5444], [123.1312, 11.5711], [123.1492, 11.598], [123.1455, 11.5869], [123.1628, 11.5672], [123.1623, 11.5564], [123.1495, 11.5479], [123.1365, 11.5065], [123.131, 11.5186], [123.1204, 11.5245], [123.1174, 11.5119], [123.131, 11.4983]]], [[[123.2184, 11.5879], [123.2034, 11.5854], [123.2086, 11.593], [123.2184, 11.5879]]], [[[123.2808, 11.5761], [123.2771, 11.5857], [123.2783, 11.5889], [123.2824, 11.5816], [123.2808, 11.5761]]], [[[123.3582, 11.5705], [123.3572, 11.5712], [123.3609, 11.5737], [123.3582, 11.5705]]], [[[123.349, 11.5705], [123.3473, 11.5649], [123.3485, 11.571], [123.349, 11.5705]]], [[[123.2393, 11.5604], [123.2257, 11.5451], [123.2334, 11.5587], [123.2393, 11.5604]]], [[[123.3448, 11.5567], [123.3468, 11.556], [123.3453, 11.5545], [123.3448, 11.5567]]], [[[123.1932, 11.5439], [123.1942, 11.5426], [123.1934, 11.5421], [123.1932, 11.5439]]], [[[123.1956, 11.5378], [123.2007, 11.5346], [123.1971, 11.5283], [123.192, 11.5292], [123.1956, 11.5378]]], [[[123.1609, 11.491], [123.1546, 11.492], [123.1623, 11.498], [123.1665, 11.5235], [123.1801, 11.5253], [123.188, 11.5378], [123.1914, 11.5248], [123.196, 11.5253], [123.191, 11.5121], [123.1757, 11.5111], [123.1609, 11.491]]], [[[123.1384, 11.5014], [123.1228, 11.5116], [123.1239, 11.5189], [123.1384, 11.5014]]], [[[123.1982, 11.5163], [123.1974, 11.5171], [123.198, 11.5175], [123.1982, 11.5163]]], [[[123.1989, 11.4663], [123.1909, 11.4782], [123.2044, 11.4909], [123.1986, 11.5035], [123.2184, 11.5095], [123.226, 11.4956], [123.2283, 11.5155], [123.2338, 11.5139], [123.2394, 11.5072], [123.2352, 11.4649], [123.2176, 11.4597], [123.1989, 11.4663]]], [[[123.183, 11.5006], [123.1844, 11.5013], [123.184, 11.5009], [123.183, 11.5006]]], [[[123.1731, 11.4934], [123.1799, 11.4957], [123.1734, 11.4913], [123.1731, 11.4934]]], [[[123.1846, 11.495], [123.1851, 11.4962], [123.1856, 11.496], [123.1846, 11.495]]], [[[123.1849, 11.4766], [123.1805, 11.4828], [123.1909, 11.4946], [123.1962, 11.4879], [123.1849, 11.4766]]], [[[123.1856, 11.4918], [123.1814, 11.4927], [123.1861, 11.4934], [123.1856, 11.4918]]], [[[123.2503, 11.4848], [123.2589, 11.4866], [123.2569, 11.4845], [123.2503, 11.4848]]], [[[123.1974, 11.4879], [123.1969, 11.4882], [123.1975, 11.488], [123.1974, 11.4879]]], [[[123.1859, 11.475], [123.1911, 11.4693], [123.1852, 11.4705], [123.1859, 11.475]]], [[[123.2507, 11.4234], [123.2428, 11.4537], [123.2504, 11.4664], [123.2735, 11.4569], [123.2774, 11.4466], [123.2615, 11.4236], [123.2507, 11.4234]]], [[[123.2818, 11.4581], [123.2842, 11.4553], [123.2778, 11.4558], [123.2818, 11.4581]]]]}}, {"type": "Feature", "properties": {"ADM3_EN": "Concepcion", "ADM3_PCODE": "PH0603015", "ADM2_EN": "Iloilo", "ADM2_PCODE": "PH06030", "ADM1_EN": "Region VI (Western Visayas)", "ADM1_PCODE": "PH06", "ADM0_EN": "Philippines (the)", "ADM0_PCODE": "PH", "date": "2022-11-09", "validOn": "2023-11-06", "validTo": null, "ADM3_REF": null, "ADM3ALT1EN": null, "Shape_Leng": 1.37604795601, "Shape_Area": 0.00756432496212, "AREA_SQKM": 91.3768757693, "psgc_id": "PH0603015", "psgc_code": "0603015000", "psgc_name": "Concepcion", "psgc_status": "matched", "match_confidence": 1.0, "psgc_type": "municipality", "match_method": "exact", "region_key": "panay", "province_key": "iloilo"}, "geometry": {"type": "MultiPolygon", "coordinates": [[[[123.1809, 11.3248], [123.1793, 11.3247], [123.1808, 11.3257], [123.1809, 11.3248]]], [[[123.1813, 11.3247], [123.1811, 11.325], [123.1813, 11.3251], [123.1813, 11.3247]]], [[[123.1784, 11.3157], [123.1752, 11.3201], [123.1812, 11.3197], [123.1784, 11.3157]]], [[[123.1699, 11.3143], [123.1687, 11.3148], [123.1703, 11.3153], [123.1699, 11.3143]]], [[[123.1497, 11.2474], [123.1561, 11.2774], [123.1566, 11.312], [123.1708, 11.3094], [123.1713, 11.2994], [123.1805, 11.3061], [123.1932, 11.2947], [123.1684, 11.2722], [123.1666, 11.2541], [123.1594, 11.2593], [123.1567, 11.2515], [123.1497, 11.2474]]], [[[123.1539, 11.3043], [123.1531, 11.3044], [123.1535, 11.3049], [123.1539, 11.3043]]], [[[123.121, 11.2135], [123.1232, 11.2366], [123.1346, 11.2462], [123.133, 11.2646], [123.1452, 11.2664], [123.1347, 11.2234], [123.121, 11.2135]]], [[[123.1725, 11.2598], [123.1796, 11.2634], [123.1762, 11.2564], [123.1725, 11.2598]]], [[[123.0949, 11.2429], [123.0937, 11.2242], [123.1164, 11.2131], [123.1279, 11.1816], [123.1213, 11.1647], [123.1039, 11.1559], [123.0849, 11.1746], [123.0682, 11.1776], [123.0649, 11.1981], [123.046, 11.2043], [123.0453, 11.2184], [123.058, 11.2277], [123.0601, 11.2589], [123.0949, 11.2429]]], [[[123.2145, 11.2497], [123.2137, 11.2355], [123.1983, 11.2354], [123.2019, 11.2453], [123.2145, 11.2497]]], [[[123.1959, 11.2374], [123.1949, 11.236], [123.1949, 11.2384], [123.1959, 11.2374]]], [[[123.1555, 11.2334], [123.1621, 11.2293], [123.1549, 11.2288], [123.1555, 11.2334]]], [[[123.1926, 11.227], [123.1974, 11.2276], [123.1959, 11.224], [123.1926, 11.227]]], [[[123.1727, 11.193], [123.1624, 11.1949], [123.1567, 11.2111], [123.1669, 11.2231], [123.1896, 11.22], [123.1727, 11.193]]], [[[123.3391, 11.1978], [123.3416, 11.2006], [123.3406, 11.1978], [123.3391, 11.1978]]], [[[123.1563, 11.1781], [123.1559, 11.1825], [123.1583, 11.185], [123.1563, 11.1781]]], [[[123.1757, 11.1864], [123.1765, 11.1834], [123.1727, 11.1865], [123.1757, 11.1864]]], [[[123.1681, 11.1806], [123.1698, 11.181], [123.1691, 11.1798], [123.1681, 11.1806]]], [[[123.1388, 11.131], [123.1215, 11.1319], [123.1136, 11.1457], [123.1519, 11.1525], [123.1524, 11.1421], [123.1464, 11.1439], [123.1388, 11.131]]]]}}, {"type": "Feature", "properties": {"ADM3_EN": "Dingle", "ADM3_PCODE": "PH0603016", "ADM2_EN": "Iloilo", "ADM2_PCODE": "PH06030", "ADM1_EN": "Region VI (Western Visayas)", "ADM1_PCODE": "PH06", "ADM0_EN": "Philippines (the)", "ADM0_PCODE": "PH", "date": "2022-11-09", "validOn": "2023-11-06", "validTo": null, "ADM3_REF": null, "ADM3ALT1EN": null, "Shape_Leng": 0.509245932839, "Shape_Area": 0.00814740127206, "AREA_SQKM": 98.4885555209, "psgc_id": "PH0603016", "psgc_code": "0603016000", "psgc_name": "Dingle", "psgc_status": "matched", "match_confidence": 1.0, "psgc_type": "municipality", "match_method": "exact", "region_key": "panay", "province_key": "iloilo"}, "geometry": {"type": "Polygon", "coordinates": [[[122.7233, 11.0662], [122.7279, 11.0531], [122.7037, 11.0177], [122.6842, 10.9469], [122.6714, 10.9442], [122.6514, 10.9535], [122.6468, 10.9784], [122.6335, 10.9935], [122.5895, 10.997], [122.6041, 11.0096], [122.6145, 11.0356], [122.6284, 11.0435], [122.6622, 11.0448], [122.6921, 11.0668], [122.7233, 11.0662]]]}}, {"type": "Feature", "properties": {"ADM3_EN": "Dueñas", "ADM3_PCODE": "PH0603017", "ADM2_EN": "Iloilo", "ADM2_PCODE": "PH06030", "ADM1_EN": "Region VI (Western Visayas)", "ADM1_PCODE": "PH06", "ADM0_EN": "Philippines (the)", "ADM0_PCODE": "PH", "date": "2022-11-09", "validOn": "2023-11-06", "validTo": null, "ADM3_REF": "Duenas", "ADM3ALT1EN": null, "Shape_Leng": 0.459557115373, "Shape_Area": 0.00761881584215, "AREA_SQKM": 92.0853713718, "psgc_id": "PH0603017", "psgc_code": "0603017000", "psgc_name": "Dueñas", "psgc_status": "matched", "match_confidence": 1.0, "psgc_type": "municipality", "match_method": "exact", "region_key": "panay", "province_key": "iloilo"}, "geometry": {"type": "Polygon", "coordinates": [[[122.5747, 11.0937], [122.6105, 11.0937], [122.6556, 11.0661], [122.638, 11.0422], [122.6145, 11.0356], [122.6041, 11.0096], [122.5876, 10.9966], [122.5598, 11.0104], [122.5489, 11.0397], [122.5289, 11.0574], [122.5378, 11.0605], [122.5351, 11.0913], [122.5462, 11.1084], [122.5747, 11.0937]]]}}, {"type": "Feature", "properties": {"ADM3_EN": "Dumangas", "ADM3_PCODE": "PH0603018", "ADM2_EN": "Iloilo", "ADM2_PCODE": "PH06030", "ADM1_EN": "Region VI (Western Visayas)", "ADM1_PCODE": "PH06", "ADM0_EN": "Philippines (the)", "ADM0_PCODE": "PH", "date": "2022-11-09", "validOn": "2023-11-06", "validTo": null, "ADM3_REF": null, "ADM3ALT1EN": null, "Shape_Leng": 0.618546362883, "Shape_Area": 0.00984299000092, "AREA_SQKM": 119.05462611, "psgc_id": "PH0603018", "psgc_code": "0603018000", "psgc_name": "Dumangas", "psgc_status": "matched", "match_confidence": 1.0, "psgc_type": "municipality", "match_method": "exact", "region_key": "panay", "province_key": "iloilo"}, "geometry": {"type": "Polygon", "coordinates": [[[122.7808, 10.8762], [122.7838, 10.8564], [122.7634, 10.8448], [122.7621, 10.8214], [122.728, 10.7825], [122.7084, 10.7745], [122.6943, 10.7905], [122.6692, 10.7967], [122.6652, 10.7806], [122.6567, 10.8041], [122.6416, 10.8042], [122.6484, 10.8139], [122.641, 10.8158], [122.6396, 10.8286], [122.6506, 10.8323], [122.6481, 10.8402], [122.6555, 10.8406], [122.6486, 10.8464], [122.6622, 10.8631], [122.6806, 10.866], [122.6899, 10.8769], [122.6937, 10.8701], [122.7475, 10.886], [122.7542, 10.8763], [122.7808, 10.8762]]]}}, {"type": "Feature", "properties": {"ADM3_EN": "Estancia", "ADM3_PCODE": "PH0603019", "ADM2_EN": "Iloilo", "ADM2_PCODE": "PH06030", "ADM1_EN": "Region VI (Western Visayas)", "ADM1_PCODE": "PH06", "ADM0_EN": "Philippines (the)", "ADM0_PCODE": "PH", "date": "2022-11-09", "validOn": "2023-11-06", "validTo": null, "ADM3_REF": null, "ADM3ALT1EN": null, "Shape_Leng": 0.389904380221, "Shape_Area": 0.0023827683474, "AREA_SQKM": 28.760815643, "psgc_id": "PH0603019", "psgc_code": "0603019000", "psgc_name": "Estancia", "psgc_status": "matched", "match_confidence": 1.0, "psgc_type": "municipality", "match_method": "exact", "region_key": "panay", "province_key": "iloilo"}, "geometry": {"type": "MultiPolygon", "coordinates": [[[[123.1339, 11.4233], [123.12, 11.4193], [123.1035, 11.4295], [123.1083, 11.4522], [123.1189, 11.4723], [123.1535, 11.4869], [123.1652, 11.4681], [123.1641, 11.4657], [123.1633, 11.4687], [123.1598, 11.4701], [123.1538, 11.443], [123.1413, 11.4385], [123.1339, 11.4233]]], [[[123.1711, 11.4665], [123.1731, 11.4569], [123.1644, 11.4631], [123.1711, 11.4665]]], [[[123.1869, 11.4392], [123.18, 11.4245], [123.1791, 11.4249], [123.1762, 11.4296], [123.1775, 11.433], [123.1869, 11.4392]]], [[[123.169, 11.4378], [123.1665, 11.4382], [123.166, 11.4381], [123.1666, 11.4385], [123.169, 11.4378]]], [[[123.1593, 11.4374], [123.1579, 11.4384], [123.1595, 11.4381], [123.1593, 11.4374]]], [[[123.1727, 11.4379], [123.1757, 11.436], [123.1736, 11.4352], [123.1727, 11.4379]]], [[[123.1803, 11.4237], [123.1794, 11.4231], [123.1796, 11.4237], [123.1803, 11.4237]]]]}}, {"type": "Feature", "properties": {"ADM3_EN": "Guimbal", "ADM3_PCODE": "PH0603020", "ADM2_EN": "Iloilo", "ADM2_PCODE": "PH06030", "ADM1_EN": "Region VI (Western Visayas)", "ADM1_PCODE": "PH06", "ADM0_EN": "Philippines (the)", "ADM0_PCODE": "PH", "date": "2022-11-09", "validOn": "2023-11-06", "validTo": null, "ADM3_REF": null, "ADM3ALT1EN": null, "Shape_Leng": 0.338864951105, "Shape_Area": 0.00357756562491, "AREA_SQKM": 43.2918440899, "psgc_id": "PH0603020", "psgc_code": "0603020000", "psgc_name": "Guimbal", "psgc_status": "matched", "match_confidence": 1.0, "psgc_type": "municipality", "match_method": "exact", "region_key": "panay", "province_key": "iloilo"}, "geometry": {"type": "Polygon", "coordinates": [[[122.3297, 10.7247], [122.3325, 10.6889], [122.3475, 10.6705], [122.3354, 10.6696], [122.3223, 10.6558], [122.2789, 10.6588], [122.2734, 10.6754], [122.2984, 10.6984], [122.2917, 10.7224], [122.3025, 10.7385], [122.2958, 10.7477], [122.3051, 10.7513], [122.3114, 10.7366], [122.3297, 10.7247]]]}}, {"type": "Feature", "properties": {"ADM3_EN": "Igbaras", "ADM3_PCODE": "PH0603021", "ADM2_EN": "Iloilo", "ADM2_PCODE": "PH06030", "ADM1_EN": "Region VI (Western Visayas)", "ADM1_PCODE": "PH06", "ADM0_EN": "Philippines (the)", "ADM0_PCODE": "PH", "date": "2022-11-09", "validOn": "2023-11-06", "validTo": null, "ADM3_REF": null, "ADM3ALT1EN": null, "Shape_Leng": 0.520427567007, "Shape_Area": 0.0108727451848, "AREA_SQKM": 131.54403408, "psgc_id": "PH0603021", "psgc_code": "0603021000", "psgc_name": "Igbaras", "psgc_status": "matched", "match_confidence": 1.0, "psgc_type": "municipality", "match_method": "exact", "region_key": "panay", "province_key": "iloilo"}, "geometry": {"type": "Polygon", "coordinates": [[[122.2874, 10.7666], [122.3025, 10.7385], [122.2917, 10.7224], [122.2984, 10.6984], [122.281, 10.6792], [122.2734, 10.6754], [122.2359, 10.6927], [122.2354, 10.7024], [122.2184, 10.7142], [122.2205, 10.7243], [122.2102, 10.7259], [122.2083, 10.7533], [122.175, 10.756], [122.201, 10.8347], [122.2434, 10.8249], [122.2531, 10.8113], [122.2505, 10.7986], [122.2874, 10.7666]]]}}, {"type": "Feature", "properties": {"ADM3_EN": "Janiuay", "ADM3_PCODE": "PH0603023", "ADM2_EN": "Iloilo", "ADM2_PCODE": "PH06030", "ADM1_EN": "Region VI (Western Visayas)", "ADM1_PCODE": "PH06", "ADM0_EN": "Philippines (the)", "ADM0_PCODE": "PH", "date": "2022-11-09", "validOn": "2023-11-06", "validTo": null, "ADM3_REF": null, "ADM3ALT1EN": null, "Shape_Leng": 0.667681166397, "Shape_Area": 0.0151257614757, "AREA_SQKM": 182.854713709, "psgc_id": "PH0603023", "psgc_code": "0603023000", "psgc_name": "Janiuay", "psgc_status": "matched", "match_confidence": 1.0, "psgc_type": "municipality", "match_method": "exact", "region_key": "panay", "province_key": "iloilo"}, "geometry": {"type": "Polygon", "coordinates": [[[122.4762, 11.0262], [122.4797, 10.9951], [122.4907, 10.9786], [122.4989, 10.9809], [122.5558, 10.9446], [122.5545, 10.9254], [122.5185, 10.9302], [122.3958, 10.9729], [122.3348, 10.9797], [122.3192, 10.9897], [122.3237, 11.0153], [122.3085, 11.0473], [122.377, 11.0581], [122.4207, 11.0367], [122.4762, 11.0262]]]}}, {"type": "Feature", "properties": {"ADM3_EN": "Lambunao", "ADM3_PCODE": "PH0603025", "ADM2_EN": "Iloilo", "ADM2_PCODE": "PH06030", "ADM1_EN": "Region VI (Western Visayas)", "ADM1_PCODE": "PH06", "ADM0_EN": "Philippines (the)", "ADM0_PCODE": "PH", "date": "2022-11-09", "validOn": "2023-11-06", "validTo": null, "ADM3_REF": null, "ADM3ALT1EN": null, "Shape_Leng": 0.951967678337, "Shape_Area": 0.0335692736685, "AREA_SQKM": 405.665735026, "psgc_id": "PH0603025", "psgc_code": "0603025000", "psgc_name": "Lambunao", "psgc_status": "matched", "match_confidence": 1.0, "psgc_type": "municipality", "match_method": "exact", "region_key": "panay", "province_key": "iloilo"}, "geometry": {"type": "Polygon", "coordinates": [[[122.3953, 11.1901], [122.4244, 11.128], [122.4604, 11.1248], [122.4804, 11.1308], [122.5441, 11.1029], [122.5351, 11.0913], [122.5378, 11.0605], [122.5289, 11.0574], [122.5489, 11.0397], [122.5649, 11.0097], [122.5092, 11.0301], [122.4939, 11.0232], [122.4207, 11.0367], [122.377, 11.0581], [122.3085, 11.0473], [122.2399, 11.1335], [122.3257, 11.2249], [122.3953, 11.1901]]]}}, {"type": "Feature", "properties": {"ADM3_EN": "Leganes", "ADM3_PCODE": "PH0603026", "ADM2_EN": "Iloilo", "ADM2_PCODE": "PH06030", "ADM1_EN": "Region VI (Western Visayas)", "ADM1_PCODE": "PH06", "ADM0_EN": "Philippines (the)", "ADM0_PCODE": "PH", "date": "2022-11-09", "validOn": "2023-11-06", "validTo": null, "ADM3_REF": null, "ADM3ALT1EN": null, "Shape_Leng": 0.335521259154, "Shape_Area": 0.00260730383551, "AREA_SQKM": 31.540847222, "psgc_id": "PH0603026", "psgc_code": "0603026000", "psgc_name": "Leganes", "psgc_status": "matched", "match_confidence": 1.0, "psgc_type": "municipality", "match_method": "exact", "region_key": "panay", "province_key": "iloilo"}, "geometry": {"type": "Polygon", "coordinates": [[[122.6444, 10.7745], [122.6376, 10.7719], [122.6323, 10.7826], [122.6213, 10.7795], [122.5955, 10.7602], [122.5603, 10.7873], [122.5576, 10.7985], [122.5829, 10.8132], [122.6087, 10.8152], [122.608, 10.8064], [122.6226, 10.8085], [122.6182, 10.7967], [122.6308, 10.7999], [122.6316, 10.7925], [122.6451, 10.7917], [122.6444, 10.7745]]]}}, {"type": "Feature", "properties": {"ADM3_EN": "Lemery", "ADM3_PCODE": "PH0603027", "ADM2_EN": "Iloilo", "ADM2_PCODE": "PH06030", "ADM1_EN": "Region VI (Western Visayas)", "ADM1_PCODE": "PH06", "ADM0_EN": "Philippines (the)", "ADM0_PCODE": "PH", "date": "2022-11-09", "validOn": "2023-11-06", "validTo": null, "ADM3_REF": null, "ADM3ALT1EN": null, "Shape_Leng": 0.504615621231, "Shape_Area": 0.0123763770762, "AREA_SQKM": 149.501465975, "psgc_id": "PH0603027", "psgc_code": "0603027000", "psgc_name": "Lemery", "psgc_status": "matched", "match_confidence": 1.0, "psgc_type": "municipality", "match_method": "exact", "region_key": "panay", "province_key": "iloilo"}, "geometry": {"type": "Polygon", "coordinates": [[[122.9661, 11.2125], [122.9449, 11.1764], [122.9442, 11.1476], [122.9084, 11.1588], [122.8503, 11.191], [122.8731, 11.237], [122.8667, 11.2525], [122.8551, 11.2559], [122.8821, 11.2884], [122.9505, 11.3081], [122.954, 11.2946], [122.9443, 11.2767], [122.9678, 11.263], [122.9661, 11.2125]]]}}, {"type": "Feature", "properties": {"ADM3_EN": "Leon", "ADM3_PCODE": "PH0603028", "ADM2_EN": "Iloilo", "ADM2_PCODE": "PH06030", "ADM1_EN": "Region VI (Western Visayas)", "ADM1_PCODE": "PH06", "ADM0_EN": "Philippines (the)", "ADM0_PCODE": "PH", "date": "2022-11-09", "validOn": "2023-11-06", "validTo": null, "ADM3_REF": null, "ADM3ALT1EN": null, "Shape_Leng": 0.588434915227, "Shape_Area": 0.0115021547331, "AREA_SQKM": 139.127283994, "psgc_id": "PH0603028", "psgc_code": "0603028000", "psgc_name": "Leon", "psgc_status": "matched", "match_confidence": 1.0, "psgc_type": "municipality", "match_method": "exact", "region_key": "panay", "province_key": "iloilo"}, "geometry": {"type": "Polygon", "coordinates": [[[122.4217, 10.7738], [122.4134, 10.7678], [122.4201, 10.7589], [122.3945, 10.7473], [122.3655, 10.762], [122.3398, 10.7649], [122.3125, 10.8295], [122.2747, 10.844], [122.2583, 10.8606], [122.2649, 10.8769], [122.2606, 10.8952], [122.2809, 10.8923], [122.2865, 10.9045], [122.3086, 10.8851], [122.315, 10.8912], [122.3274, 10.8882], [122.3304, 10.873], [122.3481, 10.8775], [122.4112, 10.807], [122.4217, 10.7738]]]}}, {"type": "Feature", "properties": {"ADM3_EN": "Maasin", "ADM3_PCODE": "PH0603029", "ADM2_EN": "Iloilo", "ADM2_PCODE": "PH06030", "ADM1_EN": "Region VI (Western Visayas)", "ADM1_PCODE": "PH06", "ADM0_EN": "Philippines (the)", "ADM0_PCODE": "PH", "date": "2022-11-09", "validOn": "2023-11-06", "validTo": null, "ADM3_REF": null, "ADM3ALT1EN": null, "Shape_Leng": 0.561203548009, "Shape_Area": 0.0124770863055, "AREA_SQKM": 150.869755638, "psgc_id": "PH0603029", "psgc_code": "0603029000", "psgc_name": "Maasin", "psgc_status": "matched", "match_confidence": 1.0, "psgc_type": "municipality", "match_method": "exact", "region_key": "panay", "province_key": "iloilo"}, "geometry": {"type": "Polygon", "coordinates": [[[122.4825, 10.9444], [122.4578, 10.8892], [122.4299, 10.8507], [122.4067, 10.8781], [122.3922, 10.8753], [122.3582, 10.91], [122.3345, 10.9023], [122.3234, 10.9231], [122.3138, 10.9256], [122.3246, 10.9406], [122.3136, 10.9684], [122.3192, 10.9897], [122.3396, 10.9775], [122.3958, 10.9729], [122.4825, 10.9444]]]}}, {"type": "Feature", "properties": {"ADM3_EN": "Miagao", "ADM3_PCODE": "PH0603030", "ADM2_EN": "Iloilo", "ADM2_PCODE": "PH06030", "ADM1_EN": "Region VI (Western Visayas)", "ADM1_PCODE": "PH06", "ADM0_EN": "Philippines (the)", "ADM0_PCODE": "PH", "date": "2022-11-09", "validOn": "2023-11-06", "validTo": null, "ADM3_REF": null, "ADM3ALT1EN": null, "Shape_Leng": 0.570194572007, "Shape_Area": 0.0140481763265, "AREA_SQKM": 169.99988766, "psgc_id": "PH0603030", "psgc_code": "0603030000", "psgc_name": "Miagao", "psgc_status": "matched", "match_confidence": 1.0, "psgc_type": "municipality", "match_method": "exact", "region_key": "panay", "province_key": "iloilo"}, "geometry": {"type": "Polygon", "coordinates": [[[122.2734, 10.6754], [122.2797, 10.6582], [122.2576, 10.6514], [122.2492, 10.6363], [122.2073, 10.6387], [122.1695, 10.6088], [122.1499, 10.627], [122.1382, 10.6631], [122.0947, 10.6996], [122.1539, 10.7512], [122.2083, 10.7533], [122.2102, 10.7259], [122.2205, 10.7243], [122.2228, 10.7077], [122.2354, 10.7024], [122.2359, 10.6927], [122.2734, 10.6754]]]}}, {"type": "Feature", "properties": {"ADM3_EN": "Mina", "ADM3_PCODE": "PH0603031", "ADM2_EN": "Iloilo", "ADM2_PCODE": "PH06030", "ADM1_EN": "Region VI (Western Visayas)", "ADM1_PCODE": "PH06", "ADM0_EN": "Philippines (the)", "ADM0_PCODE": "PH", "date": "2022-11-09", "validOn": "2023-11-06", "validTo": null, "ADM3_REF": null, "ADM3ALT1EN": null, "Shape_Leng": 0.306685608953, "Shape_Area": 0.00325866826936, "AREA_SQKM": 39.4025457392, "psgc_id": "PH0603031", "psgc_code": "0603031000", "psgc_name": "Mina", "psgc_status": "matched", "match_confidence": 1.0, "psgc_type": "municipality", "match_method": "exact", "region_key": "panay", "province_key": "iloilo"}, "geometry": {"type": "Polygon", "coordinates": [[[122.5796, 10.9758], [122.5875, 10.9674], [122.5827, 10.9612], [122.6049, 10.9605], [122.5939, 10.9504], [122.5928, 10.9362], [122.6164, 10.9223], [122.6052, 10.8947], [122.5902, 10.9028], [122.5812, 10.8934], [122.5529, 10.9026], [122.5493, 10.924], [122.5565, 10.9473], [122.5796, 10.9758]]]}}, {"type": "Feature", "properties": {"ADM3_EN": "New Lucena", "ADM3_PCODE": "PH0603032", "ADM2_EN": "Iloilo", "ADM2_PCODE": "PH06030", "ADM1_EN": "Region VI (Western Visayas)", "ADM1_PCODE": "PH06", "ADM0_EN": "Philippines (the)", "ADM0_PCODE": "PH", "date": "2022-11-09", "validOn": "2023-11-06", "validTo": null, "ADM3_REF": null, "ADM3ALT1EN": null, "Shape_Leng": 0.261368999341, "Shape_Area": 0.00326758152697, "AREA_SQKM": 39.5177513821, "psgc_id": "PH0603032", "psgc_code": "0603032000", "psgc_name": "New Lucena", "psgc_status": "matched", "match_confidence": 1.0, "psgc_type": "municipality", "match_method": "exact", "region_key": "panay", "province_key": "iloilo"}, "geometry": {"type": "Polygon", "coordinates": [[[122.5902, 10.9028], [122.6129, 10.8934], [122.605, 10.839], [122.5978, 10.8308], [122.5772, 10.8391], [122.5363, 10.8748], [122.5529, 10.9026], [122.5812, 10.8934], [122.5902, 10.9028]]]}}, {"type": "Feature", "properties": {"ADM3_EN": "Oton", "ADM3_PCODE": "PH0603034", "ADM2_EN": "Iloilo", "ADM2_PCODE": "PH06030", "ADM1_EN": "Region VI (Western Visayas)", "ADM1_PCODE": "PH06", "ADM0_EN": "Philippines (the)", "ADM0_PCODE": "PH", "date": "2022-11-09", "validOn": "2023-11-06", "validTo": null, "ADM3_REF": null, "ADM3ALT1EN": null, "Shape_Leng": 0.402375249267, "Shape_Area": 0.00705962171228, "AREA_SQKM": 85.4189602705, "psgc_id": "PH0603034", "psgc_code": "0603034000", "psgc_name": "Oton", "psgc_status": "matched", "match_confidence": 1.0, "psgc_type": "municipality", "match_method": "exact", "region_key": "panay", "province_key": "iloilo"}, "geometry": {"type": "Polygon", "coordinates": [[[122.5022, 10.7543], [122.5241, 10.7141], [122.5124, 10.6913], [122.4987, 10.6948], [122.4948, 10.6817], [122.4706, 10.6886], [122.4216, 10.6809], [122.427, 10.7289], [122.4206, 10.7534], [122.4323, 10.7684], [122.4765, 10.7681], [122.5022, 10.7543]]]}}, {"type": "Feature", "properties": {"ADM3_EN": "Pavia", "ADM3_PCODE": "PH0603036", "ADM2_EN": "Iloilo", "ADM2_PCODE": "PH06030", "ADM1_EN": "Region VI (Western Visayas)", "ADM1_PCODE": "PH06", "ADM0_EN": "Philippines (the)", "ADM0_PCODE": "PH", "date": "2022-11-09", "validOn": "2023-11-06", "validTo": null, "ADM3_REF": null, "ADM3ALT1EN": null, "Shape_Leng": 0.212373606328, "Shape_Area": 0.0021055289724, "AREA_SQKM": 25.472525278, "psgc_id": "PH0603036", "psgc_code": "0603036000", "psgc_name": "Pavia", "psgc_status": "matched", "match_confidence": 1.0, "psgc_type": "municipality", "match_method": "exact", "region_key": "panay", "province_key": "iloilo"}, "geometry": {"type": "Polygon", "coordinates": [[[122.5575, 10.7931], [122.5661, 10.7832], [122.5589, 10.7604], [122.5416, 10.7599], [122.5314, 10.7384], [122.5132, 10.7392], [122.5022, 10.7543], [122.5152, 10.7766], [122.5336, 10.7964], [122.5575, 10.7931]]]}}, {"type": "Feature", "properties": {"ADM3_EN": "Pototan", "ADM3_PCODE": "PH0603037", "ADM2_EN": "Iloilo", "ADM2_PCODE": "PH06030", "ADM1_EN": "Region VI (Western Visayas)", "ADM1_PCODE": "PH06", "ADM0_EN": "Philippines (the)", "ADM0_PCODE": "PH", "date": "2022-11-09", "validOn": "2023-11-06", "validTo": null, "ADM3_REF": null, "ADM3ALT1EN": null, "Shape_Leng": 0.585978821283, "Shape_Area": 0.00814613522858, "AREA_SQKM": 98.4999276733, "psgc_id": "PH0603037", "psgc_code": "0603037000", "psgc_name": "Pototan", "psgc_status": "matched", "match_confidence": 1.0, "psgc_type": "municipality", "match_method": "exact", "region_key": "panay", "province_key": "iloilo"}, "geometry": {"type": "Polygon", "coordinates": [[[122.6714, 10.9442], [122.6703, 10.925], [122.6907, 10.9194], [122.6837, 10.9043], [122.6695, 10.904], [122.6633, 10.8954], [122.6512, 10.8481], [122.6074, 10.8756], [122.6129, 10.8934], [122.6052, 10.8947], [122.6077, 10.9084], [122.6164, 10.9223], [122.593, 10.9345], [122.6027, 10.9645], [122.5827, 10.9612], [122.5875, 10.9674], [122.5795, 10.9782], [122.5879, 10.9964], [122.6335, 10.9935], [122.6468, 10.9784], [122.6514, 10.9535], [122.6714, 10.9442]]]}}, {"type": "Feature", "properties": {"ADM3_EN": "San Dionisio", "ADM3_PCODE": "PH0603038", "ADM2_EN": "Iloilo", "ADM2_PCODE": "PH06030", "ADM1_EN": "Region VI (Western Visayas)", "ADM1_PCODE": "PH06", "ADM0_EN": "Philippines (the)", "ADM0_PCODE": "PH", "date": "2022-11-09", "validOn": "2023-11-06", "validTo": null, "ADM3_REF": null, "ADM3ALT1EN": null, "Shape_Leng": 0.559272914372, "Shape_Area": 0.00982073943072, "AREA_SQKM": 118.590751105, "psgc_id": "PH0603038", "psgc_code": "0603038000", "psgc_name": "San Dionisio", "psgc_status": "matched", "match_confidence": 1.0, "psgc_type": "municipality", "match_method": "exact", "region_key": "panay", "province_key": "iloilo"}, "geometry": {"type": "MultiPolygon", "coordinates": [[[[123.1462, 11.376], [123.1396, 11.3633], [123.1252, 11.3646], [123.131, 11.3414], [123.1104, 11.3433], [123.1007, 11.3356], [123.1087, 11.2969], [123.096, 11.279], [123.0961, 11.244], [123.0601, 11.2589], [123.0268, 11.302], [123.0383, 11.3552], [123.0351, 11.3952], [123.0497, 11.381], [123.0852, 11.3876], [123.1462, 11.376]]], [[[123.1521, 11.3084], [123.1482, 11.3079], [123.1514, 11.3097], [123.1521, 11.3084]]], [[[123.1073, 11.2727], [123.1063, 11.2733], [123.1075, 11.2734], [123.1073, 11.2727]]], [[[123.1044, 11.2685], [123.1034, 11.2675], [123.1032, 11.2678], [123.1044, 11.2685]]]]}}, {"type": "Feature", "properties": {"ADM3_EN": "San Enrique", "ADM3_PCODE": "PH0603039", "ADM2_EN": "Iloilo", "ADM2_PCODE": "PH06030", "ADM1_EN": "Region VI (Western Visayas)", "ADM1_PCODE": "PH06", "ADM0_EN": "Philippines (the)", "ADM0_PCODE": "PH", "date": "2022-11-09", "validOn": "2023-11-06", "validTo": null, "ADM3_REF": null, "ADM3ALT1EN": null, "Shape_Leng": 0.494867130378, "Shape_Area": 0.00873181004204, "AREA_SQKM": 105.520308118, "psgc_id": "PH0603039", "psgc_code": "0603039000", "psgc_name": "San Enrique", "psgc_status": "matched", "match_confidence": 1.0, "psgc_type": "municipality", "match_method": "exact", "region_key": "panay", "province_key": "iloilo"}, "geometry": {"type": "Polygon", "coordinates": [[[122.7822, 11.1593], [122.7834, 11.1317], [122.7713, 11.1029], [122.7419, 11.0775], [122.7233, 11.0662], [122.6921, 11.0668], [122.6622, 11.0448], [122.6372, 11.0416], [122.6554, 11.0649], [122.6408, 11.0881], [122.6486, 11.1018], [122.6594, 11.0956], [122.6694, 11.1108], [122.6936, 11.1109], [122.6969, 11.1309], [122.7104, 11.1467], [122.7336, 11.1466], [122.7504, 11.1633], [122.7822, 11.1593]]]}}, {"type": "Feature", "properties": {"ADM3_EN": "San Joaquin", "ADM3_PCODE": "PH0603040", "ADM2_EN": "Iloilo", "ADM2_PCODE": "PH06030", "ADM1_EN": "Region VI (Western Visayas)", "ADM1_PCODE": "PH06", "ADM0_EN": "Philippines (the)", "ADM0_PCODE": "PH", "date": "2022-11-09", "validOn": "2023-11-06", "validTo": null, "ADM3_REF": null, "ADM3ALT1EN": null, "Shape_Leng": 0.665948861061, "Shape_Area": 0.0164574764439, "AREA_SQKM": 199.212211897, "psgc_id": "PH0603040", "psgc_code": "0603040000", "psgc_name": "San Joaquin", "psgc_status": "matched", "match_confidence": 1.0, "psgc_type": "municipality", "match_method": "exact", "region_key": "panay", "province_key": "iloilo"}, "geometry": {"type": "Polygon", "coordinates": [[[122.0947, 10.6996], [122.1382, 10.6631], [122.1499, 10.627], [122.1695, 10.6088], [122.1428, 10.5846], [122.1059, 10.5834], [122.0958, 10.5754], [122.0794, 10.5491], [122.0775, 10.5255], [122.0649, 10.519], [122.0614, 10.5008], [122.0342, 10.4797], [122.0303, 10.4668], [122.013, 10.4765], [122.0122, 10.4867], [122.0236, 10.589], [122.0652, 10.6807], [122.0841, 10.7002], [122.0947, 10.6996]]]}}, {"type": "Feature", "properties": {"ADM3_EN": "San Miguel", "ADM3_PCODE": "PH0603041", "ADM2_EN": "Iloilo", "ADM2_PCODE": "PH06030", "ADM1_EN": "Region VI (Western Visayas)", "ADM1_PCODE": "PH06", "ADM0_EN": "Philippines (the)", "ADM0_PCODE": "PH", "date": "2022-11-09", "validOn": "2023-11-06", "validTo": null, "ADM3_REF": null, "ADM3ALT1EN": null, "Shape_Leng": 0.303309029162, "Shape_Area": 0.00274614635241, "AREA_SQKM": 33.2210239876, "psgc_id": "PH0603041", "psgc_code": "0603041000", "psgc_name": "San Miguel", "psgc_status": "matched", "match_confidence": 1.0, "psgc_type": "municipality", "match_method": "exact", "region_key": "panay", "province_key": "iloilo"}, "geometry": {"type": "Polygon", "coordinates": [[[122.4987, 10.8167], [122.4931, 10.7839], [122.5088, 10.7646], [122.5022, 10.7543], [122.4568, 10.7715], [122.4323, 10.7684], [122.42, 10.7534], [122.4143, 10.7699], [122.4434, 10.7836], [122.4727, 10.8198], [122.4987, 10.8167]]]}}, {"type": "Feature", "properties": {"ADM3_EN": "San Rafael", "ADM3_PCODE": "PH0603042", "ADM2_EN": "Iloilo", "ADM2_PCODE": "PH06030", "ADM1_EN": "Region VI (Western Visayas)", "ADM1_PCODE": "PH06", "ADM0_EN": "Philippines (the)", "ADM0_PCODE": "PH", "date": "2022-11-09", "validOn": "2023-11-06", "validTo": null, "ADM3_REF": null, "ADM3ALT1EN": null, "Shape_Leng": 0.352127104873, "Shape_Area": 0.0069587922844, "AREA_SQKM": 84.0807915901, "psgc_id": "PH0603042", "psgc_code": "0603042000", "psgc_name": "San Rafael", "psgc_status": "matched", "match_confidence": 1.0, "psgc_type": "municipality", "match_method": "exact", "region_key": "panay", "province_key": "iloilo"}, "geometry": {"type": "Polygon", "coordinates": [[[122.8836, 11.1729], [122.8824, 11.1396], [122.8614, 11.1251], [122.7713, 11.1029], [122.7849, 11.1397], [122.7802, 11.1823], [122.8146, 11.1939], [122.8504, 11.1956], [122.8836, 11.1729]]]}}, {"type": "Feature", "properties": {"ADM3_EN": "Santa Barbara", "ADM3_PCODE": "PH0603043", "ADM2_EN": "Iloilo", "ADM2_PCODE": "PH06030", "ADM1_EN": "Region VI (Western Visayas)", "ADM1_PCODE": "PH06", "ADM0_EN": "Philippines (the)", "ADM0_PCODE": "PH", "date": "2022-11-09", "validOn": "2023-11-06", "validTo": null, "ADM3_REF": null, "ADM3ALT1EN": null, "Shape_Leng": 0.366039985879, "Shape_Area": 0.00572795061595, "AREA_SQKM": 69.2843907781, "psgc_id": "PH0603043", "psgc_code": "0603043000", "psgc_name": "Santa Barbara", "psgc_status": "matched", "match_confidence": 1.0, "psgc_type": "municipality", "match_method": "exact", "region_key": "panay", "province_key": "iloilo"}, "geometry": {"type": "Polygon", "coordinates": [[[122.5978, 10.8308], [122.6032, 10.8143], [122.5598, 10.8035], [122.5575, 10.7931], [122.5336, 10.7964], [122.5088, 10.7646], [122.4931, 10.7839], [122.5025, 10.8265], [122.5363, 10.8748], [122.5772, 10.8391], [122.5978, 10.8308]]]}}, {"type": "Feature", "properties": {"ADM3_EN": "Sara", "ADM3_PCODE": "PH0603044", "ADM2_EN": "Iloilo", "ADM2_PCODE": "PH06030", "ADM1_EN": "Region VI (Western Visayas)", "ADM1_PCODE": "PH06", "ADM0_EN": "Philippines (the)", "ADM0_PCODE": "PH", "date": "2022-11-09", "validOn": "2023-11-06", "validTo": null, "ADM3_REF": null, "ADM3ALT1EN": null, "Shape_Leng": 0.582985416657, "Shape_Area": 0.0153003695893, "AREA_SQKM": 184.775856754, "psgc_id": "PH0603044", "psgc_code": "0603044000", "psgc_name": "Sara", "psgc_status": "matched", "match_confidence": 1.0, "psgc_type": "municipality", "match_method": "exact", "region_key": "panay", "province_key": "iloilo"}, "geometry": {"type": "Polygon", "coordinates": [[[123.0601, 11.2589], [123.0528, 11.2213], [123.003, 11.2231], [122.9754, 11.2088], [122.9661, 11.2125], [122.9678, 11.263], [122.9443, 11.2767], [122.954, 11.2946], [122.935, 11.3295], [122.9393, 11.3588], [122.9944, 11.39], [123.0351, 11.3952], [123.0383, 11.3552], [123.0268, 11.302], [123.0601, 11.2589]]]}}, {"type": "Feature", "properties": {"ADM3_EN": "Tigbauan", "ADM3_PCODE": "PH0603045", "ADM2_EN": "Iloilo", "ADM2_PCODE": "PH06030", "ADM1_EN": "Region VI (Western Visayas)", "ADM1_PCODE": "PH06", "ADM0_EN": "Philippines (the)", "ADM0_PCODE": "PH", "date": "2022-11-09", "validOn": "2023-11-06", "validTo": null, "ADM3_REF": null, "ADM3ALT1EN": null, "Shape_Leng": 0.38076497839, "Shape_Area": 0.00746197676598, "AREA_SQKM": 90.2902875125, "psgc_id": "PH0603045", "psgc_code": "0603045000", "psgc_name": "Tigbauan", "psgc_status": "matched", "match_confidence": 1.0, "psgc_type": "municipality", "match_method": "exact", "region_key": "panay", "province_key": "iloilo"}, "geometry": {"type": "Polygon", "coordinates": [[[122.4201, 10.7589], [122.427, 10.7289], [122.4213, 10.6803], [122.3913, 10.67], [122.3759, 10.6682], [122.3472, 10.6704], [122.3325, 10.6889], [122.3269, 10.7233], [122.3355, 10.7318], [122.3398, 10.7649], [122.3655, 10.762], [122.3945, 10.7473], [122.4201, 10.7589]]]}}, {"type": "Feature", "properties": {"ADM3_EN": "Tubungan", "ADM3_PCODE": "PH0603046", "ADM2_EN": "Iloilo", "ADM2_PCODE": "PH06030", "ADM1_EN": "Region VI (Western Visayas)", "ADM1_PCODE": "PH06", "ADM0_EN": "Philippines (the)", "ADM0_PCODE": "PH", "date": "2022-11-09", "validOn": "2023-11-06", "validTo": null, "ADM3_REF": null, "ADM3ALT1EN": null, "Shape_Leng": 0.472687385097, "Shape_Area": 0.00746562761189, "AREA_SQKM": 90.3094545447, "psgc_id": "PH0603046", "psgc_code": "0603046000", "psgc_name": "Tubungan", "psgc_status": "matched", "match_confidence": 1.0, "psgc_type": "municipality", "match_method": "exact", "region_key": "panay", "province_key": "iloilo"}, "geometry": {"type": "Polygon", "coordinates": [[[122.2583, 10.8606], [122.3182, 10.8215], [122.3244, 10.7926], [122.3385, 10.7762], [122.3387, 10.7441], [122.3304, 10.7248], [122.3114, 10.7366], [122.3051, 10.7513], [122.2894, 10.7513], [122.2892, 10.7644], [122.2505, 10.7986], [122.2531, 10.8113], [122.2434, 10.8249], [122.201, 10.8347], [122.2244, 10.853], [122.2443, 10.8495], [122.2583, 10.8606]]]}}, {"type": "Feature", "properties": {"ADM3_EN": "Zarraga", "ADM3_PCODE": "PH0603047", "ADM2_EN": "Iloilo", "ADM2_PCODE": "PH06030", "ADM1_EN": "Region VI (Western Visayas)", "ADM1_PCODE": "PH06", "ADM0_EN": "Philippines (the)", "ADM0_PCODE": "PH", "date": "2022-11-09", "validOn": "2023-11-06", "validTo": null, "ADM3_REF": null, "ADM3ALT1EN": null, "Shape_Leng": 0.439316708607, "Shape_Area": 0.00316126581613, "AREA_SQKM": 38.2375827372, "psgc_id": "PH0603047", "psgc_code": "0603047000", "psgc_name": "Zarraga", "psgc_status": "matched", "match_confidence": 1.0, "psgc_type": "municipality", "match_method": "exact", "region_key": "panay", "province_key": "iloilo"}, "geometry": {"type": "Polygon", "coordinates": [[[122.6086, 10.8728], [122.6551, 10.8393], [122.6487, 10.841], [122.6506, 10.8323], [122.6394, 10.8281], [122.641, 10.8158], [122.6484, 10.8139], [122.6414, 10.8051], [122.6567, 10.8041], [122.6652, 10.78], [122.6526, 10.7844], [122.6453, 10.7737], [122.6451, 10.7917], [122.6316, 10.7925], [122.6308, 10.7999], [122.6182, 10.7967], [122.6226, 10.8085], [122.608, 10.8064], [122.6125, 10.8131], [122.6042, 10.8119], [122.5969, 10.8269], [122.6086, 10.8728]]]}}]}