{"type": "FeatureCollection", "name": "region_r12_simplified", "region_key": "r12", "feature_count": 2, "features": [{"type": "Feature", "geometry": {"type": "Polygon", "coordinates": [[[125.1, 6.18], [125.22, 6.17], [125.21, 6.07], [125.09, 6.08], [125.1, 6.18]]]}, "properties": {"ADM3_EN": "General Santos City (Dadiangas)", "ADM3_PCODE": "PH126303000", "ADM2_EN": "South Cotabato", "ADM2_PCODE": "PH1263", "ADM1_EN": "Region XII (SOCCSKSARGEN)", "ADM1_PCODE": "PH12", "ADM0_EN": "Philippines (the)", "ADM0_PCODE": "PH", "psgc_id": "PH126303000", "psgc_code": "126303000", "psgc_name": "General Santos City (Dadiangas)", "psgc_type": "city", "match_confidence": 1.0, "AREA_SQKM": 492.86, "population": 697315, "region_key": "r12"}}, {"type": "Feature", "geometry": {"type": "Polygon", "coordinates": [[[124.81, 6.55], [124.9, 6.54], [124.89, 6.46], [124.8, 6.47], [124.81, 6.55]]]}, "properties": {"ADM3_EN": "Koronadal City (Capital)", "ADM3_PCODE": "PH126306000", "ADM2_EN": "South Cotabato", "ADM2_PCODE": "PH1263", "ADM1_EN": "Region XII (SOCCSKSARGEN)", "ADM1_PCODE": "PH12", "ADM0_EN": "Philippines (the)", "ADM0_PCODE": "PH", "psgc_id": "PH126306000", "psgc_code": "126306000", "psgc_name": "Koronadal City (Capital)", "psgc_type": "city", "match_confidence": 1.0, "AREA_SQKM": 277.0, "population": 195398, "region_key": "r12"}}]}