{"type": "FeatureCollection", "name": "region_r3_simplified", "region_key": "r3", "feature_count": 9, "features": [{"type": "Feature", "geometry": {"type": "Polygon", "coordinates": [[[120.64, 15.06], [120.72, 15.055], [120.71, 14.995], [120.63, 15.0], [120.64, 15.06]]]}, "properties": {"ADM3_EN": "City of San Fernando (Capital)", "ADM3_PCODE": "PH035416000", "ADM2_EN": "Pampanga", "ADM2_PCODE": "PH0354", "ADM1_EN": "Region III (Central Luzon)", "ADM1_PCODE": "PH03", "ADM0_EN": "Philippines (the)", "ADM0_PCODE": "PH", "psgc_id": "PH035416000", "psgc_code": "035416000", "psgc_name": "City of San Fernando (Capital)", "psgc_type": "city", "match_confidence": 1.0, "AREA_SQKM": 67.74, "population": 354666, "region_key": "r3"}}, {"type": "Feature", "geometry": {"type": "Polygon", "coordinates": [[[120.55, 15.195], [120.635, 15.19], [120.625, 15.12], [120.54, 15.125], [120.55, 15.195]]]}, "properties": {"ADM3_EN": "Angeles City", "ADM3_PCODE": "PH035401000", "ADM2_EN": "Pampanga", "ADM2_PCODE": "PH0354", "ADM1_EN": "Region III (Central Luzon)", "ADM1_PCODE": "PH03", "ADM0_EN": "Philippines (the)", "ADM0_PCODE": "PH", "psgc_id": "PH035401000", "psgc_code": "035401000", "psgc_name": "Angeles City", "psgc_type": "city", "match_confidence": 1.0, "AREA_SQKM": 60.27, "population": 462928, "region_key": "r3"}}, {"type": "Feature", "geometry": {"type": "Polygon", "coordinates": [[[120.54, 15.26], [120.63, 15.25], [120.62, 15.19], [120.535, 15.195], [120.54, 15.26]]]}, "properties": {"ADM3_EN": "Mabalacat City", "ADM3_PCODE": "PH035409000", "ADM2_EN": "Pampanga", "ADM2_PCODE": "PH0354", "ADM1_EN": "Region III (Central Luzon)", "ADM1_PCODE": "PH03", "ADM0_EN": "Philippines (the)", "ADM0_PCODE": "PH", "psgc_id": "PH035409000", "psgc_code": "035409000", "psgc_name": "Mabalacat City", "psgc_type": "city", "match_confidence": 1.0, "AREA_SQKM": 83.18, "population": 293244, "region_key": "r3"}}, {"type": "Feature", "geometry": {"type": "Polygon", "coordinates": [[[120.78, 14.89], [120.86, 14.885], [120.85, 14.815], [120.77, 14.82], [120.78, 14.89]]]}, "properties": {"ADM3_EN": "Malolos City (Capital)", "ADM3_PCODE": "PH031410000", "ADM2_EN": "Bulacan", "ADM2_PCODE": "PH0314", "ADM1_EN": "Region III (Central Luzon)", "ADM1_PCODE": "PH03", "ADM0_EN": "Philippines (the)", "ADM0_PCODE": "PH", "psgc_id": "PH031410000", "psgc_code": "031410000", "psgc_name": "Malolos City (Capital)", "psgc_type": "city", "match_confidence": 1.0, "AREA_SQKM": 67.25, "population": 261189, "region_key": "r3"}}, {"type": "Feature", "geometry": {"type": "Polygon", "coordinates": [[[120.93, 14.77], [121.0, 14.765], [120.99, 14.715], [120.92, 14.72], [120.93, 14.77]]]}, "properties": {"ADM3_EN": "Meycauayan City", "ADM3_PCODE": "PH031412000", "ADM2_EN": "Bulacan", "ADM2_PCODE": "PH0314", "ADM1_EN": "Region III (Central Luzon)", "ADM1_PCODE": "PH03", "ADM0_EN": "Philippines (the)", "ADM0_PCODE": "PH", "psgc_id": "PH031412000", "psgc_code": "031412000", "psgc_name": "Meycauayan City", "psgc_type": "city", "match_confidence": 1.0, "AREA_SQKM": 32.1, "population": 225673, "region_key": "r3"}}, {"type": "Feature", "geometry": {"type": "Polygon", "coordinates": [[[120.25, 14.885], [120.335, 14.88], [120.32, 14.805], [120.24, 14.81], [120.25, 14.885]]]}, "properties": {"ADM3_EN": "Olongapo City", "ADM3_PCODE": "PH037107000", "ADM2_EN": "Zambales", "ADM2_PCODE": "PH0371", "ADM1_EN": "Region III (Central Luzon)", "ADM1_PCODE": "PH03", "ADM0_EN": "Philippines (the)", "ADM0_PCODE": "PH", "psgc_id": "PH037107000", "psgc_code": "037107000", "psgc_name": "Olongapo City", "psgc_type": "city", "match_confidence": 1.0, "AREA_SQKM": 185.0, "population": 260306, "region_key": "r3"}}, {"type": "Feature", "geometry": {"type": "Polygon", "coordinates": [[[120.49, 14.72], [120.57, 14.715], [120.56, 14.645], [120.48, 14.65], [120.49, 14.72]]]}, "properties": {"ADM3_EN": "Balanga City (Capital)", "ADM3_PCODE": "PH030803000", "ADM2_EN": "Bataan", "ADM2_PCODE": "PH0308", "ADM1_EN": "Region III (Central Luzon)", "ADM1_PCODE": "PH03", "ADM0_EN": "Philippines (the)", "ADM0_PCODE": "PH", "psgc_id": "PH030803000", "psgc_code": "030803000", "psgc_name": "Balanga City (Capital)", "psgc_type": "city", "match_confidence": 1.0, "AREA_SQKM": 111.63, "population": 104173, "region_key": "r3"}}, {"type": "Feature", "geometry": {"type": "Polygon", "coordinates": [[[120.55, 15.535], [120.65, 15.53], [120.635, 15.43], [120.54, 15.44], [120.55, 15.535]]]}, "properties": {"ADM3_EN": "Tarlac City (Capital)", "ADM3_PCODE": "PH036916000", "ADM2_EN": "Tarlac", "ADM2_PCODE": "PH0369", "ADM1_EN": "Region III (Central Luzon)", "ADM1_PCODE": "PH03", "ADM0_EN": "Philippines (the)", "ADM0_PCODE": "PH", "psgc_id": "PH036916000", "psgc_code": "036916000", "psgc_name": "Tarlac City (Capital)", "psgc_type": "city", "match_confidence": 1.0, "AREA_SQKM": 274.66, "population": 385398, "region_key": "r3"}}, {"type": "Feature", "geometry": {"type": "Polygon", "coordinates": [[[120.92, 15.535], [121.02, 15.525], [121.005, 15.445], [120.91, 15.455], [120.92, 15.535]]]}, "properties": {"ADM3_EN": "Cabanatuan City", "ADM3_PCODE": "PH034903000", "ADM2_EN": "Nueva Ecija", "ADM2_PCODE": "PH0349", "ADM1_EN": "Region III (Central Luzon)", "ADM1_PCODE": "PH03", "ADM0_EN": "Philippines (the)", "ADM0_PCODE": "PH", "psgc_id": "PH034903000", "psgc_code": "034903000", "psgc_name": "Cabanatuan City", "psgc_type": "city", "match_confidence": 1.0, "AREA_SQKM": 192.29, "population": 327325, "region_key": "r3"}}]}