{"type": "FeatureCollection", "name": "region_r4a_simplified", "region_key": "r4a", "feature_count": 9, "features": [{"type": "Feature", "geometry": {"type": "Polygon", "coordinates": [[[121.14, 14.67], [121.25, 14.665], [121.24, 14.565], [121.13, 14.575], [121.14, 14.67]]]}, "properties": {"ADM3_EN": "Antipolo City", "ADM3_PCODE": "PH045801000", "ADM2_EN": "Rizal", "ADM2_PCODE": "PH0458", "ADM1_EN": "Region IV-A (CALABARZON)", "ADM1_PCODE": "PH04", "ADM0_EN": "Philippines (the)", "ADM0_PCODE": "PH", "psgc_id": "PH045801000", "psgc_code": "045801000", "psgc_name": "Antipolo City", "psgc_type": "city", "match_confidence": 1.0, "AREA_SQKM": 306.1, "population": 887399, "region_key": "r4a"}}, {"type": "Feature", "geometry": {"type": "Polygon", "coordinates": [[[121.1, 14.25], [121.19, 14.24], [121.18, 14.15], [121.09, 14.16], [121.1, 14.25]]]}, "properties": {"ADM3_EN": "Calamba City", "ADM3_PCODE": "PH043405000", "ADM2_EN": "Laguna", "ADM2_PCODE": "PH0434", "ADM1_EN": "Region IV-A (CALABARZON)", "ADM1_PCODE": "PH04", "ADM0_EN": "Philippines (the)", "ADM0_PCODE": "PH", "psgc_id": "PH043405000", "psgc_code": "043405000", "psgc_name": "Calamba City", "psgc_type": "city", "match_confidence": 1.0, "AREA_SQKM": 149.5, "population": 539671, "region_key": "r4a"}}, {"type": "Feature", "geometry": {"type": "Polygon", "coordinates": [[[121.06, 14.34], [121.135, 14.335], [121.125, 14.275], [121.05, 14.28], [121.06, 14.34]]]}, "properties": {"ADM3_EN": "Santa Rosa City", "ADM3_PCODE": "PH043428000", "ADM2_EN": "Laguna", "ADM2_PCODE": "PH0434", "ADM1_EN": "Region IV-A (CALABARZON)", "ADM1_PCODE": "PH04", "ADM0_EN": "Philippines (the)", "ADM0_PCODE": "PH", "psgc_id": "PH043428000", "psgc_code": "043428000", "psgc_name": "Santa Rosa City", "psgc_type": "city", "match_confidence": 1.0, "AREA_SQKM": 54.13, "population": 414812, "region_key": "r4a"}}, {"type": "Feature", "geometry": {"type": "Polygon", "coordinates": [[[121.045, 14.385], [121.115, 14.38], [121.105, 14.33], [121.038, 14.335], [121.045, 14.385]]]}, "properties": {"ADM3_EN": "Biñan City", "ADM3_PCODE": "PH043403000", "ADM2_EN": "Laguna", "ADM2_PCODE": "PH0434", "ADM1_EN": "Region IV-A (CALABARZON)", "ADM1_PCODE": "PH04", "ADM0_EN": "Philippines (the)", "ADM0_PCODE": "PH", "psgc_id": "PH043403000", "psgc_code": "043403000", "psgc_name": "Biñan City", "psgc_type": "city", "match_confidence": 1.0, "AREA_SQKM": 43.5, "population": 407437, "region_key": "r4a"}}, {"type": "Feature", "geometry": {"type": "Polygon", "coordinates": [[[120.9, 14.365], [120.985, 14.36], [120.975, 14.275], [120.89, 14.28], [120.9, 14.365]]]}, "properties": {"ADM3_EN": "Dasmariñas City", "ADM3_PCODE": "PH042106000", "ADM2_EN": "Cavite", "ADM2_PCODE": "PH0421", "ADM1_EN": "Region IV-A (CALABARZON)", "ADM1_PCODE": "PH04", "ADM0_EN": "Philippines (the)", "ADM0_PCODE": "PH", "psgc_id": "PH042106000", "psgc_code": "042106000", "psgc_name": "Dasmariñas City", "psgc_type": "city", "match_confidence": 1.0, "AREA_SQKM": 90.13, "population": 703141, "region_key": "r4a"}}, {"type": "Feature", "geometry": {"type": "Polygon", "coordinates": [[[120.93, 14.47], [121.0, 14.465], [120.99, 14.395], [120.92, 14.4], [120.93, 14.47]]]}, "properties": {"ADM3_EN": "Bacoor City", "ADM3_PCODE": "PH042103000", "ADM2_EN": "Cavite", "ADM2_PCODE": "PH0421", "ADM1_EN": "Region IV-A (CALABARZON)", "ADM1_PCODE": "PH04", "ADM0_EN": "Philippines (the)", "ADM0_PCODE": "PH", "psgc_id": "PH042103000", "psgc_code": "042103000", "psgc_name": "Bacoor City", "psgc_type": "city", "match_confidence": 1.0, "AREA_SQKM": 46.17, "population": 664625, "region_key": "r4a"}}, {"type": "Feature", "geometry": {"type": "Polygon", "coordinates": [[[121.01, 13.82], [121.12, 13.815], [121.105, 13.695], [121.0, 13.705], [121.01, 13.82]]]}, "properties": {"ADM3_EN": "Batangas City (Capital)", "ADM3_PCODE": "PH041005000", "ADM2_EN": "Batangas", "ADM2_PCODE": "PH0410", "ADM1_EN": "Region IV-A (CALABARZON)", "ADM1_PCODE": "PH04", "ADM0_EN": "Philippines (the)", "ADM0_PCODE": "PH", "psgc_id": "PH041005000", "psgc_code": "041005000", "psgc_name": "Batangas City (Capital)", "psgc_type": "city", "match_confidence": 1.0, "AREA_SQKM": 282.96, "population": 351437, "region_key": "r4a"}}, {"type": "Feature", "geometry": {"type": "Polygon", "coordinates": [[[121.11, 13.995], [121.21, 13.99], [121.195, 13.9], [121.1, 13.91], [121.11, 13.995]]]}, "properties": {"ADM3_EN": "Lipa City", "ADM3_PCODE": "PH041014000", "ADM2_EN": "Batangas", "ADM2_PCODE": "PH0410", "ADM1_EN": "Region IV-A (CALABARZON)", "ADM1_PCODE": "PH04", "ADM0_EN": "Philippines (the)", "ADM0_PCODE": "PH", "psgc_id": "PH041014000", "psgc_code": "041014000", "psgc_name": "Lipa City", "psgc_type": "city", "match_confidence": 1.0, "AREA_SQKM": 209.4, "population": 372931, "region_key": "r4a"}}, {"type": "Feature", "geometry": {"type": "Polygon", "coordinates": [[[121.57, 13.975], [121.65, 13.97], [121.64, 13.9], [121.56, 13.905], [121.57, 13.975]]]}, "properties": {"ADM3_EN": "Lucena City (Capital)", "ADM3_PCODE": "PH045624000", "ADM2_EN": "Quezon", "ADM2_PCODE": "PH0456", "ADM1_EN": "Region IV-A (CALABARZON)", "ADM1_PCODE": "PH04", "ADM0_EN": "Philippines (the)", "ADM0_PCODE": "PH", "psgc_id": "PH045624000", "psgc_code": "045624000", "psgc_name": "Lucena City (Capital)", "psgc_type": "city", "match_confidence": 1.0, "AREA_SQKM": 80.21, "population": 278924, "region_key": "r4a"}}]}