{"type": "FeatureCollection", "name": "region_r4b_simplified", "region_key": "r4b", "feature_count": 2, "features": [{"type": "Feature", "geometry": {"type": "Polygon", "coordinates": [[[118.68, 9.85], [118.82, 9.84], [118.8, 9.68], [118.66, 9.69], [118.68, 9.85]]]}, "properties": {"ADM3_EN": "Puerto Princesa City (Capital)", "ADM3_PCODE": "PH175316000", "ADM2_EN": "Palawan", "ADM2_PCODE": "PH1753", "ADM1_EN": "MIMAROPA Region", "ADM1_PCODE": "PH17", "ADM0_EN": "Philippines (the)", "ADM0_PCODE": "PH", "psgc_id": "PH175316000", "psgc_code": "175316000", "psgc_name": "Puerto Princesa City (Capital)", "psgc_type": "city", "match_confidence": 1.0, "AREA_SQKM": 2400.0, "population": 307079, "region_key": "r4b"}}, {"type": "Feature", "geometry": {"type": "Polygon", "coordinates": [[[121.14, 13.45], [121.22, 13.445], [121.21, 13.365], [121.13, 13.37], [121.14, 13.45]]]}, "properties": {"ADM3_EN": "Calapan City (Capital)", "ADM3_PCODE": "PH175205000", "ADM2_EN": "Oriental Mindoro", "ADM2_PCODE": "PH1752", "ADM1_EN": "MIMAROPA Region", "ADM1_PCODE": "PH17", "ADM0_EN": "Philippines (the)", "ADM0_PCODE": "PH", "psgc_id": "PH175205000", "psgc_code": "175205000", "psgc_name": "Calapan City (Capital)", "psgc_type": "city", "match_confidence": 1.0, "AREA_SQKM": 250.06, "population": 145786, "region_key": "r4b"}}]}