{"type": "FeatureCollection", "name": "region_r5_simplified", "region_key": "r5", "feature_count": 3, "features": [{"type": "Feature", "geometry": {"type": "Polygon", "coordinates": [[[123.68, 13.185], [123.775, 13.18], [123.765, 13.11], [123.67, 13.115], [123.68, 13.185]]]}, "properties": {"ADM3_EN": "Legazpi City (Capital)", "ADM3_PCODE": "PH050506000", "ADM2_EN": "Albay", "ADM2_PCODE": "PH0505", "ADM1_EN": "Region V (Bicol Region)", "ADM1_PCODE": "PH05", "ADM0_EN": "Philippines (the)", "ADM0_PCODE": "PH", "psgc_id": "PH050506000", "psgc_code": "050506000", "psgc_name": "Legazpi City (Capital)", "psgc_type": "city", "match_confidence": 1.0, "AREA_SQKM": 153.7, "population": 209533, "region_key": "r5"}}, {"type": "Feature", "geometry": {"type": "Polygon", "coordinates": [[[123.15, 13.665], [123.24, 13.66], [123.23, 13.595], [123.14, 13.6], [123.15, 13.665]]]}, "properties": {"ADM3_EN": "Naga City", "ADM3_PCODE": "PH051724000", "ADM2_EN": "Camarines Sur", "ADM2_PCODE": "PH0517", "ADM1_EN": "Region V (Bicol Region)", "ADM1_PCODE": "PH05", "ADM0_EN": "Philippines (the)", "ADM0_PCODE": "PH", "psgc_id": "PH051724000", "psgc_code": "051724000", "psgc_name": "Naga City", "psgc_type": "city", "match_confidence": 1.0, "AREA_SQKM": 84.48, "population": 209170, "region_key": "r5"}}, {"type": "Feature", "geometry": {"type": "Polygon", "coordinates": [[[123.98, 12.995], [124.07, 12.99], [124.055, 12.91], [123.97, 12.92], [123.98, 12.995]]]}, "properties": {"ADM3_EN": "Sorsogon City (Capital)", "ADM3_PCODE": "PH056216000", "ADM2_EN": "Sorsogon", "ADM2_PCODE": "PH0562", "ADM1_EN": "Region V (Bicol Region)", "ADM1_PCODE": "PH05", "ADM0_EN": "Philippines (the)", "ADM0_PCODE": "PH", "psgc_id": "PH056216000", "psgc_code": "056216000", "psgc_name": "Sorsogon City (Capital)", "psgc_type": "city", "match_confidence": 1.0, "AREA_SQKM": 276.11, "population": 182237, "region_key": "r5"}}]}