{"type": "FeatureCollection", "name": "region_r6_negros_simplified", "region_key": "r6_negros", "feature_count": 6, "features": [{"type": "Feature", "geometry": {"type": "Polygon", "coordinates": [[[122.92, 10.71], [122.995, 10.705], [122.985, 10.64], [122.915, 10.645], [122.92, 10.71]]]}, "properties": {"ADM3_EN": "Bacolod City (Capital)", "ADM3_PCODE": "PH060450100", "ADM2_EN": "Negros Occidental", "ADM2_PCODE": "PH06045", "ADM1_EN": "Region VI (Western Visayas)", "ADM1_PCODE": "PH06", "ADM0_EN": "Philippines (the)", "ADM0_PCODE": "PH", "psgc_id": "PH060450100", "psgc_code": "060450100", "psgc_name": "Bacolod City (Capital)", "psgc_type": "city", "match_confidence": 1.0, "AREA_SQKM": 162.67, "population": 600783, "region_key": "r6_negros"}}, {"type": "Feature", "geometry": {"type": "Polygon", "coordinates": [[[122.945, 10.835], [123.03, 10.825], [123.02, 10.76], [122.94, 10.77], [122.945, 10.835]]]}, "properties": {"ADM3_EN": "Silay City", "ADM3_PCODE": "PH060452600", "ADM2_EN": "Negros Occidental", "ADM2_PCODE": "PH06045", "ADM1_EN": "Region VI (Western Visayas)", "ADM1_PCODE": "PH06", "ADM0_EN": "Philippines (the)", "ADM0_PCODE": "PH", "psgc_id": "PH060452600", "psgc_code": "060452600", "psgc_name": "Silay City", "psgc_type": "city", "match_confidence": 1.0, "AREA_SQKM": 214.8, "population": 130478, "region_key": "r6_negros"}}, {"type": "Feature", "geometry": {"type": "Polygon", "coordinates": [[[122.935, 10.765], [123.015, 10.76], [123.005, 10.71], [122.93, 10.715], [122.935, 10.765]]]}, "properties": {"ADM3_EN": "Talisay City", "ADM3_PCODE": "PH060452800", "ADM2_EN": "Negros Occidental", "ADM2_PCODE": "PH06045", "ADM1_EN": "Region VI (Western Visayas)", "ADM1_PCODE": "PH06", "ADM0_EN": "Philippines (the)", "ADM0_PCODE": "PH", "psgc_id": "PH060452800", "psgc_code": "060452800", "psgc_name": "Talisay City", "psgc_type": "city", "match_confidence": 1.0, "AREA_SQKM": 201.18, "population": 108909, "region_key": "r6_negros"}}, {"type": "Feature", "geometry": {"type": "Polygon", "coordinates": [[[122.81, 10.585], [122.925, 10.58], [122.91, 10.49], [122.8, 10.5], [122.81, 10.585]]]}, "properties": {"ADM3_EN": "Bago City", "ADM3_PCODE": "PH060450200", "ADM2_EN": "Negros Occidental", "ADM2_PCODE": "PH06045", "ADM1_EN": "Region VI (Western Visayas)", "ADM1_PCODE": "PH06", "ADM0_EN": "Philippines (the)", "ADM0_PCODE": "PH", "psgc_id": "PH060450200", "psgc_code": "060450200", "psgc_name": "Bago City", "psgc_type": "city", "match_confidence": 1.0, "AREA_SQKM": 401.2, "population": 191210, "region_key": "r6_negros"}}, {"type": "Feature", "geometry": {"type": "Polygon", "coordinates": [[[122.75, 10.05], [122.91, 10.04], [122.89, 9.93], [122.74, 9.94], [122.75, 10.05]]]}, "properties": {"ADM3_EN": "Kabankalan City", "ADM3_PCODE": "PH060451400", "ADM2_EN": "Negros Occidental", "ADM2_PCODE": "PH06045", "ADM1_EN": "Region VI (Western Visayas)", "ADM1_PCODE": "PH06", "ADM0_EN": "Philippines (the)", "ADM0_PCODE": "PH", "psgc_id": "PH060451400", "psgc_code": "060451400", "psgc_name": "Kabankalan City", "psgc_type": "city", "match_confidence": 1.0, "AREA_SQKM": 697.35, "population": 200402, "region_key": "r6_negros"}}, {"type": "Feature", "geometry": {"type": "Polygon", "coordinates": [[[123.36, 10.535], [123.46, 10.525], [123.445, 10.43], [123.35, 10.44], [123.36, 10.535]]]}, "properties": {"ADM3_EN": "San Carlos City", "ADM3_PCODE": "PH060452400", "ADM2_EN": "Negros Occidental", "ADM2_PCODE": "PH06045", "ADM1_EN": "Region VI (Western Visayas)", "ADM1_PCODE": "PH06", "ADM0_EN": "Philippines (the)", "ADM0_PCODE": "PH", "psgc_id": "PH060452400", "psgc_code": "060452400", "psgc_name": "San Carlos City", "psgc_type": "city", "match_confidence": 1.0, "AREA_SQKM": 451.5, "population": 134350, "region_key": "r6_negros"}}]}