{"type": "FeatureCollection", "name": "region_r7_simplified", "region_key": "r7", "feature_count": 10, "features": [{"type": "Feature", "geometry": {"type": "Polygon", "coordinates": [[[123.82, 10.355], [123.915, 10.36], [123.925, 10.295], [123.865, 10.275], [123.81, 10.31], [123.82, 10.355]]]}, "properties": {"ADM3_EN": "Cebu City (Capital)", "ADM3_PCODE": "PH072217000", "ADM2_EN": "Cebu", "ADM2_PCODE": "PH0722", "ADM1_EN": "Region VII (Central Visayas)", "ADM1_PCODE": "PH07", "ADM0_EN": "Philippines (the)", "ADM0_PCODE": "PH", "psgc_id": "PH072217000", "psgc_code": "072217000", "psgc_name": "Cebu City (Capital)", "psgc_type": "city", "match_confidence": 1.0, "AREA_SQKM": 315.0, "population": 964169, "region_key": "r7"}}, {"type": "Feature", "geometry": {"type": "Polygon", "coordinates": [[[123.915, 10.365], [123.965, 10.36], [123.955, 10.32], [123.92, 10.325], [123.915, 10.365]]]}, "properties": {"ADM3_EN": "Mandaue City", "ADM3_PCODE": "PH072230000", "ADM2_EN": "Cebu", "ADM2_PCODE": "PH0722", "ADM1_EN": "Region VII (Central Visayas)", "ADM1_PCODE": "PH07", "ADM0_EN": "Philippines (the)", "ADM0_PCODE": "PH", "psgc_id": "PH072230000", "psgc_code": "072230000", "psgc_name": "Mandaue City", "psgc_type": "city", "match_confidence": 1.0, "AREA_SQKM": 34.87, "population": 364116, "region_key": "r7"}}, {"type": "Feature", "geometry": {"type": "Polygon", "coordinates": [[[123.945, 10.335], [124.025, 10.34], [124.015, 10.275], [123.965, 10.28], [123.945, 10.335]]]}, "properties": {"ADM3_EN": "Lapu-Lapu City (Opon)", "ADM3_PCODE": "PH072226000", "ADM2_EN": "Cebu", "ADM2_PCODE": "PH0722", "ADM1_EN": "Region VII (Central Visayas)", "ADM1_PCODE": "PH07", "ADM0_EN": "Philippines (the)", "ADM0_PCODE": "PH", "psgc_id": "PH072226000", "psgc_code": "072226000", "psgc_name": "Lapu-Lapu City (Opon)", "psgc_type": "city", "match_confidence": 1.0, "AREA_SQKM": 58.1, "population": 497604, "region_key": "r7"}}, {"type": "Feature", "geometry": {"type": "Polygon", "coordinates": [[[123.82, 10.28], [123.865, 10.275], [123.855, 10.235], [123.805, 10.245], [123.82, 10.28]]]}, "properties": {"ADM3_EN": "Talisay City", "ADM3_PCODE": "PH072250000", "ADM2_EN": "Cebu", "ADM2_PCODE": "PH0722", "ADM1_EN": "Region VII (Central Visayas)", "ADM1_PCODE": "PH07", "ADM0_EN": "Philippines (the)", "ADM0_PCODE": "PH", "psgc_id": "PH072250000", "psgc_code": "072250000", "psgc_name": "Talisay City", "psgc_type": "city", "match_confidence": 1.0, "AREA_SQKM": 39.87, "population": 263048, "region_key": "r7"}}, {"type": "Feature", "geometry": {"type": "Polygon", "coordinates": [[[123.6, 10.42], [123.68, 10.435], [123.71, 10.35], [123.62, 10.34], [123.6, 10.42]]]}, "properties": {"ADM3_EN": "Toledo City", "ADM3_PCODE": "PH072251000", "ADM2_EN": "Cebu", "ADM2_PCODE": "PH0722", "ADM1_EN": "Region VII (Central Visayas)", "ADM1_PCODE": "PH07", "ADM0_EN": "Philippines (the)", "ADM0_PCODE": "PH", "psgc_id": "PH072251000", "psgc_code": "072251000", "psgc_name": "Toledo City", "psgc_type": "city", "match_confidence": 1.0, "AREA_SQKM": 216.28, "population": 207314, "region_key": "r7"}}, {"type": "Feature", "geometry": {"type": "Polygon", "coordinates": [[[123.98, 10.555], [124.05, 10.55], [124.03, 10.485], [123.965, 10.49], [123.98, 10.555]]]}, "properties": {"ADM3_EN": "Danao City", "ADM3_PCODE": "PH072223000", "ADM2_EN": "Cebu", "ADM2_PCODE": "PH0722", "ADM1_EN": "Region VII (Central Visayas)", "ADM1_PCODE": "PH07", "ADM0_EN": "Philippines (the)", "ADM0_PCODE": "PH", "psgc_id": "PH072223000", "psgc_code": "072223000", "psgc_name": "Danao City", "psgc_type": "city", "match_confidence": 1.0, "AREA_SQKM": 107.3, "population": 156321, "region_key": "r7"}}, {"type": "Feature", "geometry": {"type": "Polygon", "coordinates": [[[123.595, 10.145], [123.665, 10.15], [123.655, 10.08], [123.585, 10.085], [123.595, 10.145]]]}, "properties": {"ADM3_EN": "Carcar City", "ADM3_PCODE": "PH072214000", "ADM2_EN": "Cebu", "ADM2_PCODE": "PH0722", "ADM1_EN": "Region VII (Central Visayas)", "ADM1_PCODE": "PH07", "ADM0_EN": "Philippines (the)", "ADM0_PCODE": "PH", "psgc_id": "PH072214000", "psgc_code": "072214000", "psgc_name": "Carcar City", "psgc_type": "city", "match_confidence": 1.0, "AREA_SQKM": 116.78, "population": 136453, "region_key": "r7"}}, {"type": "Feature", "geometry": {"type": "Polygon", "coordinates": [[[123.725, 10.235], [123.785, 10.23], [123.775, 10.18], [123.71, 10.19], [123.725, 10.235]]]}, "properties": {"ADM3_EN": "Naga City", "ADM3_PCODE": "PH072234000", "ADM2_EN": "Cebu", "ADM2_PCODE": "PH0722", "ADM1_EN": "Region VII (Central Visayas)", "ADM1_PCODE": "PH07", "ADM0_EN": "Philippines (the)", "ADM0_PCODE": "PH", "psgc_id": "PH072234000", "psgc_code": "072234000", "psgc_name": "Naga City", "psgc_type": "city", "match_confidence": 1.0, "AREA_SQKM": 101.97, "population": 133184, "region_key": "r7"}}, {"type": "Feature", "geometry": {"type": "Polygon", "coordinates": [[[123.835, 9.68], [123.885, 9.685], [123.875, 9.635], [123.825, 9.64], [123.835, 9.68]]]}, "properties": {"ADM3_EN": "Tagbilaran City", "ADM3_PCODE": "PH071242000", "ADM2_EN": "Bohol", "ADM2_PCODE": "PH0712", "ADM1_EN": "Region VII (Central Visayas)", "ADM1_PCODE": "PH07", "ADM0_EN": "Philippines (the)", "ADM0_PCODE": "PH", "psgc_id": "PH071242000", "psgc_code": "071242000", "psgc_name": "Tagbilaran City", "psgc_type": "city", "match_confidence": 1.0, "AREA_SQKM": 36.5, "population": 104976, "region_key": "r7"}}, {"type": "Feature", "geometry": {"type": "Polygon", "coordinates": [[[123.74, 9.61], [123.805, 9.62], [123.795, 9.56], [123.73, 9.57], [123.74, 9.61]]]}, "properties": {"ADM3_EN": "Panglao", "ADM3_PCODE": "PH071233000", "ADM2_EN": "Bohol", "ADM2_PCODE": "PH0712", "ADM1_EN": "Region VII (Central Visayas)", "ADM1_PCODE": "PH07", "ADM0_EN": "Philippines (the)", "ADM0_PCODE": "PH", "psgc_id": "PH071233000", "psgc_code": "071233000", "psgc_name": "Panglao", "psgc_type": "municipality", "match_confidence": 1.0, "AREA_SQKM": 47.79, "population": 39839, "region_key": "r7"}}]}