{"type": "FeatureCollection", "name": "region_r8_simplified", "region_key": "r8", "feature_count": 5, "features": [{"type": "Feature", "geometry": {"type": "Polygon", "coordinates": [[[124.96, 11.275], [125.04, 11.27], [125.03, 11.21], [124.95, 11.22], [124.96, 11.275]]]}, "properties": {"ADM3_EN": "Tacloban City (Capital)", "ADM3_PCODE": "PH083747000", "ADM2_EN": "Leyte", "ADM2_PCODE": "PH0837", "ADM1_EN": "Region VIII (Eastern Visayas)", "ADM1_PCODE": "PH08", "ADM0_EN": "Philippines (the)", "ADM0_PCODE": "PH", "psgc_id": "PH083747000", "psgc_code": "083747000", "psgc_name": "Tacloban City (Capital)", "psgc_type": "city", "match_confidence": 1.0, "AREA_SQKM": 201.72, "population": 251881, "region_key": "r8"}}, {"type": "Feature", "geometry": {"type": "Polygon", "coordinates": [[[124.56, 11.08], [124.68, 11.07], [124.665, 10.98], [124.545, 10.99], [124.56, 11.08]]]}, "properties": {"ADM3_EN": "Ormoc City", "ADM3_PCODE": "PH083738000", "ADM2_EN": "Leyte", "ADM2_PCODE": "PH0837", "ADM1_EN": "Region VIII (Eastern Visayas)", "ADM1_PCODE": "PH08", "ADM0_EN": "Philippines (the)", "ADM0_PCODE": "PH", "psgc_id": "PH083738000", "psgc_code": "083738000", "psgc_name": "Ormoc City", "psgc_type": "city", "match_confidence": 1.0, "AREA_SQKM": 613.6, "population": 230998, "region_key": "r8"}}, {"type": "Feature", "geometry": {"type": "Polygon", "coordinates": [[[124.95, 11.2], [125.03, 11.195], [125.02, 11.135], [124.94, 11.14], [124.95, 11.2]]]}, "properties": {"ADM3_EN": "Palo", "ADM3_PCODE": "PH083739000", "ADM2_EN": "Leyte", "ADM2_PCODE": "PH0837", "ADM1_EN": "Region VIII (Eastern Visayas)", "ADM1_PCODE": "PH08", "ADM0_EN": "Philippines (the)", "ADM0_PCODE": "PH", "psgc_id": "PH083739000", "psgc_code": "083739000", "psgc_name": "Palo", "psgc_type": "municipality", "match_confidence": 1.0, "AREA_SQKM": 221.27, "population": 76214, "region_key": "r8"}}, {"type": "Feature", "geometry": {"type": "Polygon", "coordinates": [[[124.76, 10.73], [124.87, 10.72], [124.855, 10.63], [124.745, 10.64], [124.76, 10.73]]]}, "properties": {"ADM3_EN": "Baybay City", "ADM3_PCODE": "PH083710000", "ADM2_EN": "Leyte", "ADM2_PCODE": "PH0837", "ADM1_EN": "Region VIII (Eastern Visayas)", "ADM1_PCODE": "PH08", "ADM0_EN": "Philippines (the)", "ADM0_PCODE": "PH", "psgc_id": "PH083710000", "psgc_code": "083710000", "psgc_name": "Baybay City", "psgc_type": "city", "match_confidence": 1.0, "AREA_SQKM": 459.34, "population": 109432, "region_key": "r8"}}, {"type": "Feature", "geometry": {"type": "Polygon", "coordinates": [[[124.84, 11.83], [124.94, 11.82], [124.925, 11.745], [124.825, 11.755], [124.84, 11.83]]]}, "properties": {"ADM3_EN": "Catbalogan City (Capital)", "ADM3_PCODE": "PH086003000", "ADM2_EN": "Samar", "ADM2_PCODE": "PH0860", "ADM1_EN": "Region VIII (Eastern Visayas)", "ADM1_PCODE": "PH08", "ADM0_EN": "Philippines (the)", "ADM0_PCODE": "PH", "psgc_id": "PH086003000", "psgc_code": "086003000", "psgc_name": "Catbalogan City (Capital)", "psgc_type": "city", "match_confidence": 1.0, "AREA_SQKM": 274.22, "population": 106440, "region_key": "r8"}}]}