{"type": "FeatureCollection", "name": "region_antique_simplified", "region_key": "antique", "feature_count": 18, "features": [{"type": "Feature", "properties": {"ADM3_EN": "Anini-y", "ADM3_PCODE": "PH0600601", "ADM2_EN": "Antique", "ADM2_PCODE": "PH06006", "ADM1_EN": "Region VI (Western Visayas)", "ADM1_PCODE": "PH06", "ADM0_EN": "Philippines (the)", "ADM0_PCODE": "PH", "date": "2022-11-09", "validOn": "2023-11-06", "validTo": null, "ADM3_REF": null, "ADM3ALT1EN": null, "Shape_Leng": 0.387714511562, "Shape_Area": 0.00419167981164, "AREA_SQKM": 50.7627736513, "psgc_id": "PH0600601", "psgc_code": "0600601000", "psgc_name": "Anini-Y", "psgc_status": "matched", "match_confidence": 1.0, "psgc_type": "municipality", "match_method": "exact", "region_key": "panay", "province_key": "antique"}, "geometry": {"type": "MultiPolygon", "coordinates": [[[[122.0303, 10.4668], [121.9619, 10.4064], [121.9625, 10.4137], [121.9249, 10.4298], [121.9123, 10.4473], [121.9188, 10.4734], [121.9903, 10.4635], [122.0066, 10.4665], [122.013, 10.4765], [122.0303, 10.4668]]], [[[121.9215, 10.4153], [121.9163, 10.4173], [121.9226, 10.4198], [121.9215, 10.4153]]]]}}, {"type": "Feature", "properties": {"ADM3_EN": "Barbaza", "ADM3_PCODE": "PH0600602", "ADM2_EN": "Antique", "ADM2_PCODE": "PH06006", "ADM1_EN": "Region VI (Western Visayas)", "ADM1_PCODE": "PH06", "ADM0_EN": "Philippines (the)", "ADM0_PCODE": "PH", "date": "2022-11-09", "validOn": "2023-11-06", "validTo": null, "ADM3_REF": null, "ADM3ALT1EN": null, "Shape_Leng": 0.652643215622, "Shape_Area": 0.0146229198576, "AREA_SQKM": 176.623488895, "psgc_id": "PH0600602", "psgc_code": "0600602000", "psgc_name": "Barbaza", "psgc_status": "matched", "match_confidence": 1.0, "psgc_type": "municipality", "match_method": "exact", "region_key": "panay", "province_key": "antique"}, "geometry": {"type": "Polygon", "coordinates": [[[122.1825, 11.342], [122.2106, 11.2781], [122.2045, 11.2459], [122.1373, 11.2328], [122.1178, 11.2186], [122.1104, 11.1936], [122.0974, 11.1867], [122.0795, 11.1589], [122.0614, 11.1736], [122.0368, 11.1673], [122.0339, 11.1997], [122.0529, 11.2261], [122.0481, 11.2452], [122.0491, 11.25], [122.0716, 11.2477], [122.0803, 11.2636], [122.0943, 11.2653], [122.1313, 11.3288], [122.1587, 11.3246], [122.1644, 11.3454], [122.1825, 11.342]]]}}, {"type": "Feature", "properties": {"ADM3_EN": "Belison", "ADM3_PCODE": "PH0600603", "ADM2_EN": "Antique", "ADM2_PCODE": "PH06006", "ADM1_EN": "Region VI (Western Visayas)", "ADM1_PCODE": "PH06", "ADM0_EN": "Philippines (the)", "ADM0_PCODE": "PH", "date": "2022-11-09", "validOn": "2023-11-06", "validTo": null, "ADM3_REF": null, "ADM3ALT1EN": null, "Shape_Leng": 0.237512958765, "Shape_Area": 0.00246595592374, "AREA_SQKM": 29.8252787404, "psgc_id": "PH0600603", "psgc_code": "0600603000", "psgc_name": "Belison", "psgc_status": "matched", "match_confidence": 1.0, "psgc_type": "municipality", "match_method": "exact", "region_key": "panay", "province_key": "antique"}, "geometry": {"type": "Polygon", "coordinates": [[[122.0193, 10.8502], [122.0034, 10.8382], [121.9822, 10.8364], [121.9778, 10.813], [121.9495, 10.8245], [121.9671, 10.8738], [121.98, 10.8688], [122.0199, 10.8756], [122.0193, 10.8502]]]}}, {"type": "Feature", "properties": {"ADM3_EN": "Bugasong", "ADM3_PCODE": "PH0600604", "ADM2_EN": "Antique", "ADM2_PCODE": "PH06006", "ADM1_EN": "Region VI (Western Visayas)", "ADM1_PCODE": "PH06", "ADM0_EN": "Philippines (the)", "ADM0_PCODE": "PH", "date": "2022-11-09", "validOn": "2023-11-06", "validTo": null, "ADM3_REF": null, "ADM3ALT1EN": null, "Shape_Leng": 0.790672773113, "Shape_Area": 0.0144131807322, "AREA_SQKM": 174.18386861, "psgc_id": "PH0600604", "psgc_code": "0600604000", "psgc_name": "Bugasong", "psgc_status": "matched", "match_confidence": 1.0, "psgc_type": "municipality", "match_method": "exact", "region_key": "panay", "province_key": "antique"}, "geometry": {"type": "Polygon", "coordinates": [[[122.2399, 11.1335], [122.1873, 11.1167], [122.146, 11.0502], [122.1222, 11.0397], [122.1098, 11.0486], [122.1094, 11.028], [122.0947, 11.0121], [122.0897, 10.9889], [122.0691, 10.984], [122.0366, 10.9966], [122.0396, 11.0177], [122.0541, 11.0325], [122.0417, 11.0773], [122.0749, 11.0819], [122.1008, 11.0716], [122.1431, 11.1321], [122.1541, 11.1625], [122.1468, 11.1664], [122.1526, 11.1676], [122.1525, 11.1835], [122.1575, 11.1781], [122.1603, 11.19], [122.1805, 11.2066], [122.201, 11.2104], [122.2125, 11.1661], [122.2399, 11.1335]]]}}, {"type": "Feature", "properties": {"ADM3_EN": "Caluya", "ADM3_PCODE": "PH0600605", "ADM2_EN": "Antique", "ADM2_PCODE": "PH06006", "ADM1_EN": "Region VI (Western Visayas)", "ADM1_PCODE": "PH06", "ADM0_EN": "Philippines (the)", "ADM0_PCODE": "PH", "date": "2022-11-09", "validOn": "2023-11-06", "validTo": null, "ADM3_REF": null, "ADM3ALT1EN": null, "Shape_Leng": 1.75223890303, "Shape_Area": 0.0114901185547, "AREA_SQKM": 138.436620525, "psgc_id": "PH0600605", "psgc_code": "0600605000", "psgc_name": "Caluya", "psgc_status": "matched", "match_confidence": 1.0, "psgc_type": "municipality", "match_method": "exact", "region_key": "panay", "province_key": "antique"}, "geometry": {"type": "MultiPolygon", "coordinates": [[[[121.4341, 12.2069], [121.4341, 12.1971], [121.4271, 12.1951], [121.4217, 12.2047], [121.4341, 12.2069]]], [[[121.3957, 12.1553], [121.3967, 12.1543], [121.3961, 12.1539], [121.3957, 12.1553]]], [[[121.3888, 11.9832], [121.3633, 12.0318], [121.3644, 12.054], [121.3535, 12.0551], [121.3714, 12.0566], [121.3817, 12.0705], [121.3724, 12.0777], [121.3638, 12.0678], [121.3617, 12.0855], [121.3495, 12.0902], [121.3485, 12.0834], [121.3431, 12.0878], [121.3476, 12.0859], [121.3484, 12.0865], [121.3443, 12.0892], [121.3476, 12.0889], [121.3472, 12.0927], [121.3452, 12.0964], [121.3562, 12.0995], [121.3486, 12.0994], [121.3525, 12.1196], [121.3605, 12.1151], [121.3811, 12.1258], [121.3901, 12.1224], [121.3933, 12.1092], [121.4144, 12.0989], [121.4056, 12.0985], [121.3981, 12.0859], [121.405, 12.08], [121.3967, 12.0851], [121.3924, 12.076], [121.398, 12.0781], [121.4106, 12.0403], [121.4233, 12.0381], [121.4273, 12.0294], [121.4186, 12.0105], [121.4016, 12.0003], [121.3888, 11.9832]]], [[[121.5837, 12.0988], [121.579, 12.0959], [121.5683, 12.0958], [121.5774, 12.11], [121.5837, 12.0988]]], [[[121.3478, 12.1012], [121.3479, 12.101], [121.3477, 12.1011], [121.3478, 12.1012]]], [[[121.348, 12.1009], [121.3479, 12.1007], [121.3478, 12.101], [121.348, 12.1009]]], [[[121.3446, 12.0953], [121.3449, 12.0951], [121.3448, 12.095], [121.3446, 12.0953]]], [[[121.3443, 12.0945], [121.3441, 12.0942], [121.3442, 12.0946], [121.3443, 12.0945]]], [[[121.3443, 12.0942], [121.3444, 12.0941], [121.3443, 12.0941], [121.3443, 12.0942]]], [[[121.3448, 12.0929], [121.344, 12.0921], [121.3445, 12.094], [121.3448, 12.0929]]], [[[121.3435, 12.0933], [121.344, 12.0929], [121.3436, 12.0925], [121.3435, 12.0933]]], [[[121.3468, 12.0906], [121.3472, 12.0904], [121.3467, 12.0906], [121.3468, 12.0906]]], [[[121.3448, 12.0848], [121.3434, 12.085], [121.3434, 12.0854], [121.3448, 12.0848]]], [[[121.3615, 12.0821], [121.3587, 12.0813], [121.361, 12.084], [121.3615, 12.0821]]], [[[121.3603, 12.0772], [121.3569, 12.0729], [121.3556, 12.0759], [121.3603, 12.0772]]], [[[121.3606, 12.0702], [121.3604, 12.0717], [121.3614, 12.0716], [121.3606, 12.0702]]], [[[121.3618, 12.0703], [121.3611, 12.0705], [121.3621, 12.0711], [121.3618, 12.0703]]], [[[121.3589, 12.0703], [121.3582, 12.0703], [121.3585, 12.0706], [121.3589, 12.0703]]], [[[121.3615, 12.0673], [121.3607, 12.0671], [121.361, 12.0675], [121.3615, 12.0673]]], [[[121.4079, 12.0511], [121.408, 12.0511], [121.4079, 12.051], [121.4079, 12.0511]]], [[[121.4014, 11.9981], [121.4011, 11.9981], [121.4011, 11.9982], [121.4014, 11.9981]]], [[[121.4011, 11.9971], [121.4005, 11.9969], [121.4009, 11.9975], [121.4011, 11.9971]]], [[[121.3795, 11.9949], [121.3798, 11.9948], [121.3796, 11.9948], [121.3795, 11.9949]]], [[[121.5566, 11.9692], [121.5599, 11.9905], [121.5673, 11.9784], [121.5566, 11.9692]]], [[[121.5568, 11.9685], [121.5563, 11.9686], [121.5564, 11.9688], [121.5568, 11.9685]]], [[[121.5753, 11.9392], [121.5717, 11.9299], [121.583, 11.9055], [121.55, 11.8924], [121.5403, 11.9021], [121.5471, 11.9352], [121.5379, 11.95], [121.5559, 11.9593], [121.5753, 11.9392]]], [[[121.573, 11.9278], [121.5733, 11.928], [121.5734, 11.9279], [121.573, 11.9278]]], [[[121.4267, 11.868], [121.4752, 11.8637], [121.4796, 11.865], [121.4977, 11.861], [121.5128, 11.8614], [121.5304, 11.8436], [121.5153, 11.8264], [121.4781, 11.8255], [121.4541, 11.831], [121.4517, 11.8393], [121.4385, 11.8365], [121.4381, 11.8428], [121.4137, 11.8353], [121.4267, 11.868]]], [[[121.2953, 11.8568], [121.2888, 11.8616], [121.2827, 11.8632], [121.2901, 11.8642], [121.2953, 11.8568]]], [[[121.4789, 11.865], [121.4793, 11.865], [121.4792, 11.8649], [121.4789, 11.865]]], [[[121.4777, 11.8649], [121.4777, 11.8647], [121.4775, 11.8648], [121.4777, 11.8649]]], [[[121.5021, 11.8625], [121.5025, 11.8626], [121.5027, 11.8624], [121.5021, 11.8625]]], [[[121.4994, 11.8623], [121.4995, 11.8621], [121.4989, 11.8624], [121.4994, 11.8623]]], [[[121.3174, 11.8589], [121.3193, 11.8599], [121.3214, 11.8575], [121.3174, 11.8589]]], [[[121.3214, 11.8555], [121.3243, 11.8522], [121.3233, 11.8528], [121.3214, 11.8555]]]]}}, {"type": "Feature", "properties": {"ADM3_EN": "Culasi", "ADM3_PCODE": "PH0600606", "ADM2_EN": "Antique", "ADM2_PCODE": "PH06006", "ADM1_EN": "Region VI (Western Visayas)", "ADM1_PCODE": "PH06", "ADM0_EN": "Philippines (the)", "ADM0_PCODE": "PH", "date": "2022-11-09", "validOn": "2023-11-06", "validTo": null, "ADM3_REF": null, "ADM3ALT1EN": null, "Shape_Leng": 0.819095905502, "Shape_Area": 0.016314625291, "AREA_SQKM": 196.943645965, "psgc_id": "PH0600606", "psgc_code": "0600606000", "psgc_name": "Culasi", "psgc_status": "matched", "match_confidence": 1.0, "psgc_type": "municipality", "match_method": "exact", "region_key": "panay", "province_key": "antique"}, "geometry": {"type": "MultiPolygon", "coordinates": [[[[121.6989, 11.5933], [121.6909, 11.5948], [121.6851, 11.6087], [121.6956, 11.6041], [121.6989, 11.5933]]], [[[122.1825, 11.342], [122.1218, 11.3516], [122.093, 11.3654], [122.0792, 11.3574], [122.06, 11.3592], [122.0625, 11.3758], [122.0501, 11.4102], [122.0601, 11.4514], [122.0516, 11.4693], [122.0732, 11.4771], [122.0846, 11.501], [122.1066, 11.5185], [122.1443, 11.5195], [122.136, 11.5051], [122.1347, 11.4685], [122.1648, 11.4402], [122.1679, 11.4009], [122.1881, 11.3924], [122.1937, 11.3749], [122.1825, 11.342]]], [[[121.8901, 11.4708], [121.9285, 11.4784], [121.9304, 11.4763], [121.9312, 11.4737], [121.9155, 11.4629], [121.8901, 11.4708]]], [[[122.0157, 11.4096], [122.023, 11.4174], [122.0281, 11.4155], [122.0157, 11.4096]]], [[[122.015, 11.4109], [122.014, 11.4114], [122.0154, 11.4115], [122.015, 11.4109]]]]}}, {"type": "Feature", "properties": {"ADM3_EN": "Hamtic", "ADM3_PCODE": "PH0600608", "ADM2_EN": "Antique", "ADM2_PCODE": "PH06006", "ADM1_EN": "Region VI (Western Visayas)", "ADM1_PCODE": "PH06", "ADM0_EN": "Philippines (the)", "ADM0_PCODE": "PH", "date": "2022-11-09", "validOn": "2023-11-06", "validTo": null, "ADM3_REF": null, "ADM3ALT1EN": null, "Shape_Leng": 0.490585423258, "Shape_Area": 0.0112032159483, "AREA_SQKM": 135.580687057, "psgc_id": "PH0600608", "psgc_code": "0600608000", "psgc_name": "Hamtic", "psgc_status": "matched", "match_confidence": 1.0, "psgc_type": "municipality", "match_method": "exact", "region_key": "panay", "province_key": "antique"}, "geometry": {"type": "Polygon", "coordinates": [[[121.9948, 10.7462], [122.0312, 10.714], [122.0622, 10.7072], [122.0737, 10.6894], [122.0472, 10.6316], [122.0348, 10.6234], [122.0258, 10.5887], [121.9852, 10.5849], [121.9669, 10.5879], [121.9786, 10.6696], [121.9612, 10.7212], [121.9763, 10.7465], [121.9948, 10.7462]]]}}, {"type": "Feature", "properties": {"ADM3_EN": "Laua-an", "ADM3_PCODE": "PH0600609", "ADM2_EN": "Antique", "ADM2_PCODE": "PH06006", "ADM1_EN": "Region VI (Western Visayas)", "ADM1_PCODE": "PH06", "ADM0_EN": "Philippines (the)", "ADM0_PCODE": "PH", "date": "2022-11-09", "validOn": "2023-11-06", "validTo": null, "ADM3_REF": null, "ADM3ALT1EN": null, "Shape_Leng": 0.655198938126, "Shape_Area": 0.0132304989625, "AREA_SQKM": 159.85797584, "psgc_id": "PH0600609", "psgc_code": "0600609000", "psgc_name": "Laua-An", "psgc_status": "matched", "match_confidence": 1.0, "psgc_type": "municipality", "match_method": "exact", "region_key": "panay", "province_key": "antique"}, "geometry": {"type": "Polygon", "coordinates": [[[122.2045, 11.2459], [122.201, 11.2104], [122.187, 11.21], [122.1603, 11.19], [122.1568, 11.1777], [122.1525, 11.1835], [122.1526, 11.1676], [122.1468, 11.1664], [122.1541, 11.1625], [122.1431, 11.1321], [122.1008, 11.0716], [122.0749, 11.0819], [122.0417, 11.0773], [122.0368, 11.1673], [122.0614, 11.1736], [122.0795, 11.1589], [122.0974, 11.1867], [122.1104, 11.1936], [122.1178, 11.2186], [122.1373, 11.2328], [122.2045, 11.2459]]]}}, {"type": "Feature", "properties": {"ADM3_EN": "Libertad", "ADM3_PCODE": "PH0600610", "ADM2_EN": "Antique", "ADM2_PCODE": "PH06006", "ADM1_EN": "Region VI (Western Visayas)", "ADM1_PCODE": "PH06", "ADM0_EN": "Philippines (the)", "ADM0_PCODE": "PH", "date": "2022-11-09", "validOn": "2023-11-06", "validTo": null, "ADM3_REF": null, "ADM3ALT1EN": null, "Shape_Leng": 0.478444323053, "Shape_Area": 0.0078867232415, "AREA_SQKM": 95.0842222314, "psgc_id": "PH0600610", "psgc_code": "0600610000", "psgc_name": "Libertad", "psgc_status": "matched", "match_confidence": 1.0, "psgc_type": "municipality", "match_method": "exact", "region_key": "panay", "province_key": "antique"}, "geometry": {"type": "Polygon", "coordinates": [[[122.0033, 11.8255], [122.0159, 11.8019], [121.9994, 11.7467], [121.9178, 11.7677], [121.8723, 11.7554], [121.8431, 11.7636], [121.8778, 11.7715], [121.8928, 11.7998], [121.9058, 11.7972], [121.9367, 11.8226], [122.0033, 11.8255]]]}}, {"type": "Feature", "properties": {"ADM3_EN": "Pandan", "ADM3_PCODE": "PH0600611", "ADM2_EN": "Antique", "ADM2_PCODE": "PH06006", "ADM1_EN": "Region VI (Western Visayas)", "ADM1_PCODE": "PH06", "ADM0_EN": "Philippines (the)", "ADM0_PCODE": "PH", "date": "2022-11-09", "validOn": "2023-11-06", "validTo": null, "ADM3_REF": null, "ADM3ALT1EN": null, "Shape_Leng": 0.596211304435, "Shape_Area": 0.0121860055304, "AREA_SQKM": 146.940726215, "psgc_id": "PH0600611", "psgc_code": "0600611000", "psgc_name": "Pandan", "psgc_status": "matched", "match_confidence": 1.0, "psgc_type": "municipality", "match_method": "exact", "region_key": "panay", "province_key": "antique"}, "geometry": {"type": "Polygon", "coordinates": [[[122.0107, 11.8229], [122.0923, 11.7768], [122.109, 11.779], [122.1282, 11.7636], [122.1565, 11.7568], [122.1734, 11.7164], [122.1707, 11.6857], [122.1614, 11.6757], [122.1289, 11.6804], [122.1205, 11.6696], [122.0981, 11.6719], [122.0993, 11.7065], [122.0739, 11.7357], [122.0639, 11.7402], [122.0451, 11.7321], [122.0221, 11.7422], [122.0127, 11.7361], [121.9994, 11.7467], [122.0159, 11.8019], [122.0107, 11.8229]]]}}, {"type": "Feature", "properties": {"ADM3_EN": "Patnongon", "ADM3_PCODE": "PH0600612", "ADM2_EN": "Antique", "ADM2_PCODE": "PH06006", "ADM1_EN": "Region VI (Western Visayas)", "ADM1_PCODE": "PH06", "ADM0_EN": "Philippines (the)", "ADM0_PCODE": "PH", "date": "2022-11-09", "validOn": "2023-11-06", "validTo": null, "ADM3_REF": null, "ADM3ALT1EN": null, "Shape_Leng": 0.419391403945, "Shape_Area": 0.0110229011003, "AREA_SQKM": 133.287691091, "psgc_id": "PH0600612", "psgc_code": "0600612000", "psgc_name": "Patnongon", "psgc_status": "matched", "match_confidence": 1.0, "psgc_type": "municipality", "match_method": "exact", "region_key": "panay", "province_key": "antique"}, "geometry": {"type": "Polygon", "coordinates": [[[122.0691, 10.984], [122.0945, 10.9368], [122.0749, 10.8762], [122.0505, 10.8633], [122.0199, 10.8756], [121.98, 10.8688], [121.967, 10.8735], [121.9842, 10.9321], [122.0366, 10.9966], [122.0691, 10.984]]]}}, {"type": "Feature", "properties": {"ADM3_EN": "San Jose (Capital)", "ADM3_PCODE": "PH0600613", "ADM2_EN": "Antique", "ADM2_PCODE": "PH06006", "ADM1_EN": "Region VI (Western Visayas)", "ADM1_PCODE": "PH06", "ADM0_EN": "Philippines (the)", "ADM0_PCODE": "PH", "date": "2022-11-09", "validOn": "2023-11-06", "validTo": null, "ADM3_REF": null, "ADM3ALT1EN": null, "Shape_Leng": 0.338093141391, "Shape_Area": 0.00369720993945, "AREA_SQKM": 44.7282178377, "psgc_id": "PH0600613", "psgc_code": "0600613000", "psgc_name": "San Jose", "psgc_status": "matched", "match_confidence": 1.0, "psgc_type": "municipality", "match_method": "exact", "region_key": "panay", "province_key": "antique"}, "geometry": {"type": "Polygon", "coordinates": [[[121.9747, 10.8121], [121.9807, 10.7915], [121.9768, 10.7642], [121.9944, 10.7569], [121.9948, 10.7462], [121.9763, 10.7465], [121.9612, 10.7208], [121.9465, 10.7376], [121.9336, 10.7403], [121.923, 10.7639], [121.9488, 10.809], [121.9495, 10.8245], [121.9747, 10.8121]]]}}, {"type": "Feature", "properties": {"ADM3_EN": "San Remigio", "ADM3_PCODE": "PH0600614", "ADM2_EN": "Antique", "ADM2_PCODE": "PH06006", "ADM1_EN": "Region VI (Western Visayas)", "ADM1_PCODE": "PH06", "ADM0_EN": "Philippines (the)", "ADM0_PCODE": "PH", "date": "2022-11-09", "validOn": "2023-11-06", "validTo": null, "ADM3_REF": null, "ADM3ALT1EN": null, "Shape_Leng": 0.878459823637, "Shape_Area": 0.0326353768711, "AREA_SQKM": 394.655006486, "psgc_id": "PH0600614", "psgc_code": "0600614000", "psgc_name": "San Remigio", "psgc_status": "matched", "match_confidence": 1.0, "psgc_type": "municipality", "match_method": "exact", "region_key": "panay", "province_key": "antique"}, "geometry": {"type": "Polygon", "coordinates": [[[122.3125, 10.9581], [122.3236, 10.9334], [122.309, 10.9222], [122.297, 10.9256], [122.283, 10.9111], [122.2809, 10.8923], [122.2606, 10.8952], [122.2649, 10.8769], [122.2583, 10.8606], [122.2443, 10.8495], [122.2244, 10.853], [122.201, 10.8347], [122.1943, 10.8037], [122.1414, 10.817], [122.1011, 10.8024], [122.0484, 10.8109], [122.0355, 10.847], [122.0193, 10.8502], [122.0199, 10.8756], [122.0505, 10.8633], [122.0659, 10.8683], [122.0873, 10.9063], [122.1134, 10.9231], [122.1325, 10.9586], [122.2041, 11.0075], [122.2155, 11.0081], [122.3125, 10.9581]]]}}, {"type": "Feature", "properties": {"ADM3_EN": "Sebaste", "ADM3_PCODE": "PH0600615", "ADM2_EN": "Antique", "ADM2_PCODE": "PH06006", "ADM1_EN": "Region VI (Western Visayas)", "ADM1_PCODE": "PH06", "ADM0_EN": "Philippines (the)", "ADM0_PCODE": "PH", "date": "2022-11-09", "validOn": "2023-11-06", "validTo": null, "ADM3_REF": null, "ADM3ALT1EN": null, "Shape_Leng": 0.506113337813, "Shape_Area": 0.00883464541283, "AREA_SQKM": 106.586812199, "psgc_id": "PH0600615", "psgc_code": "0600615000", "psgc_name": "Sebaste", "psgc_status": "matched", "match_confidence": 1.0, "psgc_type": "municipality", "match_method": "exact", "region_key": "panay", "province_key": "antique"}, "geometry": {"type": "Polygon", "coordinates": [[[122.1614, 11.6757], [122.1421, 11.6411], [122.1491, 11.5959], [122.1395, 11.5579], [122.1527, 11.526], [122.1477, 11.519], [122.1066, 11.5185], [122.085, 11.5005], [122.0781, 11.5375], [122.1013, 11.6446], [122.0964, 11.6732], [122.1137, 11.6679], [122.1289, 11.6804], [122.1614, 11.6757]]]}}, {"type": "Feature", "properties": {"ADM3_EN": "Sibalom", "ADM3_PCODE": "PH0600616", "ADM2_EN": "Antique", "ADM2_PCODE": "PH06006", "ADM1_EN": "Region VI (Western Visayas)", "ADM1_PCODE": "PH06", "ADM0_EN": "Philippines (the)", "ADM0_PCODE": "PH", "date": "2022-11-09", "validOn": "2023-11-06", "validTo": null, "ADM3_REF": null, "ADM3ALT1EN": null, "Shape_Leng": 0.657389152598, "Shape_Area": 0.0193958532347, "AREA_SQKM": 234.647391865, "psgc_id": "PH0600616", "psgc_code": "0600616000", "psgc_name": "Sibalom", "psgc_status": "matched", "match_confidence": 1.0, "psgc_type": "municipality", "match_method": "exact", "region_key": "panay", "province_key": "antique"}, "geometry": {"type": "Polygon", "coordinates": [[[122.1943, 10.8037], [122.175, 10.756], [122.1539, 10.7512], [122.0737, 10.6894], [122.0622, 10.7072], [122.0312, 10.714], [122.0011, 10.7376], [121.9898, 10.7484], [121.9944, 10.7569], [121.9768, 10.7642], [121.9747, 10.7765], [121.9822, 10.8364], [122.0034, 10.8382], [122.0117, 10.8504], [122.0355, 10.847], [122.0484, 10.8109], [122.1011, 10.8024], [122.1414, 10.817], [122.1943, 10.8037]]]}}, {"type": "Feature", "properties": {"ADM3_EN": "Tibiao", "ADM3_PCODE": "PH0600617", "ADM2_EN": "Antique", "ADM2_PCODE": "PH06006", "ADM1_EN": "Region VI (Western Visayas)", "ADM1_PCODE": "PH06", "ADM0_EN": "Philippines (the)", "ADM0_PCODE": "PH", "date": "2022-11-09", "validOn": "2023-11-06", "validTo": null, "ADM3_REF": null, "ADM3ALT1EN": null, "Shape_Leng": 0.461161665778, "Shape_Area": 0.00819156449725, "AREA_SQKM": 98.9224983699, "psgc_id": "PH0600617", "psgc_code": "0600617000", "psgc_name": "Tibiao", "psgc_status": "matched", "match_confidence": 1.0, "psgc_type": "municipality", "match_method": "exact", "region_key": "panay", "province_key": "antique"}, "geometry": {"type": "Polygon", "coordinates": [[[122.1644, 11.3454], [122.1587, 11.3246], [122.1417, 11.3307], [122.1269, 11.3252], [122.1267, 11.3119], [122.1156, 11.3113], [122.1191, 11.3048], [122.0943, 11.2653], [122.0803, 11.2636], [122.0716, 11.2477], [122.0491, 11.2496], [122.0519, 11.262], [122.0272, 11.3003], [122.0369, 11.3219], [122.0566, 11.3402], [122.06, 11.3592], [122.0792, 11.3574], [122.093, 11.3654], [122.1218, 11.3516], [122.1644, 11.3454]]]}}, {"type": "Feature", "properties": {"ADM3_EN": "Tobias Fornier (Dao)", "ADM3_PCODE": "PH0600607", "ADM2_EN": "Antique", "ADM2_PCODE": "PH06006", "ADM1_EN": "Region VI (Western Visayas)", "ADM1_PCODE": "PH06", "ADM0_EN": "Philippines (the)", "ADM0_PCODE": "PH", "date": "2022-11-09", "validOn": "2023-11-06", "validTo": null, "ADM3_REF": null, "ADM3ALT1EN": "Dao", "Shape_Leng": 0.447225521739, "Shape_Area": 0.00915263351769, "AREA_SQKM": 110.815918882, "psgc_id": "PH0600607", "psgc_code": "0600607000", "psgc_name": "Tobias Fornier", "psgc_status": "matched", "match_confidence": 1.0, "psgc_type": "municipality", "match_method": "exact", "region_key": "panay", "province_key": "antique"}, "geometry": {"type": "Polygon", "coordinates": [[[122.0236, 10.589], [122.0087, 10.4688], [121.9569, 10.4636], [121.9186, 10.4734], [121.9222, 10.487], [121.9145, 10.5045], [121.9232, 10.5046], [121.951, 10.5363], [121.9669, 10.5879], [122.0236, 10.589]]]}}, {"type": "Feature", "properties": {"ADM3_EN": "Valderrama", "ADM3_PCODE": "PH0600618", "ADM2_EN": "Antique", "ADM2_PCODE": "PH06006", "ADM1_EN": "Region VI (Western Visayas)", "ADM1_PCODE": "PH06", "ADM0_EN": "Philippines (the)", "ADM0_PCODE": "PH", "date": "2022-11-09", "validOn": "2023-11-06", "validTo": null, "ADM3_REF": null, "ADM3ALT1EN": null, "Shape_Leng": 0.843001484181, "Shape_Area": 0.0255316168155, "AREA_SQKM": 308.61637761, "psgc_id": "PH0600618", "psgc_code": "0600618000", "psgc_name": "Valderrama", "psgc_status": "matched", "match_confidence": 1.0, "psgc_type": "municipality", "match_method": "exact", "region_key": "panay", "province_key": "antique"}, "geometry": {"type": "Polygon", "coordinates": [[[122.3085, 11.0473], [122.3237, 11.0153], [122.3125, 10.9581], [122.2077, 11.0087], [122.1325, 10.9586], [122.1109, 10.9202], [122.0862, 10.9069], [122.0945, 10.9368], [122.0691, 10.984], [122.0897, 10.9889], [122.0947, 11.0121], [122.1094, 11.028], [122.1098, 11.0486], [122.1222, 11.0397], [122.153, 11.0566], [122.168, 11.0902], [122.1934, 11.1214], [122.2399, 11.1335], [122.3085, 11.0473]]]}}]}