{"type": "FeatureCollection", "name": "region_capiz_simplified", "region_key": "capiz", "feature_count": 16, "features": [{"type": "Feature", "properties": {"ADM3_EN": "Cuartero", "ADM3_PCODE": "PH0601901", "ADM2_EN": "Capiz", "ADM2_PCODE": "PH06019", "ADM1_EN": "Region VI (Western Visayas)", "ADM1_PCODE": "PH06", "ADM0_EN": "Philippines (the)", "ADM0_PCODE": "PH", "date": "2022-11-09", "validOn": "2023-11-06", "validTo": null, "ADM3_REF": null, "ADM3ALT1EN": null, "Shape_Leng": 0.624551628759, "Shape_Area": 0.00873840243501, "AREA_SQKM": 105.526973808, "psgc_id": "PH0601901", "psgc_code": "0601901000", "psgc_name": "Cuartero", "psgc_status": "matched", "match_confidence": 1.0, "psgc_type": "municipality", "match_method": "exact", "region_key": "panay", "province_key": "capiz"}, "geometry": {"type": "Polygon", "coordinates": [[[122.7586, 11.3449], [122.7811, 11.3286], [122.8127, 11.323], [122.8239, 11.3286], [122.8419, 11.319], [122.8448, 11.3048], [122.8536, 11.305], [122.8736, 11.2779], [122.8551, 11.2559], [122.8446, 11.2603], [122.8335, 11.2823], [122.8106, 11.2704], [122.802, 11.2761], [122.7973, 11.2954], [122.763, 11.2998], [122.7209, 11.2926], [122.6696, 11.3063], [122.6586, 11.3169], [122.6682, 11.3313], [122.6525, 11.3382], [122.6562, 11.3532], [122.7004, 11.346], [122.7265, 11.3329], [122.7468, 11.3317], [122.7586, 11.3449]]]}}, {"type": "Feature", "properties": {"ADM3_EN": "Dao", "ADM3_PCODE": "PH0601902", "ADM2_EN": "Capiz", "ADM2_PCODE": "PH06019", "ADM1_EN": "Region VI (Western Visayas)", "ADM1_PCODE": "PH06", "ADM0_EN": "Philippines (the)", "ADM0_PCODE": "PH", "date": "2022-11-09", "validOn": "2023-11-06", "validTo": null, "ADM3_REF": null, "ADM3ALT1EN": null, "Shape_Leng": 0.378672425977, "Shape_Area": 0.00619468039271, "AREA_SQKM": 74.7918707836, "psgc_id": "PH0601902", "psgc_code": "0601902000", "psgc_name": "Dao", "psgc_status": "matched", "match_confidence": 1.0, "psgc_type": "municipality", "match_method": "exact", "region_key": "panay", "province_key": "capiz"}, "geometry": {"type": "Polygon", "coordinates": [[[122.7435, 11.3701], [122.7586, 11.3449], [122.7468, 11.3317], [122.7265, 11.3329], [122.7004, 11.346], [122.6562, 11.3532], [122.6469, 11.3669], [122.6644, 11.4006], [122.6875, 11.4018], [122.6985, 11.4151], [122.7348, 11.424], [122.7477, 11.4016], [122.7435, 11.3701]]]}}, {"type": "Feature", "properties": {"ADM3_EN": "Dumalag", "ADM3_PCODE": "PH0601903", "ADM2_EN": "Capiz", "ADM2_PCODE": "PH06019", "ADM1_EN": "Region VI (Western Visayas)", "ADM1_PCODE": "PH06", "ADM0_EN": "Philippines (the)", "ADM0_PCODE": "PH", "date": "2022-11-09", "validOn": "2023-11-06", "validTo": null, "ADM3_REF": null, "ADM3ALT1EN": null, "Shape_Leng": 0.412772975388, "Shape_Area": 0.00760079452044, "AREA_SQKM": 91.7885807719, "psgc_id": "PH0601903", "psgc_code": "0601903000", "psgc_name": "Dumalag", "psgc_status": "matched", "match_confidence": 1.0, "psgc_type": "municipality", "match_method": "exact", "region_key": "panay", "province_key": "capiz"}, "geometry": {"type": "Polygon", "coordinates": [[[122.6469, 11.3669], [122.6562, 11.3532], [122.6525, 11.3382], [122.6685, 11.3306], [122.6585, 11.3194], [122.6644, 11.3102], [122.6533, 11.2942], [122.6502, 11.2697], [122.5819, 11.2567], [122.5869, 11.2727], [122.5601, 11.3193], [122.578, 11.3271], [122.5966, 11.3567], [122.6469, 11.3669]]]}}, {"type": "Feature", "properties": {"ADM3_EN": "Dumarao", "ADM3_PCODE": "PH0601904", "ADM2_EN": "Capiz", "ADM2_PCODE": "PH06019", "ADM1_EN": "Region VI (Western Visayas)", "ADM1_PCODE": "PH06", "ADM0_EN": "Philippines (the)", "ADM0_PCODE": "PH", "date": "2022-11-09", "validOn": "2023-11-06", "validTo": null, "ADM3_REF": null, "ADM3ALT1EN": null, "Shape_Leng": 0.710990055218, "Shape_Area": 0.0183939882545, "AREA_SQKM": 222.17609841, "psgc_id": "PH0601904", "psgc_code": "0601904000", "psgc_name": "Dumarao", "psgc_status": "matched", "match_confidence": 1.0, "psgc_type": "municipality", "match_method": "exact", "region_key": "panay", "province_key": "capiz"}, "geometry": {"type": "Polygon", "coordinates": [[[122.8446, 11.2603], [122.8667, 11.2525], [122.8731, 11.237], [122.8504, 11.1956], [122.8146, 11.1939], [122.7868, 11.1836], [122.7888, 11.1993], [122.7723, 11.2272], [122.7504, 11.2217], [122.7438, 11.2292], [122.7261, 11.2271], [122.7053, 11.2127], [122.6584, 11.2099], [122.6154, 11.236], [122.6329, 11.2666], [122.6502, 11.2697], [122.6533, 11.2942], [122.6676, 11.3103], [122.7209, 11.2926], [122.763, 11.2998], [122.7973, 11.2954], [122.802, 11.2761], [122.8106, 11.2704], [122.8335, 11.2823], [122.8446, 11.2603]]]}}, {"type": "Feature", "properties": {"ADM3_EN": "Ivisan", "ADM3_PCODE": "PH0601905", "ADM2_EN": "Capiz", "ADM2_PCODE": "PH06019", "ADM1_EN": "Region VI (Western Visayas)", "ADM1_PCODE": "PH06", "ADM0_EN": "Philippines (the)", "ADM0_PCODE": "PH", "date": "2022-11-09", "validOn": "2023-11-06", "validTo": null, "ADM3_REF": null, "ADM3ALT1EN": null, "Shape_Leng": 0.479274703933, "Shape_Area": 0.00479852456529, "AREA_SQKM": 57.9065273417, "psgc_id": "PH0601905", "psgc_code": "0601905000", "psgc_name": "Ivisan", "psgc_status": "matched", "match_confidence": 1.0, "psgc_type": "municipality", "match_method": "exact", "region_key": "panay", "province_key": "capiz"}, "geometry": {"type": "Polygon", "coordinates": [[[122.6629, 11.5475], [122.6991, 11.5389], [122.706, 11.5444], [122.7341, 11.5167], [122.7239, 11.5023], [122.7293, 11.4856], [122.6774, 11.4871], [122.6716, 11.4967], [122.6486, 11.5013], [122.6338, 11.5217], [122.6486, 11.5401], [122.6447, 11.5492], [122.6327, 11.5476], [122.6384, 11.5522], [122.6343, 11.5622], [122.6456, 11.5667], [122.6423, 11.5722], [122.6493, 11.5741], [122.6505, 11.5574], [122.6629, 11.5475]]]}}, {"type": "Feature", "properties": {"ADM3_EN": "Jamindan", "ADM3_PCODE": "PH0601906", "ADM2_EN": "Capiz", "ADM2_PCODE": "PH06019", "ADM1_EN": "Region VI (Western Visayas)", "ADM1_PCODE": "PH06", "ADM0_EN": "Philippines (the)", "ADM0_PCODE": "PH", "date": "2022-11-09", "validOn": "2023-11-06", "validTo": null, "ADM3_REF": null, "ADM3ALT1EN": null, "Shape_Leng": 1.2549093641, "Shape_Area": 0.0390669974995, "AREA_SQKM": 471.69025093, "psgc_id": "PH0601906", "psgc_code": "0601906000", "psgc_name": "Jamindan", "psgc_status": "matched", "match_confidence": 1.0, "psgc_type": "municipality", "match_method": "exact", "region_key": "panay", "province_key": "capiz"}, "geometry": {"type": "Polygon", "coordinates": [[[122.5306, 11.4796], [122.5148, 11.4661], [122.5352, 11.4441], [122.5259, 11.4368], [122.5357, 11.4181], [122.5534, 11.41], [122.5523, 11.3839], [122.5704, 11.3858], [122.5966, 11.3567], [122.578, 11.3271], [122.5636, 11.3217], [122.5165, 11.35], [122.3654, 11.3466], [122.3475, 11.3324], [122.318, 11.2655], [122.202, 11.2187], [122.2106, 11.2781], [122.1999, 11.312], [122.2469, 11.3177], [122.2981, 11.3483], [122.3365, 11.3913], [122.3508, 11.4423], [122.3708, 11.4276], [122.4001, 11.456], [122.4051, 11.4777], [122.4738, 11.4763], [122.4836, 11.489], [122.5044, 11.4846], [122.53, 11.4932], [122.5306, 11.4796]]]}}, {"type": "Feature", "properties": {"ADM3_EN": "Ma-ayon", "ADM3_PCODE": "PH0601907", "ADM2_EN": "Capiz", "ADM2_PCODE": "PH06019", "ADM1_EN": "Region VI (Western Visayas)", "ADM1_PCODE": "PH06", "ADM0_EN": "Philippines (the)", "ADM0_PCODE": "PH", "date": "2022-11-09", "validOn": "2023-11-06", "validTo": null, "ADM3_REF": null, "ADM3ALT1EN": null, "Shape_Leng": 0.624205673544, "Shape_Area": 0.0156377426821, "AREA_SQKM": 188.817746062, "psgc_id": "PH0601907", "psgc_code": "0601907000", "psgc_name": "Ma-Ayon", "psgc_status": "matched", "match_confidence": 1.0, "psgc_type": "municipality", "match_method": "exact", "region_key": "panay", "province_key": "capiz"}, "geometry": {"type": "Polygon", "coordinates": [[[122.8244, 11.4168], [122.8707, 11.3786], [122.884, 11.3873], [122.8991, 11.3857], [122.9408, 11.3604], [122.935, 11.3295], [122.9456, 11.3038], [122.9083, 11.2912], [122.8947, 11.2943], [122.8722, 11.2813], [122.8536, 11.305], [122.8448, 11.3048], [122.841, 11.3195], [122.8239, 11.3286], [122.8127, 11.323], [122.7811, 11.3286], [122.7776, 11.337], [122.7527, 11.3449], [122.7576, 11.3922], [122.7682, 11.4003], [122.76, 11.4149], [122.7789, 11.4077], [122.8244, 11.4168]]]}}, {"type": "Feature", "properties": {"ADM3_EN": "Mambusao", "ADM3_PCODE": "PH0601908", "ADM2_EN": "Capiz", "ADM2_PCODE": "PH06019", "ADM1_EN": "Region VI (Western Visayas)", "ADM1_PCODE": "PH06", "ADM0_EN": "Philippines (the)", "ADM0_PCODE": "PH", "date": "2022-11-09", "validOn": "2023-11-06", "validTo": null, "ADM3_REF": null, "ADM3ALT1EN": null, "Shape_Leng": 0.463048999634, "Shape_Area": 0.00851499790223, "AREA_SQKM": 102.786552578, "psgc_id": "PH0601908", "psgc_code": "0601908000", "psgc_name": "Mambusao", "psgc_status": "matched", "match_confidence": 1.0, "psgc_type": "municipality", "match_method": "exact", "region_key": "panay", "province_key": "capiz"}, "geometry": {"type": "Polygon", "coordinates": [[[122.6441, 11.4719], [122.633, 11.4518], [122.6347, 11.4254], [122.6212, 11.415], [122.6246, 11.4016], [122.5967, 11.3741], [122.5966, 11.3567], [122.5704, 11.3858], [122.5523, 11.3839], [122.5534, 11.41], [122.5357, 11.4181], [122.5259, 11.4368], [122.5352, 11.4441], [122.5148, 11.4661], [122.5306, 11.4796], [122.557, 11.4659], [122.6191, 11.4758], [122.6441, 11.4719]]]}}, {"type": "Feature", "properties": {"ADM3_EN": "Panay", "ADM3_PCODE": "PH0601909", "ADM2_EN": "Capiz", "ADM2_PCODE": "PH06019", "ADM1_EN": "Region VI (Western Visayas)", "ADM1_PCODE": "PH06", "ADM0_EN": "Philippines (the)", "ADM0_PCODE": "PH", "date": "2022-11-09", "validOn": "2023-11-06", "validTo": null, "ADM3_REF": null, "ADM3ALT1EN": null, "Shape_Leng": 0.712483960298, "Shape_Area": 0.0109976544312, "AREA_SQKM": 132.707910206, "psgc_id": "PH0601909", "psgc_code": "0601909000", "psgc_name": "Panay", "psgc_status": "matched", "match_confidence": 1.0, "psgc_type": "municipality", "match_method": "exact", "region_key": "panay", "province_key": "capiz"}, "geometry": {"type": "MultiPolygon", "coordinates": [[[[122.8263, 11.6175], [122.8259, 11.6167], [122.8254, 11.6169], [122.8263, 11.6175]]], [[[122.8911, 11.4808], [122.8697, 11.4898], [122.873, 11.501], [122.8631, 11.5078], [122.8483, 11.496], [122.809, 11.49], [122.7968, 11.4803], [122.7819, 11.4804], [122.7847, 11.4918], [122.777, 11.4879], [122.7716, 11.5006], [122.7649, 11.4992], [122.7697, 11.5136], [122.7889, 11.5203], [122.7851, 11.5286], [122.7714, 11.5271], [122.7698, 11.548], [122.8044, 11.6071], [122.8308, 11.6084], [122.8264, 11.5973], [122.8575, 11.5679], [122.8644, 11.5407], [122.8798, 11.5445], [122.9311, 11.5161], [122.9078, 11.5028], [122.8911, 11.4808]]]]}}, {"type": "Feature", "properties": {"ADM3_EN": "Panitan", "ADM3_PCODE": "PH0601910", "ADM2_EN": "Capiz", "ADM2_PCODE": "PH06019", "ADM1_EN": "Region VI (Western Visayas)", "ADM1_PCODE": "PH06", "ADM0_EN": "Philippines (the)", "ADM0_PCODE": "PH", "date": "2022-11-09", "validOn": "2023-11-06", "validTo": null, "ADM3_REF": null, "ADM3ALT1EN": null, "Shape_Leng": 0.493889845816, "Shape_Area": 0.00747101856188, "AREA_SQKM": 90.1813188702, "psgc_id": "PH0601910", "psgc_code": "0601910000", "psgc_name": "Panitan", "psgc_status": "matched", "match_confidence": 1.0, "psgc_type": "municipality", "match_method": "exact", "region_key": "panay", "province_key": "capiz"}, "geometry": {"type": "Polygon", "coordinates": [[[122.7722, 11.4967], [122.777, 11.4879], [122.785, 11.4915], [122.7819, 11.4804], [122.8085, 11.476], [122.8221, 11.4573], [122.8244, 11.4168], [122.7789, 11.4077], [122.76, 11.4149], [122.7682, 11.4003], [122.7576, 11.3922], [122.7498, 11.3567], [122.7435, 11.3701], [122.7477, 11.4016], [122.7208, 11.4495], [122.7283, 11.4611], [122.7221, 11.469], [122.7287, 11.4822], [122.7488, 11.4811], [122.7722, 11.4967]]]}}, {"type": "Feature", "properties": {"ADM3_EN": "Pilar", "ADM3_PCODE": "PH0601911", "ADM2_EN": "Capiz", "ADM2_PCODE": "PH06019", "ADM1_EN": "Region VI (Western Visayas)", "ADM1_PCODE": "PH06", "ADM0_EN": "Philippines (the)", "ADM0_PCODE": "PH", "date": "2022-11-09", "validOn": "2023-11-06", "validTo": null, "ADM3_REF": null, "ADM3ALT1EN": null, "Shape_Leng": 0.556896162149, "Shape_Area": 0.00977588719773, "AREA_SQKM": 117.994645578, "psgc_id": "PH0601911", "psgc_code": "0601911000", "psgc_name": "Pilar", "psgc_status": "matched", "match_confidence": 1.0, "psgc_type": "municipality", "match_method": "exact", "region_key": "panay", "province_key": "capiz"}, "geometry": {"type": "Polygon", "coordinates": [[[123.074, 11.4898], [123.0427, 11.4421], [123.046, 11.4038], [123.0225, 11.3928], [123.0133, 11.3916], [122.9937, 11.4246], [122.9561, 11.4361], [122.9363, 11.464], [122.9407, 11.4784], [122.9892, 11.483], [123.0976, 11.5444], [123.0856, 11.5145], [123.0753, 11.5101], [123.074, 11.4898]]]}}, {"type": "Feature", "properties": {"ADM3_EN": "Pontevedra", "ADM3_PCODE": "PH0601912", "ADM2_EN": "Capiz", "ADM2_PCODE": "PH06019", "ADM1_EN": "Region VI (Western Visayas)", "ADM1_PCODE": "PH06", "ADM0_EN": "Philippines (the)", "ADM0_PCODE": "PH", "date": "2022-11-09", "validOn": "2023-11-06", "validTo": null, "ADM3_REF": null, "ADM3ALT1EN": null, "Shape_Leng": 0.688168685198, "Shape_Area": 0.00868113408904, "AREA_SQKM": 104.789765925, "psgc_id": "PH0601912", "psgc_code": "0601912000", "psgc_name": "Pontevedra", "psgc_status": "matched", "match_confidence": 1.0, "psgc_type": "municipality", "match_method": "exact", "region_key": "panay", "province_key": "capiz"}, "geometry": {"type": "Polygon", "coordinates": [[[122.8911, 11.4808], [122.8952, 11.4655], [122.8832, 11.4651], [122.8799, 11.4618], [122.9018, 11.4562], [122.8904, 11.4543], [122.8913, 11.4465], [122.881, 11.4399], [122.8918, 11.4387], [122.8878, 11.4318], [122.909, 11.4335], [122.9045, 11.423], [122.9161, 11.3977], [122.9509, 11.37], [122.9408, 11.3604], [122.8991, 11.3857], [122.884, 11.3873], [122.8707, 11.3786], [122.8244, 11.4168], [122.8221, 11.4573], [122.7968, 11.4803], [122.809, 11.49], [122.8483, 11.496], [122.8598, 11.5079], [122.873, 11.501], [122.8701, 11.4894], [122.8911, 11.4808]]]}}, {"type": "Feature", "properties": {"ADM3_EN": "President Roxas", "ADM3_PCODE": "PH0601913", "ADM2_EN": "Capiz", "ADM2_PCODE": "PH06019", "ADM1_EN": "Region VI (Western Visayas)", "ADM1_PCODE": "PH06", "ADM0_EN": "Philippines (the)", "ADM0_PCODE": "PH", "date": "2022-11-09", "validOn": "2023-11-06", "validTo": null, "ADM3_REF": null, "ADM3ALT1EN": null, "Shape_Leng": 0.410739301121, "Shape_Area": 0.0056694249509, "AREA_SQKM": 68.4399764039, "psgc_id": "PH0601913", "psgc_code": "0601913000", "psgc_name": "President Roxas", "psgc_status": "matched", "match_confidence": 1.0, "psgc_type": "municipality", "match_method": "exact", "region_key": "panay", "province_key": "capiz"}, "geometry": {"type": "Polygon", "coordinates": [[[122.9396, 11.473], [122.9363, 11.464], [122.9561, 11.4361], [122.9937, 11.4246], [123.0133, 11.3916], [122.9509, 11.37], [122.9161, 11.3977], [122.9036, 11.4357], [122.9186, 11.453], [122.9158, 11.4813], [122.9396, 11.473]]]}}, {"type": "Feature", "properties": {"ADM3_EN": "Sapi-an", "ADM3_PCODE": "PH0601915", "ADM2_EN": "Capiz", "ADM2_PCODE": "PH06019", "ADM1_EN": "Region VI (Western Visayas)", "ADM1_PCODE": "PH06", "ADM0_EN": "Philippines (the)", "ADM0_PCODE": "PH", "date": "2022-11-09", "validOn": "2023-11-06", "validTo": null, "ADM3_REF": null, "ADM3ALT1EN": null, "Shape_Leng": 0.528976884794, "Shape_Area": 0.00727650199752, "AREA_SQKM": 87.8156505741, "psgc_id": "PH0601915", "psgc_code": "0601915000", "psgc_name": "Sapi-An", "psgc_status": "matched", "match_confidence": 1.0, "psgc_type": "municipality", "match_method": "exact", "region_key": "panay", "province_key": "capiz"}, "geometry": {"type": "Polygon", "coordinates": [[[122.6338, 11.5217], [122.6486, 11.5013], [122.6716, 11.4967], [122.6751, 11.4882], [122.6661, 11.4714], [122.6191, 11.4758], [122.557, 11.4659], [122.5268, 11.4824], [122.5267, 11.5128], [122.5359, 11.5357], [122.5508, 11.5352], [122.5597, 11.5485], [122.5738, 11.5413], [122.5758, 11.5524], [122.5853, 11.5503], [122.5895, 11.5329], [122.5787, 11.5145], [122.58, 11.5087], [122.591, 11.5185], [122.6338, 11.5217]]]}}, {"type": "Feature", "properties": {"ADM3_EN": "Sigma", "ADM3_PCODE": "PH0601916", "ADM2_EN": "Capiz", "ADM2_PCODE": "PH06019", "ADM1_EN": "Region VI (Western Visayas)", "ADM1_PCODE": "PH06", "ADM0_EN": "Philippines (the)", "ADM0_PCODE": "PH", "date": "2022-11-09", "validOn": "2023-11-06", "validTo": null, "ADM3_REF": null, "ADM3ALT1EN": null, "Shape_Leng": 0.48997735729, "Shape_Area": 0.00886345318774, "AREA_SQKM": 106.99385557, "psgc_id": "PH0601916", "psgc_code": "0601916000", "psgc_name": "Sigma", "psgc_status": "matched", "match_confidence": 1.0, "psgc_type": "municipality", "match_method": "exact", "region_key": "panay", "province_key": "capiz"}, "geometry": {"type": "Polygon", "coordinates": [[[122.7293, 11.4856], [122.7208, 11.4495], [122.7348, 11.424], [122.6985, 11.4151], [122.6875, 11.4018], [122.6644, 11.4006], [122.6469, 11.3669], [122.5966, 11.3567], [122.5967, 11.3741], [122.6246, 11.4016], [122.6212, 11.415], [122.6347, 11.4254], [122.633, 11.4518], [122.6441, 11.4719], [122.6661, 11.4714], [122.6751, 11.4882], [122.7293, 11.4856]]]}}, {"type": "Feature", "properties": {"ADM3_EN": "Tapaz", "ADM3_PCODE": "PH0601917", "ADM2_EN": "Capiz", "ADM2_PCODE": "PH06019", "ADM1_EN": "Region VI (Western Visayas)", "ADM1_PCODE": "PH06", "ADM0_EN": "Philippines (the)", "ADM0_PCODE": "PH", "date": "2022-11-09", "validOn": "2023-11-06", "validTo": null, "ADM3_REF": null, "ADM3ALT1EN": null, "Shape_Leng": 1.15342139823, "Shape_Area": 0.0433476722785, "AREA_SQKM": 523.572001032, "psgc_id": "PH0601917", "psgc_code": "0601917000", "psgc_name": "Tapaz", "psgc_status": "matched", "match_confidence": 1.0, "psgc_type": "municipality", "match_method": "exact", "region_key": "panay", "province_key": "capiz"}, "geometry": {"type": "Polygon", "coordinates": [[[122.5636, 11.3217], [122.5869, 11.2727], [122.5788, 11.2603], [122.5824, 11.2527], [122.5592, 11.2383], [122.5622, 11.2253], [122.5488, 11.2137], [122.5494, 11.203], [122.5099, 11.1904], [122.4965, 11.1787], [122.4522, 11.193], [122.3953, 11.1901], [122.3257, 11.2249], [122.2399, 11.1335], [122.2125, 11.1661], [122.202, 11.2187], [122.318, 11.2655], [122.3475, 11.3324], [122.3613, 11.3449], [122.5165, 11.35], [122.5636, 11.3217]]]}}]}