{"type":"FeatureCollection","name":"car_municipalities","crs":{"type":"name","properties":{"name":"urn:ogc:def:crs:OGC:1.3:CRS84"}},"features":[{"type":"Feature","geometry":{"type":"MultiPolygon","coordinates":[[[[120.6113,17.4956],[120.6055,17.502],[120.6076,17.5085],[120.6091,17.5288],[120.6036,17.5383],[120.6054,17.5617],[120.5982,17.5684],[120.601,17.5755],[120.5997,17.5807],[120.5939,17.591],[120.5869,17.5952],[120.5802,17.6034],[120.5785,17.6075],[120.5799,17.6129],[120.573,17.6167],[120.5674,17.6238],[120.5655,17.6567],[120.5628,17.6648],[120.5288,17.6923],[120.5476,17.725],[120.5987,17.6732],[120.6042,17.6655],[120.6057,17.6606],[120.6025,17.6512],[120.6036,17.6439],[120.6026,17.6388],[120.6046,17.6335],[120.6081,17.6332],[120.6155,17.6236],[120.6233,17.6228],[120.6269,17.6151],[120.6297,17.6143],[120.6393,17.6031],[120.6947,17.5696],[120.6862,17.5618],[120.679,17.5615],[120.6733,17.5637],[120.6638,17.5725],[120.6559,17.5747],[120.6428,17.5714],[120.6374,17.5654],[120.6369,17.5393],[120.6405,17.5278],[120.6559,17.5106],[120.658,17.5102],[120.668,17.4996],[120.673,17.4907],[120.6271,17.493],[120.6113,17.4956]]]]},"properties":{"ADM3_EN":"Bangued","name":"Bangued","ADM3_PCODE":"PH140101000","psgc_code":"140101000","ADM2_EN":"Abra","ADM2_PCODE":"PH1401","ADM1_EN":"Cordillera Administrative Region (CAR)","ADM1_PCODE":"PH14","ADM0_EN":"Philippines (the)","ADM0_PCODE":"PH","region_key":"car","province_key":"abra","type":"Municipality"}},{"type":"Feature","geometry":{"type":"MultiPolygon","coordinates":[[[[120.814,17.3421],[120.7686,17.3403],[120.7634,17.3819],[120.7613,17.4168],[120.8792,17.4178],[120.9075,17.4193],[120.9246,17.4132],[120.9711,17.4046],[120.9904,17.398],[120.9785,17.3696],[120.9642,17.3438],[120.814,17.3421]]]]},"properties":{"ADM3_EN":"Boliney","name":"Boliney","ADM3_PCODE":"PH140102000","psgc_code":"140102000","ADM2_EN":"Abra","ADM2_PCODE":"PH1401","ADM1_EN":"Cordillera Administrative Region (CAR)","ADM1_PCODE":"PH14","ADM0_EN":"Philippines (the)","ADM0_PCODE":"PH","region_key":"car","province_key":"abra","type":"Municipality"}},{"type":"Feature","geometry":{"type":"MultiPolygon","coordinates":[[[[120.6777,17.4574],[120.6732,17.4697],[120.675,17.4716],[120.673,17.4907],[120.6694,17.4979],[120.658,17.5102],[120.6911,17.5035],[120.6979,17.5075],[120.6961,17.5349],[120.6839,17.5523],[120.6862,17.5618],[120.7044,17.5787],[120.7193,17.5873],[120.7308,17.577],[120.7855,17.5757],[120.7858,17.5698],[120.7824,17.5635],[120.7851,17.5618],[120.7915,17.546],[120.7628,17.5422],[120.7322,17.4632],[120.7277,17.4576],[120.7215,17.4538],[120.717,17.4536],[120.7079,17.454],[120.7031,17.4562],[120.6912,17.4578],[120.6777,17.4574]]]]},"properties":{"ADM3_EN":"Bucay","name":"Bucay","ADM3_PCODE":"PH140103000","psgc_code":"140103000","ADM2_EN":"Abra","ADM2_PCODE":"PH1401","ADM1_EN":"Cordillera Administrative Region (CAR)","ADM1_PCODE":"PH14","ADM0_EN":"Philippines (the)","ADM0_PCODE":"PH","region_key":"car","province_key":"abra","type":"Municipality"}},{"type":"Feature","geometry":{"type":"MultiPolygon","coordinates":[[[[120.7892,17.4452],[120.8846,17.4694],[120.8928,17.4464],[120.9075,17.4193],[120.8792,17.4178],[120.7896,17.417],[120.7892,17.4452]]]]},"properties":{"ADM3_EN":"Bucloc","name":"Bucloc","ADM3_PCODE":"PH140104000","psgc_code":"140104000","ADM2_EN":"Abra","ADM2_PCODE":"PH1401","ADM1_EN":"Cordillera Administrative Region (CAR)","ADM1_PCODE":"PH14","ADM0_EN":"Philippines (the)","ADM0_PCODE":"PH","region_key":"car","province_key":"abra","type":"Municipality"}},{"type":"Feature","geometry":{"type":"MultiPolygon","coordinates":[[[[120.9075,17.4193],[120.8928,17.4464],[120.8846,17.4694],[120.9069,17.4764],[120.9814,17.5053],[120.9871,17.5019],[120.9929,17.4932],[120.998,17.4914],[120.9984,17.4226],[120.9904,17.398],[120.9711,17.4046],[120.9246,17.4132],[120.9075,17.4193]]]]},"properties":{"ADM3_EN":"Daguioman","name":"Daguioman","ADM3_PCODE":"PH140105000","psgc_code":"140105000","ADM2_EN":"Abra","ADM2_PCODE":"PH1401","ADM1_EN":"Cordillera Administrative Region (CAR)","ADM1_PCODE":"PH14","ADM0_EN":"Philippines (the)","ADM0_PCODE":"PH","region_key":"car","province_key":"abra","type":"Municipality"}},{"type":"Feature","geometry":{"type":"MultiPolygon","coordinates":[[[[120.6696,17.6836],[120.6559,17.6684],[120.646,17.6675],[120.6338,17.6638],[120.6297,17.6659],[120.6301,17.6711],[120.627,17.6723],[120.6245,17.6777],[120.6252,17.6793],[120.6175,17.6831],[120.6148,17.6827],[120.609,17.6757],[120.6043,17.677],[120.596,17.6758],[120.5476,17.725],[120.5599,17.7518],[120.5651,17.7731],[120.5709,17.7862],[120.5818,17.7992],[120.6013,17.8095],[120.6237,17.8148],[120.6324,17.8193],[120.671,17.8283],[120.6737,17.7205],[120.6851,17.7029],[120.6696,17.6836]]]]},"properties":{"ADM3_EN":"Danglas","name":"Danglas","ADM3_PCODE":"PH140106000","psgc_code":"140106000","ADM2_EN":"Abra","ADM2_PCODE":"PH1401","ADM1_EN":"Cordillera Administrative Region (CAR)","ADM1_PCODE":"PH14","ADM0_EN":"Philippines (the)","ADM0_PCODE":"PH","region_key":"car","province_key":"abra","type":"Municipality"}},{"type":"Feature","geometry":{"type":"MultiPolygon","coordinates":[[[[120.7498,17.6231],[120.7489,17.6221],[120.7255,17.6279],[120.7157,17.6242],[120.7056,17.6236],[120.6941,17.6329],[120.6837,17.6368],[120.6635,17.6323],[120.6897,17.6594],[120.6951,17.6675],[120.6999,17.6692],[120.7043,17.6768],[120.7077,17.6876],[120.7102,17.6844],[120.7183,17.6818],[120.7172,17.6807],[120.7231,17.6724],[120.7196,17.6686],[120.7248,17.6657],[120.7797,17.6658],[120.7765,17.6466],[120.7699,17.6438],[120.7702,17.6402],[120.7672,17.6384],[120.7661,17.6339],[120.7624,17.6313],[120.7538,17.6282],[120.7475,17.6313],[120.7498,17.6231]]]]},"properties":{"ADM3_EN":"Dolores","name":"Dolores","ADM3_PCODE":"PH140107000","psgc_code":"140107000","ADM2_EN":"Abra","ADM2_PCODE":"PH1401","ADM1_EN":"Cordillera Administrative Region (CAR)","ADM1_PCODE":"PH14","ADM0_EN":"Philippines (the)","ADM0_PCODE":"PH","region_key":"car","province_key":"abra","type":"Municipality"}},{"type":"Feature","geometry":{"type":"MultiPolygon","coordinates":[[[[120.6081,17.6332],[120.6046,17.6335],[120.6026,17.6388],[120.6036,17.6439],[120.6025,17.6512],[120.6054,17.6628],[120.596,17.6758],[120.6043,17.677],[120.609,17.6757],[120.6148,17.6827],[120.6175,17.6831],[120.6252,17.6793],[120.6245,17.6777],[120.627,17.6723],[120.6301,17.6711],[120.6297,17.6659],[120.6316,17.664],[120.6559,17.6684],[120.6948,17.7129],[120.7123,17.7114],[120.7127,17.7064],[120.7066,17.6953],[120.7073,17.6843],[120.6999,17.6692],[120.6951,17.6675],[120.6897,17.6594],[120.6586,17.6278],[120.652,17.6281],[120.6411,17.6248],[120.6401,17.6295],[120.6372,17.6313],[120.6268,17.6275],[120.6223,17.6234],[120.6155,17.6236],[120.6081,17.6332]]]]},"properties":{"ADM3_EN":"La Paz","name":"La Paz","ADM3_PCODE":"PH140108000","psgc_code":"140108000","ADM2_EN":"Abra","ADM2_PCODE":"PH1401","ADM1_EN":"Cordillera Administrative Region (CAR)","ADM1_PCODE":"PH14","ADM0_EN":"Philippines (the)","ADM0_PCODE":"PH","region_key":"car","province_key":"abra","type":"Municipality"}},{"type":"Feature","geometry":{"type":"MultiPolygon","coordinates":[[[[120.9843,17.6534],[120.9048,17.6421],[120.8912,17.6444],[120.8412,17.6773],[120.875,17.7346],[120.8858,17.7556],[120.9451,17.7362],[121.1168,17.7414],[121.1227,17.684],[121.0915,17.6667],[120.9843,17.6534]]]]},"properties":{"ADM3_EN":"Lacub","name":"Lacub","ADM3_PCODE":"PH140109000","psgc_code":"140109000","ADM2_EN":"Abra","ADM2_PCODE":"PH1401","ADM1_EN":"Cordillera Administrative Region (CAR)","ADM1_PCODE":"PH14","ADM0_EN":"Philippines (the)","ADM0_PCODE":"PH","region_key":"car","province_key":"abra","type":"Municipality"}},{"type":"Feature","geometry":{"type":"MultiPolygon","coordinates":[[[[120.7187,17.5894],[120.716,17.5952],[120.7158,17.5997],[120.7234,17.6108],[120.7251,17.6184],[120.7235,17.6232],[120.7157,17.6242],[120.7229,17.6275],[120.7286,17.6278],[120.7496,17.6223],[120.7499,17.6258],[120.7475,17.6313],[120.7538,17.6282],[120.7624,17.6313],[120.7661,17.6339],[120.7672,17.6384],[120.7702,17.6402],[120.7699,17.6438],[120.777,17.6476],[120.7797,17.6658],[120.7828,17.715],[120.8412,17.6773],[120.7855,17.5757],[120.7308,17.577],[120.7193,17.5873],[120.7187,17.5894]]]]},"properties":{"ADM3_EN":"Lagangilang","name":"Lagangilang","ADM3_PCODE":"PH140110000","psgc_code":"140110000","ADM2_EN":"Abra","ADM2_PCODE":"PH1401","ADM1_EN":"Cordillera Administrative Region (CAR)","ADM1_PCODE":"PH14","ADM0_EN":"Philippines (the)","ADM0_PCODE":"PH","region_key":"car","province_key":"abra","type":"Municipality"}},{"type":"Feature","geometry":{"type":"MultiPolygon","coordinates":[[[[120.8035,17.7837],[120.7501,17.7243],[120.7218,17.7326],[120.7106,17.7252],[120.7099,17.7184],[120.7123,17.7114],[120.6948,17.7129],[120.6851,17.7029],[120.6737,17.7205],[120.671,17.8283],[120.6811,17.8307],[120.6902,17.8349],[120.7124,17.8603],[120.8035,17.7837]]]]},"properties":{"ADM3_EN":"Lagayan","name":"Lagayan","ADM3_PCODE":"PH140111000","psgc_code":"140111000","ADM2_EN":"Abra","ADM2_PCODE":"PH1401","ADM1_EN":"Cordillera Administrative Region (CAR)","ADM1_PCODE":"PH14","ADM0_EN":"Philippines (the)","ADM0_PCODE":"PH","region_key":"car","province_key":"abra","type":"Municipality"}},{"type":"Feature","geometry":{"type":"MultiPolygon","coordinates":[[[[120.5895,17.5939],[120.5939,17.591],[120.6004,17.5788],[120.601,17.5752],[120.5982,17.5684],[120.5819,17.5794],[120.5755,17.579],[120.5632,17.5723],[120.5576,17.5729],[120.5535,17.5795],[120.5483,17.5823],[120.5447,17.5818],[120.538,17.5747],[120.5369,17.5599],[120.4893,17.5604],[120.4875,17.572],[120.4904,17.6017],[120.506,17.6488],[120.5093,17.652],[120.5288,17.6923],[120.5628,17.6648],[120.5655,17.6567],[120.5674,17.6238],[120.573,17.6167],[120.5799,17.6129],[120.5785,17.6075],[120.5802,17.6034],[120.5895,17.5939]]]]},"properties":{"ADM3_EN":"Langiden","name":"Langiden","ADM3_PCODE":"PH140112000","psgc_code":"140112000","ADM2_EN":"Abra","ADM2_PCODE":"PH1401","ADM1_EN":"Cordillera Administrative Region (CAR)","ADM1_PCODE":"PH14","ADM0_EN":"Philippines (the)","ADM0_PCODE":"PH","region_key":"car","province_key":"abra","type":"Municipality"}},{"type":"Feature","geometry":{"type":"MultiPolygon","coordinates":[[[[120.8541,17.487],[120.817,17.5101],[120.7977,17.5342],[120.7851,17.5618],[120.7828,17.5625],[120.7823,17.5644],[120.7858,17.5698],[120.7855,17.5757],[120.8412,17.6773],[120.8912,17.6444],[120.9083,17.642],[120.9136,17.644],[120.9681,17.6512],[120.9639,17.6149],[120.9481,17.5958],[120.936,17.5597],[120.9668,17.5363],[120.9783,17.5141],[120.9756,17.5124],[120.9815,17.5045],[120.9069,17.4764],[120.8846,17.4694],[120.8541,17.487]]]]},"properties":{"ADM3_EN":"Licuan-Baay","name":"Licuan-Baay","ADM3_PCODE":"PH140113000","psgc_code":"140113000","ADM2_EN":"Abra","ADM2_PCODE":"PH1401","ADM1_EN":"Cordillera Administrative Region (CAR)","ADM1_PCODE":"PH14","ADM0_EN":"Philippines (the)","ADM0_PCODE":"PH","region_key":"car","province_key":"abra","type":"Municipality"}},{"type":"Feature","geometry":{"type":"MultiPolygon","coordinates":[[[[120.7074,17.2824],[120.6882,17.2639],[120.6826,17.2557],[120.6487,17.2741],[120.6454,17.2803],[120.6415,17.2835],[120.6338,17.2864],[120.623,17.3007],[120.6369,17.3258],[120.652,17.359],[120.6695,17.3858],[120.6771,17.3924],[120.6824,17.3932],[120.69,17.3835],[120.7081,17.3665],[120.7451,17.3637],[120.7653,17.3649],[120.7686,17.3403],[120.7074,17.2824]]]]},"properties":{"ADM3_EN":"Luba","name":"Luba","ADM3_PCODE":"PH140114000","psgc_code":"140114000","ADM2_EN":"Abra","ADM2_PCODE":"PH1401","ADM1_EN":"Cordillera Administrative Region (CAR)","ADM1_PCODE":"PH14","ADM0_EN":"Philippines (the)","ADM0_PCODE":"PH","region_key":"car","province_key":"abra","type":"Municipality"}},{"type":"Feature","geometry":{"type":"MultiPolygon","coordinates":[[[[120.9912,17.4967],[120.9756,17.5124],[120.9783,17.5141],[120.9668,17.5363],[120.936,17.5597],[120.9481,17.5958],[120.9639,17.6149],[120.9681,17.6512],[121.0915,17.6667],[121.0982,17.6287],[121.1197,17.5893],[121.1102,17.5609],[121.071,17.5359],[121.0538,17.53],[120.998,17.4914],[120.9929,17.4932],[120.9912,17.4967]]]]},"properties":{"ADM3_EN":"Malibcong","name":"Malibcong","ADM3_PCODE":"PH140115000","psgc_code":"140115000","ADM2_EN":"Abra","ADM2_PCODE":"PH1401","ADM1_EN":"Cordillera Administrative Region (CAR)","ADM1_PCODE":"PH14","ADM0_EN":"Philippines (the)","ADM0_PCODE":"PH","region_key":"car","province_key":"abra","type":"Municipality"}},{"type":"Feature","geometry":{"type":"MultiPolygon","coordinates":[[[[120.6689,17.4202],[120.6652,17.4283],[120.6777,17.4574],[120.6912,17.4578],[120.7031,17.4562],[120.7079,17.454],[120.717,17.4536],[120.7215,17.4538],[120.7277,17.4576],[120.7458,17.4491],[120.7494,17.4511],[120.7475,17.4459],[120.7484,17.4444],[120.7518,17.4445],[120.7504,17.4393],[120.7449,17.4376],[120.7422,17.4343],[120.7475,17.4329],[120.7541,17.428],[120.7561,17.4212],[120.7613,17.4168],[120.7653,17.3649],[120.7451,17.3637],[120.7081,17.3665],[120.69,17.3835],[120.6824,17.3932],[120.6749,17.4046],[120.6689,17.4202]]]]},"properties":{"ADM3_EN":"Manabo","name":"Manabo","ADM3_PCODE":"PH140116000","psgc_code":"140116000","ADM2_EN":"Abra","ADM2_PCODE":"PH1401","ADM1_EN":"Cordillera Administrative Region (CAR)","ADM1_PCODE":"PH14","ADM0_EN":"Philippines (the)","ADM0_PCODE":"PH","region_key":"car","province_key":"abra","type":"Municipality"}},{"type":"Feature","geometry":{"type":"MultiPolygon","coordinates":[[[[120.6968,17.5322],[120.6982,17.5108],[120.6979,17.5075],[120.6948,17.5051],[120.6911,17.5035],[120.6559,17.5106],[120.642,17.5255],[120.6381,17.5343],[120.6368,17.5593],[120.6381,17.5667],[120.6428,17.5714],[120.6559,17.5747],[120.6638,17.5725],[120.6753,17.5626],[120.6862,17.5618],[120.6839,17.5523],[120.6945,17.5383],[120.6968,17.5322]]]]},"properties":{"ADM3_EN":"Peñarrubia","name":"Peñarrubia","ADM3_PCODE":"PH140117000","psgc_code":"140117000","ADM2_EN":"Abra","ADM2_PCODE":"PH1401","ADM1_EN":"Cordillera Administrative Region (CAR)","ADM1_PCODE":"PH14","ADM0_EN":"Philippines (the)","ADM0_PCODE":"PH","region_key":"car","province_key":"abra","type":"Municipality"}},{"type":"Feature","geometry":{"type":"MultiPolygon","coordinates":[[[[120.6055,17.502],[120.5997,17.5002],[120.5988,17.4972],[120.5841,17.4828],[120.5331,17.5371],[120.5325,17.5387],[120.5372,17.5415],[120.5393,17.5446],[120.5367,17.5702],[120.538,17.5747],[120.5447,17.5818],[120.5483,17.5823],[120.5535,17.5795],[120.5564,17.5737],[120.5632,17.5723],[120.5755,17.579],[120.5843,17.5786],[120.6054,17.5617],[120.6036,17.5383],[120.6085,17.5301],[120.6092,17.5247],[120.6076,17.5085],[120.6055,17.502]]]]},"properties":{"ADM3_EN":"Pidigan","name":"Pidigan","ADM3_PCODE":"PH140118000","psgc_code":"140118000","ADM2_EN":"Abra","ADM2_PCODE":"PH1401","ADM1_EN":"Cordillera Administrative Region (CAR)","ADM1_PCODE":"PH14","ADM0_EN":"Philippines (the)","ADM0_PCODE":"PH","region_key":"car","province_key":"abra","type":"Municipality"}},{"type":"Feature","geometry":{"type":"MultiPolygon","coordinates":[[[[120.5974,17.3113],[120.5781,17.3078],[120.5652,17.3074],[120.5624,17.3096],[120.558,17.3078],[120.5563,17.3143],[120.5529,17.3189],[120.5524,17.3244],[120.5454,17.3358],[120.5399,17.349],[120.539,17.3552],[120.5436,17.3725],[120.552,17.3836],[120.5778,17.4279],[120.579,17.4414],[120.6186,17.435],[120.6195,17.4333],[120.6308,17.4319],[120.6346,17.4286],[120.633,17.42],[120.63,17.4161],[120.6302,17.4102],[120.6286,17.4069],[120.6312,17.402],[120.6169,17.3604],[120.5995,17.3553],[120.6016,17.3518],[120.5964,17.3172],[120.5974,17.3113]]]]},"properties":{"ADM3_EN":"Pilar","name":"Pilar","ADM3_PCODE":"PH140119000","psgc_code":"140119000","ADM2_EN":"Abra","ADM2_PCODE":"PH1401","ADM1_EN":"Cordillera Administrative Region (CAR)","ADM1_PCODE":"PH14","ADM0_EN":"Philippines (the)","ADM0_PCODE":"PH","region_key":"car","province_key":"abra","type":"Municipality"}},{"type":"Feature","geometry":{"type":"MultiPolygon","coordinates":[[[[120.7637,17.4165],[120.7593,17.4174],[120.7561,17.4212],[120.7541,17.428],[120.7475,17.4329],[120.7422,17.4343],[120.7449,17.4376],[120.7504,17.4393],[120.7518,17.4445],[120.7484,17.4444],[120.7475,17.4459],[120.7494,17.4511],[120.7458,17.4491],[120.7277,17.4576],[120.7322,17.4632],[120.7628,17.5422],[120.7915,17.546],[120.7977,17.5342],[120.817,17.5101],[120.8846,17.4694],[120.7892,17.4452],[120.7896,17.417],[120.7637,17.4165]]]]},"properties":{"ADM3_EN":"Sallapadan","name":"Sallapadan","ADM3_PCODE":"PH140120000","psgc_code":"140120000","ADM2_EN":"Abra","ADM2_PCODE":"PH1401","ADM1_EN":"Cordillera Administrative Region (CAR)","ADM1_PCODE":"PH14","ADM0_EN":"Philippines (the)","ADM0_PCODE":"PH","region_key":"car","province_key":"abra","type":"Municipality"}},{"type":"Feature","geometry":{"type":"MultiPolygon","coordinates":[[[[120.5785,17.4455],[120.58,17.4628],[120.5856,17.4762],[120.5841,17.4828],[120.603,17.5022],[120.6055,17.502],[120.6094,17.4969],[120.6154,17.4942],[120.673,17.4907],[120.675,17.4716],[120.6732,17.4697],[120.6189,17.4687],[120.6198,17.4599],[120.6242,17.4543],[120.6219,17.4463],[120.6246,17.4414],[120.628,17.4401],[120.6269,17.4374],[120.6308,17.4319],[120.579,17.4414],[120.5785,17.4455]]]]},"properties":{"ADM3_EN":"San Isidro","name":"San Isidro","ADM3_PCODE":"PH140121000","psgc_code":"140121000","ADM2_EN":"Abra","ADM2_PCODE":"PH1401","ADM1_EN":"Cordillera Administrative Region (CAR)","ADM1_PCODE":"PH14","ADM0_EN":"Philippines (the)","ADM0_PCODE":"PH","region_key":"car","province_key":"abra","type":"Municipality"}},{"type":"Feature","geometry":{"type":"MultiPolygon","coordinates":[[[[120.7329,17.6657],[120.7248,17.6657],[120.7196,17.6686],[120.7231,17.6724],[120.7172,17.6807],[120.7183,17.6818],[120.7102,17.6844],[120.7077,17.6876],[120.7066,17.6953],[120.713,17.7082],[120.7099,17.7184],[120.7113,17.7267],[120.7218,17.7326],[120.7501,17.7243],[120.7859,17.7641],[120.8114,17.7407],[120.7828,17.715],[120.7797,17.6658],[120.7329,17.6657]]]]},"properties":{"ADM3_EN":"San Juan","name":"San Juan","ADM3_PCODE":"PH140122000","psgc_code":"140122000","ADM2_EN":"Abra","ADM2_PCODE":"PH1401","ADM1_EN":"Cordillera Administrative Region (CAR)","ADM1_PCODE":"PH14","ADM0_EN":"Philippines (the)","ADM0_PCODE":"PH","region_key":"car","province_key":"abra","type":"Municipality"}},{"type":"Feature","geometry":{"type":"MultiPolygon","coordinates":[[[[120.5779,17.4896],[120.5841,17.4828],[120.5845,17.4769],[120.5755,17.4822],[120.5577,17.4846],[120.5365,17.4973],[120.5253,17.4998],[120.5111,17.498],[120.505,17.4944],[120.4961,17.4855],[120.4861,17.4812],[120.479,17.4818],[120.4743,17.4843],[120.4702,17.4888],[120.4677,17.4957],[120.4681,17.5148],[120.4757,17.5345],[120.4876,17.545],[120.4852,17.5483],[120.4896,17.5533],[120.4893,17.5604],[120.5369,17.5599],[120.5393,17.5446],[120.5372,17.5415],[120.5325,17.5387],[120.5331,17.5371],[120.5779,17.4896]]]]},"properties":{"ADM3_EN":"San Quintin","name":"San Quintin","ADM3_PCODE":"PH140123000","psgc_code":"140123000","ADM2_EN":"Abra","ADM2_PCODE":"PH1401","ADM1_EN":"Cordillera Administrative Region (CAR)","ADM1_PCODE":"PH14","ADM0_EN":"Philippines (the)","ADM0_PCODE":"PH","region_key":"car","province_key":"abra","type":"Municipality"}},{"type":"Feature","geometry":{"type":"MultiPolygon","coordinates":[[[[120.7056,17.6236],[120.7188,17.6244],[120.7235,17.6232],[120.7249,17.621],[120.7234,17.6108],[120.7167,17.6025],[120.7156,17.5987],[120.7193,17.5873],[120.7044,17.5787],[120.6947,17.5696],[120.6393,17.6031],[120.6297,17.6143],[120.6269,17.6151],[120.6251,17.6206],[120.6223,17.6234],[120.6268,17.6275],[120.6372,17.6313],[120.6401,17.6295],[120.6411,17.6248],[120.652,17.6281],[120.6586,17.6278],[120.6676,17.6339],[120.673,17.6335],[120.6837,17.6368],[120.6941,17.6329],[120.7056,17.6236]]]]},"properties":{"ADM3_EN":"Tayum","name":"Tayum","ADM3_PCODE":"PH140124000","psgc_code":"140124000","ADM2_EN":"Abra","ADM2_PCODE":"PH1401","ADM1_EN":"Cordillera Administrative Region (CAR)","ADM1_PCODE":"PH14","ADM0_EN":"Philippines (the)","ADM0_PCODE":"PH","region_key":"car","province_key":"abra","type":"Municipality"}},{"type":"Feature","geometry":{"type":"MultiPolygon","coordinates":[[[[120.875,17.7346],[120.8412,17.6773],[120.7828,17.715],[120.8114,17.7407],[120.7859,17.7641],[120.8035,17.7837],[120.7124,17.8603],[120.7222,17.8836],[120.7275,17.8929],[120.7319,17.8965],[120.743,17.9018],[120.7549,17.9036],[120.7832,17.9117],[120.8096,17.9356],[120.8256,17.9553],[120.8332,17.96],[120.8498,17.9634],[120.8646,17.9621],[120.8943,17.9521],[120.9097,17.9506],[120.9202,17.9569],[120.9227,17.9606],[120.9252,17.9647],[120.9278,17.9781],[120.9397,17.9707],[120.9679,17.9571],[120.978,17.9494],[120.9872,17.9396],[120.9942,17.9258],[120.9982,17.9102],[120.9988,17.8741],[121.0008,17.8595],[121.0052,17.8487],[121.0102,17.8437],[121.0169,17.8407],[121.0293,17.8398],[121.0555,17.8482],[121.0667,17.8481],[121.0778,17.8441],[121.0976,17.8272],[121.1028,17.8158],[121.1102,17.7872],[121.1168,17.7414],[120.9451,17.7362],[120.8858,17.7556],[120.875,17.7346]]]]},"properties":{"ADM3_EN":"Tineg","name":"Tineg","ADM3_PCODE":"PH140125000","psgc_code":"140125000","ADM2_EN":"Abra","ADM2_PCODE":"PH1401","ADM1_EN":"Cordillera Administrative Region (CAR)","ADM1_PCODE":"PH14","ADM0_EN":"Philippines (the)","ADM0_PCODE":"PH","region_key":"car","province_key":"abra","type":"Municipality"}},{"type":"Feature","geometry":{"type":"MultiPolygon","coordinates":[[[[120.7568,17.1579],[120.7275,17.1572],[120.7022,17.1587],[120.6947,17.1606],[120.6862,17.1667],[120.6829,17.1752],[120.6832,17.1841],[120.682,17.1858],[120.6776,17.1873],[120.6738,17.1921],[120.6688,17.1924],[120.6674,17.1939],[120.669,17.1971],[120.6744,17.1963],[120.6817,17.1988],[120.6777,17.2088],[120.6788,17.212],[120.6829,17.2156],[120.6825,17.2201],[120.6872,17.2241],[120.6842,17.2271],[120.6817,17.2337],[120.6831,17.2393],[120.6747,17.2404],[120.6742,17.2442],[120.68,17.2482],[120.6826,17.2557],[120.6882,17.2639],[120.7686,17.3403],[120.8406,17.3426],[120.8468,17.3416],[120.9642,17.3438],[120.9541,17.3302],[120.9406,17.3075],[120.9307,17.2852],[120.9235,17.2609],[120.9148,17.2476],[120.9152,17.2134],[120.8968,17.19],[120.8911,17.187],[120.8773,17.1893],[120.7989,17.1879],[120.7879,17.1732],[120.7764,17.1639],[120.7664,17.1595],[120.7568,17.1579]]]]},"properties":{"ADM3_EN":"Tubo","name":"Tubo","ADM3_PCODE":"PH140126000","psgc_code":"140126000","ADM2_EN":"Abra","ADM2_PCODE":"PH1401","ADM1_EN":"Cordillera Administrative Region (CAR)","ADM1_PCODE":"PH14","ADM0_EN":"Philippines (the)","ADM0_PCODE":"PH","region_key":"car","province_key":"abra","type":"Municipality"}},{"type":"Feature","geometry":{"type":"MultiPolygon","coordinates":[[[[120.6143,17.3107],[120.6072,17.3122],[120.5974,17.3113],[120.5964,17.3172],[120.6016,17.3518],[120.5995,17.3553],[120.6169,17.3604],[120.6312,17.402],[120.6286,17.4069],[120.6302,17.4102],[120.63,17.4161],[120.633,17.42],[120.6346,17.4286],[120.6269,17.4374],[120.6274,17.441],[120.6246,17.4414],[120.6219,17.4463],[120.6242,17.4543],[120.6198,17.4599],[120.6189,17.4687],[120.6732,17.4697],[120.6777,17.4574],[120.6652,17.4283],[120.6749,17.4046],[120.6824,17.3932],[120.6734,17.3905],[120.6571,17.3674],[120.623,17.3007],[120.6143,17.3107]]]]},"properties":{"ADM3_EN":"Villaviciosa","name":"Villaviciosa","ADM3_PCODE":"PH140127000","psgc_code":"140127000","ADM2_EN":"Abra","ADM2_PCODE":"PH1401","ADM1_EN":"Cordillera Administrative Region (CAR)","ADM1_PCODE":"PH14","ADM0_EN":"Philippines (the)","ADM0_PCODE":"PH","region_key":"car","province_key":"abra","type":"Municipality"}},{"type":"Feature","geometry":{"type":"MultiPolygon","coordinates":[[[[121.0371,18.0052],[121.0124,17.985],[121.0049,17.9803],[120.9957,17.9771],[120.9865,17.9754],[120.9278,17.9781],[120.9302,17.9842],[120.9387,17.9932],[120.9405,17.9971],[120.9335,18.0439],[120.9328,18.07],[120.9365,18.1],[120.9473,18.1298],[120.9705,18.1561],[120.976,18.1674],[120.9731,18.1791],[120.9693,18.1868],[120.9651,18.1938],[120.9589,18.1987],[120.9497,18.2937],[120.95,18.2995],[120.9529,18.3053],[120.9544,18.3343],[120.9484,18.3449],[120.9422,18.3682],[120.9458,18.3847],[120.9461,18.3963],[120.9523,18.4126],[120.9616,18.4303],[120.9611,18.4475],[120.9722,18.4538],[121.0033,18.4673],[121.0241,18.4998],[121.0395,18.5061],[121.0436,18.5292],[121.0623,18.5402],[121.0852,18.5411],[121.0884,18.534],[121.0895,18.4861],[121.0918,18.4713],[121.1257,18.3405],[121.1559,18.2146],[121.0371,18.0052]]]]},"properties":{"ADM3_EN":"Calanasan","name":"Calanasan","ADM3_PCODE":"PH148101000","psgc_code":"148101000","ADM2_EN":"Apayao","ADM2_PCODE":"PH1481","ADM1_EN":"Cordillera Administrative Region (CAR)","ADM1_PCODE":"PH14","ADM0_EN":"Philippines (the)","ADM0_PCODE":"PH","region_key":"car","province_key":"apayao","type":"Municipality"}},{"type":"Feature","geometry":{"type":"MultiPolygon","coordinates":[[[[121.3026,17.6624],[121.2538,17.671],[121.2274,17.6243],[121.1883,17.6543],[121.1227,17.684],[121.1189,17.7267],[121.1102,17.7872],[121.0998,17.8242],[121.0933,17.832],[121.0875,17.8363],[121.1488,17.8911],[121.2667,17.9281],[121.3452,17.879],[121.3256,17.8454],[121.3251,17.8263],[121.3176,17.8296],[121.3195,17.8248],[121.318,17.8218],[121.3198,17.8169],[121.3089,17.8174],[121.3079,17.8161],[121.3114,17.8151],[121.3136,17.8107],[121.3237,17.8067],[121.328,17.803],[121.3627,17.8066],[121.3768,17.7936],[121.4179,17.7519],[121.4316,17.7356],[121.4298,17.731],[121.4321,17.7242],[121.4309,17.714],[121.4325,17.7139],[121.4328,17.7064],[121.4346,17.7027],[121.443,17.6898],[121.4394,17.6897],[121.4307,17.6852],[121.4292,17.6829],[121.399,17.6645],[121.3894,17.6413],[121.3755,17.6416],[121.3292,17.6572],[121.3026,17.6624]]]]},"properties":{"ADM3_EN":"Conner","name":"Conner","ADM3_PCODE":"PH148102000","psgc_code":"148102000","ADM2_EN":"Apayao","ADM2_PCODE":"PH1481","ADM1_EN":"Cordillera Administrative Region (CAR)","ADM1_PCODE":"PH14","ADM0_EN":"Philippines (the)","ADM0_PCODE":"PH","region_key":"car","province_key":"apayao","type":"Municipality"}},{"type":"Feature","geometry":{"type":"MultiPolygon","coordinates":[[[[121.3857,17.9727],[121.3321,18.0195],[121.3425,18.0801],[121.3451,18.0835],[121.3493,18.0844],[121.3491,18.0884],[121.3553,18.0903],[121.3546,18.0953],[121.3612,18.0922],[121.3644,18.0938],[121.3616,18.0985],[121.3654,18.1],[121.3655,18.1014],[121.3643,18.1041],[121.359,18.1066],[121.3584,18.1097],[121.3699,18.1146],[121.3716,18.1173],[121.3658,18.1217],[121.3658,18.1245],[121.3708,18.1272],[121.367,18.1362],[121.3534,18.1399],[121.3509,18.1435],[121.3515,18.1475],[121.3577,18.1528],[121.3579,18.1551],[121.3542,18.1586],[121.3549,18.161],[121.3624,18.1651],[121.3645,18.1686],[121.3654,18.1842],[121.3609,18.1904],[121.3612,18.1922],[121.3672,18.1993],[121.3735,18.2023],[121.3807,18.2107],[121.3862,18.2114],[121.3929,18.2059],[121.4112,18.2223],[121.4173,18.2329],[121.4134,18.2387],[121.4104,18.2488],[121.4065,18.2503],[121.4022,18.2555],[121.4028,18.2634],[121.4064,18.2668],[121.4113,18.2677],[121.4848,18.253],[121.4896,18.2396],[121.4894,18.2262],[121.48,18.1344],[121.4743,18.1249],[121.4714,18.1064],[121.4644,18.0844],[121.4609,18.0504],[121.4271,18.0378],[121.4154,18.0311],[121.3768,17.9547],[121.3857,17.9727]]]]},"properties":{"ADM3_EN":"Flora","name":"Flora","ADM3_PCODE":"PH148103000","psgc_code":"148103000","ADM2_EN":"Apayao","ADM2_PCODE":"PH1481","ADM1_EN":"Cordillera Administrative Region (CAR)","ADM1_PCODE":"PH14","ADM0_EN":"Philippines (the)","ADM0_PCODE":"PH","region_key":"car","province_key":"apayao","type":"Municipality"}},{"type":"Feature","geometry":{"type":"MultiPolygon","coordinates":[[[[120.9982,17.9102],[120.9912,17.933],[120.9872,17.9396],[120.978,17.9494],[120.9679,17.9571],[120.9397,17.9707],[120.9278,17.9781],[120.9865,17.9754],[120.9957,17.9771],[121.0049,17.9803],[121.0124,17.985],[121.0345,18.0023],[121.071,18.0658],[121.0798,18.0788],[121.0973,18.1133],[121.1559,18.2146],[121.2188,18.219],[121.231,18.1389],[121.2353,18.12],[121.2444,18.1015],[121.2561,18.0877],[121.3857,17.9727],[121.3682,17.9392],[121.3537,17.9049],[121.3483,17.882],[121.3452,17.879],[121.2667,17.9281],[121.1488,17.8911],[121.0875,17.8363],[121.0778,17.8441],[121.0609,17.8492],[121.0293,17.8398],[121.0169,17.8407],[121.0102,17.8437],[121.0052,17.8487],[121.0025,17.8542],[120.9993,17.8671],[120.9982,17.9102]]]]},"properties":{"ADM3_EN":"Kabugao","name":"Kabugao","ADM3_PCODE":"PH148104000","psgc_code":"148104000","ADM2_EN":"Apayao","ADM2_PCODE":"PH1481","ADM1_EN":"Cordillera Administrative Region (CAR)","ADM1_PCODE":"PH14","ADM0_EN":"Philippines (the)","ADM0_PCODE":"PH","region_key":"car","province_key":"apayao","type":"Municipality"}},{"type":"Feature","geometry":{"type":"MultiPolygon","coordinates":[[[[121.4076,18.3404],[121.4189,18.3342],[121.4172,18.3314],[121.405,18.3303],[121.4074,18.3147],[121.4052,18.3104],[121.398,18.3051],[121.3974,18.3025],[121.3987,18.2981],[121.4049,18.2905],[121.4017,18.2831],[121.4034,18.2788],[121.4063,18.2787],[121.4119,18.2837],[121.4177,18.2804],[121.4131,18.269],[121.4064,18.2668],[121.4028,18.2634],[121.4022,18.2555],[121.3746,18.2579],[121.3695,18.2526],[121.3656,18.2549],[121.355,18.2543],[121.3533,18.2554],[121.3506,18.2535],[121.3488,18.2544],[121.3441,18.2505],[121.3332,18.2526],[121.3307,18.2512],[121.3305,18.2493],[121.3331,18.2472],[121.3263,18.2456],[121.3274,18.2418],[121.3258,18.2393],[121.319,18.2396],[121.3186,18.2362],[121.3126,18.2301],[121.3116,18.2253],[121.3091,18.2232],[121.2304,18.2199],[121.1559,18.2146],[121.1257,18.3405],[121.0918,18.4713],[121.0895,18.4861],[121.2404,18.4313],[121.249,18.4307],[121.2856,18.3901],[121.3187,18.3887],[121.3697,18.3586],[121.4076,18.3404]]]]},"properties":{"ADM3_EN":"Luna","name":"Luna","ADM3_PCODE":"PH148105000","psgc_code":"148105000","ADM2_EN":"Apayao","ADM2_PCODE":"PH1481","ADM1_EN":"Cordillera Administrative Region (CAR)","ADM1_PCODE":"PH14","ADM0_EN":"Philippines (the)","ADM0_PCODE":"PH","region_key":"car","province_key":"apayao","type":"Municipality"}},{"type":"Feature","geometry":{"type":"MultiPolygon","coordinates":[[[[121.2444,18.1015],[121.2353,18.12],[121.231,18.1389],[121.2188,18.219],[121.3091,18.2232],[121.3116,18.2253],[121.3126,18.2301],[121.3186,18.2362],[121.319,18.2396],[121.327,18.2401],[121.3263,18.2456],[121.3331,18.2472],[121.3305,18.2493],[121.3307,18.2512],[121.3349,18.2531],[121.3441,18.2505],[121.3488,18.2544],[121.3506,18.2535],[121.3524,18.2554],[121.355,18.2543],[121.3616,18.2554],[121.3695,18.2526],[121.3746,18.2579],[121.4022,18.2555],[121.4065,18.2503],[121.4104,18.2488],[121.4134,18.2387],[121.4173,18.2329],[121.4105,18.2211],[121.3929,18.2059],[121.3862,18.2114],[121.3807,18.2107],[121.3735,18.2023],[121.3672,18.1993],[121.3612,18.1922],[121.3609,18.1904],[121.3654,18.1842],[121.3645,18.1686],[121.3624,18.1651],[121.3549,18.161],[121.3542,18.1586],[121.3579,18.1551],[121.3577,18.1528],[121.3515,18.1475],[121.3509,18.1435],[121.3534,18.1399],[121.367,18.1362],[121.3708,18.1272],[121.3658,18.1245],[121.3658,18.1217],[121.3716,18.1173],[121.3699,18.1146],[121.3584,18.1097],[121.359,18.1066],[121.3643,18.1041],[121.3655,18.1014],[121.3654,18.1],[121.3616,18.0985],[121.3644,18.0938],[121.3612,18.0922],[121.3546,18.0953],[121.3553,18.0903],[121.3491,18.0884],[121.3493,18.0844],[121.3451,18.0835],[121.3425,18.0801],[121.3321,18.0195],[121.2561,18.0877],[121.2444,18.1015]]]]},"properties":{"ADM3_EN":"Pudtol","name":"Pudtol","ADM3_PCODE":"PH148106000","psgc_code":"148106000","ADM2_EN":"Apayao","ADM2_PCODE":"PH1481","ADM1_EN":"Cordillera Administrative Region (CAR)","ADM1_PCODE":"PH14","ADM0_EN":"Philippines (the)","ADM0_PCODE":"PH","region_key":"car","province_key":"apayao","type":"Municipality"}},{"type":"Feature","geometry":{"type":"MultiPolygon","coordinates":[[[[121.4719,18.2875],[121.4737,18.2787],[121.4848,18.253],[121.4113,18.2677],[121.414,18.2705],[121.4177,18.2804],[121.4119,18.2837],[121.4063,18.2787],[121.4034,18.2788],[121.4017,18.2831],[121.4049,18.2905],[121.3987,18.2981],[121.3972,18.3034],[121.3998,18.3072],[121.4066,18.312],[121.4074,18.3186],[121.405,18.3303],[121.4172,18.3314],[121.4189,18.3342],[121.4669,18.3083],[121.4672,18.2966],[121.4719,18.2875]]]]},"properties":{"ADM3_EN":"Santa Marcela","name":"Santa Marcela","ADM3_PCODE":"PH148107000","psgc_code":"148107000","ADM2_EN":"Apayao","ADM2_PCODE":"PH1481","ADM1_EN":"Cordillera Administrative Region (CAR)","ADM1_PCODE":"PH14","ADM0_EN":"Philippines (the)","ADM0_PCODE":"PH","region_key":"car","province_key":"apayao","type":"Municipality"}},{"type":"Feature","geometry":{"type":"MultiPolygon","coordinates":[[[[120.7088,16.5422],[120.7087,16.5375],[120.7058,16.5364],[120.7019,16.5316],[120.7057,16.5298],[120.7011,16.5128],[120.6889,16.5037],[120.6801,16.4991],[120.6501,16.5315],[120.6416,16.5474],[120.636,16.5472],[120.6374,16.6101],[120.6766,16.6366],[120.7763,16.6411],[120.7734,16.6235],[120.7669,16.6034],[120.7611,16.5929],[120.7557,16.5943],[120.7538,16.5907],[120.7591,16.5883],[120.7579,16.5837],[120.7482,16.5786],[120.7469,16.5755],[120.744,16.5768],[120.7372,16.573],[120.7331,16.5751],[120.7309,16.5618],[120.7264,16.5562],[120.7257,16.553],[120.7209,16.5487],[120.7162,16.5499],[120.7162,16.5484],[120.7088,16.5422]]]]},"properties":{"ADM3_EN":"Atok","name":"Atok","ADM3_PCODE":"PH141101000","psgc_code":"141101000","ADM2_EN":"Benguet","ADM2_PCODE":"PH1411","ADM1_EN":"Cordillera Administrative Region (CAR)","ADM1_PCODE":"PH14","ADM0_EN":"Philippines (the)","ADM0_PCODE":"PH","region_key":"car","province_key":"benguet","type":"Municipality"}},{"type":"Feature","geometry":{"type":"MultiPolygon","coordinates":[[[[120.6311,16.3823],[120.629,16.3625],[120.5691,16.3702],[120.5478,16.444],[120.6019,16.4386],[120.6312,16.4329],[120.6311,16.3823]]]]},"properties":{"ADM3_EN":"Baguio City","name":"Baguio City","ADM3_PCODE":"PH141102000","psgc_code":"141102000","ADM2_EN":"Benguet","ADM2_PCODE":"PH1411","ADM1_EN":"Cordillera Administrative Region (CAR)","ADM1_PCODE":"PH14","ADM0_EN":"Philippines (the)","ADM0_PCODE":"PH","region_key":"car","province_key":"benguet","type":"City"}},{"type":"Feature","geometry":{"type":"MultiPolygon","coordinates":[[[[120.7868,16.7747],[120.8028,16.7663],[120.8042,16.7546],[120.8028,16.7374],[120.7962,16.7292],[120.7813,16.7156],[120.7716,16.7109],[120.7471,16.7125],[120.7439,16.7115],[120.7383,16.714],[120.7261,16.7286],[120.7042,16.7671],[120.697,16.7761],[120.6871,16.783],[120.6811,16.7819],[120.6778,16.7795],[120.6625,16.7591],[120.6438,16.7418],[120.6286,16.7325],[120.6203,16.7307],[120.6233,16.7822],[120.6272,16.8096],[120.6304,16.8499],[120.6379,16.886],[120.6469,16.9],[120.659,16.9072],[120.6715,16.9105],[120.702,16.9124],[120.7285,16.9117],[120.7333,16.8983],[120.7329,16.8825],[120.7448,16.8635],[120.7414,16.844],[120.7434,16.8327],[120.748,16.8238],[120.7868,16.7747]]]]},"properties":{"ADM3_EN":"Bakun","name":"Bakun","ADM3_PCODE":"PH141103000","psgc_code":"141103000","ADM2_EN":"Benguet","ADM2_PCODE":"PH1411","ADM1_EN":"Cordillera Administrative Region (CAR)","ADM1_PCODE":"PH14","ADM0_EN":"Philippines (the)","ADM0_PCODE":"PH","region_key":"car","province_key":"benguet","type":"Municipality"}},{"type":"Feature","geometry":{"type":"MultiPolygon","coordinates":[[[[120.8838,16.506],[120.8913,16.4339],[120.863,16.3644],[120.8605,16.3545],[120.8455,16.3209],[120.8059,16.3231],[120.8026,16.3208],[120.7714,16.3953],[120.7576,16.4146],[120.7009,16.4721],[120.6801,16.4991],[120.6889,16.5037],[120.7011,16.5128],[120.7056,16.5283],[120.7055,16.5304],[120.7025,16.5309],[120.7022,16.5328],[120.7087,16.5375],[120.7079,16.5413],[120.7162,16.5484],[120.7162,16.5499],[120.7209,16.5487],[120.7257,16.553],[120.7325,16.567],[120.7314,16.5683],[120.7325,16.5745],[120.7341,16.5752],[120.7372,16.573],[120.744,16.5768],[120.7469,16.5755],[120.7482,16.5786],[120.7579,16.5837],[120.7591,16.5883],[120.7538,16.5907],[120.7557,16.5943],[120.7594,16.5942],[120.7862,16.5793],[120.8215,16.565],[120.8591,16.5589],[120.8928,16.559],[120.8838,16.506]]]]},"properties":{"ADM3_EN":"Bokod","name":"Bokod","ADM3_PCODE":"PH141104000","psgc_code":"141104000","ADM2_EN":"Benguet","ADM2_PCODE":"PH1411","ADM1_EN":"Cordillera Administrative Region (CAR)","ADM1_PCODE":"PH14","ADM0_EN":"Philippines (the)","ADM0_PCODE":"PH","region_key":"car","province_key":"benguet","type":"Municipality"}},{"type":"Feature","geometry":{"type":"MultiPolygon","coordinates":[[[[120.7813,16.7156],[120.7962,16.7292],[120.8028,16.7374],[120.8042,16.7546],[120.8029,16.7715],[120.8077,16.7824],[120.8091,16.781],[120.8098,16.786],[120.8132,16.7863],[120.8172,16.7929],[120.8187,16.7932],[120.8208,16.8047],[120.8381,16.8292],[120.8551,16.8387],[120.8649,16.8326],[120.8783,16.8286],[120.8786,16.8235],[120.8917,16.7996],[120.8988,16.78],[120.8952,16.6903],[120.8508,16.6783],[120.7729,16.6735],[120.7553,16.6954],[120.7471,16.7125],[120.7716,16.7109],[120.7813,16.7156]]]]},"properties":{"ADM3_EN":"Buguias","name":"Buguias","ADM3_PCODE":"PH141105000","psgc_code":"141105000","ADM2_EN":"Benguet","ADM2_PCODE":"PH1411","ADM1_EN":"Cordillera Administrative Region (CAR)","ADM1_PCODE":"PH14","ADM0_EN":"Philippines (the)","ADM0_PCODE":"PH","region_key":"car","province_key":"benguet","type":"Municipality"}},{"type":"Feature","geometry":{"type":"MultiPolygon","coordinates":[[[[120.6553,16.1877],[120.626,16.2018],[120.663,16.3306],[120.629,16.3625],[120.6311,16.3823],[120.6311,16.4493],[120.6992,16.4742],[120.7576,16.4146],[120.7714,16.3953],[120.8026,16.3208],[120.8059,16.3231],[120.759,16.243],[120.7689,16.2014],[120.6973,16.1915],[120.6553,16.1877]]]]},"properties":{"ADM3_EN":"Itogon","name":"Itogon","ADM3_PCODE":"PH141106000","psgc_code":"141106000","ADM2_EN":"Benguet","ADM2_PCODE":"PH1411","ADM1_EN":"Cordillera Administrative Region (CAR)","ADM1_PCODE":"PH14","ADM0_EN":"Philippines (the)","ADM0_PCODE":"PH","region_key":"car","province_key":"benguet","type":"Municipality"}},{"type":"Feature","geometry":{"type":"MultiPolygon","coordinates":[[[[120.8421,16.561],[120.8318,16.5623],[120.8117,16.5682],[120.7862,16.5793],[120.7611,16.5929],[120.7669,16.6034],[120.7714,16.6159],[120.7763,16.6411],[120.7597,16.6397],[120.7729,16.6735],[120.8508,16.6783],[120.8952,16.6903],[120.8958,16.6095],[120.9001,16.6035],[120.9049,16.6007],[120.9052,16.5959],[120.8928,16.559],[120.8591,16.5589],[120.8421,16.561]]]]},"properties":{"ADM3_EN":"Kabayan","name":"Kabayan","ADM3_PCODE":"PH141107000","psgc_code":"141107000","ADM2_EN":"Benguet","ADM2_PCODE":"PH1411","ADM1_EN":"Cordillera Administrative Region (CAR)","ADM1_PCODE":"PH14","ADM0_EN":"Philippines (the)","ADM0_PCODE":"PH","region_key":"car","province_key":"benguet","type":"Municipality"}},{"type":"Feature","geometry":{"type":"MultiPolygon","coordinates":[[[[120.5691,16.5457],[120.5351,16.5452],[120.5145,16.5471],[120.5588,16.597],[120.5517,16.6026],[120.5419,16.6075],[120.5631,16.6309],[120.5804,16.6592],[120.5829,16.6598],[120.5845,16.6632],[120.5942,16.6704],[120.5999,16.6787],[120.677,16.6366],[120.6374,16.6101],[120.636,16.5472],[120.5691,16.5457]]]]},"properties":{"ADM3_EN":"Kapangan","name":"Kapangan","ADM3_PCODE":"PH141108000","psgc_code":"141108000","ADM2_EN":"Benguet","ADM2_PCODE":"PH1411","ADM1_EN":"Cordillera Administrative Region (CAR)","ADM1_PCODE":"PH14","ADM0_EN":"Philippines (the)","ADM0_PCODE":"PH","region_key":"car","province_key":"benguet","type":"Municipality"}},{"type":"Feature","geometry":{"type":"MultiPolygon","coordinates":[[[[120.6573,16.6476],[120.5999,16.6787],[120.6104,16.6978],[120.6184,16.7286],[120.6203,16.7307],[120.6286,16.7325],[120.6438,16.7418],[120.6625,16.7591],[120.6778,16.7795],[120.6811,16.7819],[120.6871,16.783],[120.697,16.7761],[120.7042,16.7671],[120.7261,16.7286],[120.7345,16.7175],[120.7412,16.7119],[120.7471,16.7125],[120.7553,16.6954],[120.7729,16.6735],[120.7597,16.6397],[120.677,16.6366],[120.6573,16.6476]]]]},"properties":{"ADM3_EN":"Kibungan","name":"Kibungan","ADM3_PCODE":"PH141109000","psgc_code":"141109000","ADM2_EN":"Benguet","ADM2_PCODE":"PH1411","ADM1_EN":"Cordillera Administrative Region (CAR)","ADM1_PCODE":"PH14","ADM0_EN":"Philippines (the)","ADM0_PCODE":"PH","region_key":"car","province_key":"benguet","type":"Municipality"}},{"type":"Feature","geometry":{"type":"MultiPolygon","coordinates":[[[[120.6096,16.4369],[120.5478,16.444],[120.5627,16.5335],[120.6671,16.4631],[120.6311,16.4493],[120.6312,16.4329],[120.6096,16.4369]]]]},"properties":{"ADM3_EN":"La Trinidad","name":"La Trinidad","ADM3_PCODE":"PH141110000","psgc_code":"141110000","ADM2_EN":"Benguet","ADM2_PCODE":"PH1411","ADM1_EN":"Cordillera Administrative Region (CAR)","ADM1_PCODE":"PH14","ADM0_EN":"Philippines (the)","ADM0_PCODE":"PH","region_key":"car","province_key":"benguet","type":"City"}},{"type":"Feature","geometry":{"type":"MultiPolygon","coordinates":[[[[120.8376,16.8806],[120.8444,16.8729],[120.8503,16.8461],[120.8551,16.8387],[120.8381,16.8292],[120.8323,16.8221],[120.8208,16.8047],[120.8187,16.7932],[120.8172,16.7929],[120.8132,16.7863],[120.8098,16.786],[120.8091,16.781],[120.8072,16.7817],[120.8047,16.7732],[120.8029,16.7715],[120.8028,16.7663],[120.7868,16.7747],[120.7457,16.8277],[120.7414,16.8403],[120.7448,16.8635],[120.7329,16.8825],[120.7333,16.8983],[120.7285,16.9117],[120.7434,16.9137],[120.7676,16.927],[120.7755,16.9348],[120.7934,16.919],[120.8204,16.8916],[120.8376,16.8806]]]]},"properties":{"ADM3_EN":"Mankayan","name":"Mankayan","ADM3_PCODE":"PH141111000","psgc_code":"141111000","ADM2_EN":"Benguet","ADM2_PCODE":"PH1411","ADM1_EN":"Cordillera Administrative Region (CAR)","ADM1_PCODE":"PH14","ADM0_EN":"Philippines (the)","ADM0_PCODE":"PH","region_key":"car","province_key":"benguet","type":"Municipality"}},{"type":"Feature","geometry":{"type":"MultiPolygon","coordinates":[[[[120.4764,16.4505],[120.4693,16.4974],[120.4709,16.5021],[120.4933,16.5339],[120.4966,16.5412],[120.5145,16.5471],[120.5351,16.5452],[120.565,16.5454],[120.5478,16.444],[120.4764,16.4505]]]]},"properties":{"ADM3_EN":"Sablan","name":"Sablan","ADM3_PCODE":"PH141112000","psgc_code":"141112000","ADM2_EN":"Benguet","ADM2_PCODE":"PH1411","ADM1_EN":"Cordillera Administrative Region (CAR)","ADM1_PCODE":"PH14","ADM0_EN":"Philippines (the)","ADM0_PCODE":"PH","region_key":"car","province_key":"benguet","type":"Municipality"}},{"type":"Feature","geometry":{"type":"MultiPolygon","coordinates":[[[[120.5474,16.2217],[120.5125,16.237],[120.5144,16.2429],[120.5098,16.2755],[120.5036,16.3062],[120.5014,16.3107],[120.4962,16.3442],[120.4883,16.3592],[120.4855,16.3768],[120.4874,16.3912],[120.4764,16.4505],[120.5478,16.444],[120.5691,16.3702],[120.629,16.3625],[120.663,16.3306],[120.626,16.2018],[120.5474,16.2217]]]]},"properties":{"ADM3_EN":"Tuba","name":"Tuba","ADM3_PCODE":"PH141113000","psgc_code":"141113000","ADM2_EN":"Benguet","ADM2_PCODE":"PH1411","ADM1_EN":"Cordillera Administrative Region (CAR)","ADM1_PCODE":"PH14","ADM0_EN":"Philippines (the)","ADM0_PCODE":"PH","region_key":"car","province_key":"benguet","type":"Municipality"}},{"type":"Feature","geometry":{"type":"MultiPolygon","coordinates":[[[[120.612,16.5006],[120.5627,16.5335],[120.565,16.5454],[120.6416,16.5474],[120.6501,16.5315],[120.6801,16.4991],[120.6992,16.4742],[120.6671,16.4631],[120.612,16.5006]]]]},"properties":{"ADM3_EN":"Tublay","name":"Tublay","ADM3_PCODE":"PH141114000","psgc_code":"141114000","ADM2_EN":"Benguet","ADM2_PCODE":"PH1411","ADM1_EN":"Cordillera Administrative Region (CAR)","ADM1_PCODE":"PH14","ADM0_EN":"Philippines (the)","ADM0_PCODE":"PH","region_key":"car","province_key":"benguet","type":"Municipality"}},{"type":"Feature","geometry":{"type":"MultiPolygon","coordinates":[[[[121.4116,17.0056],[121.4115,16.9879],[121.4176,16.9789],[121.4255,16.9169],[121.4056,16.9032],[121.411,16.8666],[121.3983,16.8196],[121.4036,16.8033],[121.3971,16.8065],[121.3952,16.8061],[121.3906,16.7967],[121.3841,16.7957],[121.3674,16.7998],[121.3671,16.7967],[121.3723,16.7922],[121.3714,16.7895],[121.3693,16.7893],[121.347,16.8091],[121.2912,16.8539],[121.2828,16.8689],[121.2843,16.8708],[121.2808,16.8727],[121.2786,16.8794],[121.2887,16.8827],[121.2881,16.8843],[121.2846,16.8844],[121.2834,16.8861],[121.2881,16.8906],[121.2853,16.8949],[121.2798,16.8988],[121.2741,16.896],[121.272,16.8982],[121.2759,16.9028],[121.2764,16.9098],[121.2789,16.9121],[121.277,16.9162],[121.2698,16.9128],[121.2692,16.9156],[121.2655,16.9151],[121.2648,16.918],[121.2687,16.9191],[121.2695,16.9209],[121.2671,16.9259],[121.2699,16.9272],[121.2702,16.9303],[121.2736,16.9302],[121.2751,16.9326],[121.2723,16.9336],[121.2748,16.9403],[121.2726,16.9405],[121.2723,16.9454],[121.2735,16.9462],[121.2763,16.9433],[121.2756,16.9478],[121.2771,16.9508],[121.2729,16.9538],[121.2751,16.9559],[121.279,16.9531],[121.28,16.9565],[121.2837,16.9589],[121.2825,16.9615],[121.2793,16.9622],[121.278,16.9583],[121.2768,16.9591],[121.2769,16.9624],[121.2739,16.9656],[121.2694,16.976],[121.2706,16.9884],[121.2525,17.0138],[121.2869,17.0282],[121.3045,17.0387],[121.3194,17.0442],[121.3326,17.0552],[121.3516,17.0672],[121.3872,17.0722],[121.414,17.0135],[121.4116,17.0056]]]]},"properties":{"ADM3_EN":"Aguinaldo","name":"Aguinaldo","ADM3_PCODE":"PH142708000","psgc_code":"142708000","ADM2_EN":"Ifugao","ADM2_PCODE":"PH1427","ADM1_EN":"Cordillera Administrative Region (CAR)","ADM1_PCODE":"PH14","ADM0_EN":"Philippines (the)","ADM0_PCODE":"PH","region_key":"car","province_key":"ifugao","type":"Municipality"}},{"type":"Feature","geometry":{"type":"MultiPolygon","coordinates":[[[[121.5529,16.8617],[121.5472,16.86],[121.5469,16.8554],[121.545,16.8541],[121.5374,16.8522],[121.5092,16.8382],[121.4933,16.8384],[121.4743,16.8346],[121.4628,16.8296],[121.4553,16.8284],[121.443,16.8322],[121.4352,16.839],[121.4306,16.8364],[121.4259,16.8312],[121.4277,16.8294],[121.4238,16.8217],[121.4181,16.82],[121.4106,16.8082],[121.4036,16.8033],[121.3983,16.8196],[121.411,16.8666],[121.4056,16.9032],[121.4255,16.9169],[121.4176,16.9789],[121.4115,16.9879],[121.4116,17.0056],[121.414,17.0135],[121.3872,17.0722],[121.4394,17.08],[121.537,17.0795],[121.5543,17.0711],[121.556,17.0488],[121.5645,17.0228],[121.5682,17.0048],[121.5744,16.9921],[121.5785,16.9877],[121.581,16.9636],[121.5801,16.957],[121.5847,16.9468],[121.5888,16.9204],[121.5911,16.9168],[121.5903,16.9082],[121.5872,16.9015],[121.5806,16.8955],[121.5781,16.889],[121.5654,16.8797],[121.5628,16.8758],[121.5661,16.8714],[121.5605,16.8686],[121.5529,16.8617]]]]},"properties":{"ADM3_EN":"Alfonso Lista","name":"Alfonso Lista","ADM3_PCODE":"PH142707000","psgc_code":"142707000","ADM2_EN":"Ifugao","ADM2_PCODE":"PH1427","ADM1_EN":"Cordillera Administrative Region (CAR)","ADM1_PCODE":"PH14","ADM0_EN":"Philippines (the)","ADM0_PCODE":"PH","region_key":"car","province_key":"ifugao","type":"Municipality"}},{"type":"Feature","geometry":{"type":"MultiPolygon","coordinates":[[[[121.0885,16.7383],[121.0931,16.7414],[121.0975,16.7409],[121.1022,16.7348],[121.1091,16.7308],[121.1119,16.7311],[121.1151,16.7257],[121.1154,16.722],[121.121,16.7185],[121.1219,16.7159],[121.1238,16.7168],[121.1259,16.7144],[121.1307,16.7127],[121.1408,16.7159],[121.1419,16.711],[121.1398,16.6383],[121.1073,16.6313],[121.0395,16.6219],[120.9996,16.6146],[121.007,16.6345],[121.0152,16.6663],[121.014,16.6747],[121.0092,16.6775],[121.0127,16.687],[121.0214,16.7466],[121.0284,16.764],[121.0334,16.7604],[121.0481,16.7557],[121.0592,16.7564],[121.0885,16.7383]]]]},"properties":{"ADM3_EN":"Asipulo","name":"Asipulo","ADM3_PCODE":"PH142711000","psgc_code":"142711000","ADM2_EN":"Ifugao","ADM2_PCODE":"PH1427","ADM1_EN":"Cordillera Administrative Region (CAR)","ADM1_PCODE":"PH14","ADM0_EN":"Philippines (the)","ADM0_PCODE":"PH","region_key":"car","province_key":"ifugao","type":"Municipality"}},{"type":"Feature","geometry":{"type":"MultiPolygon","coordinates":[[[[121.0316,16.8711],[121.0281,16.8788],[121.0306,16.8899],[121.0279,16.8916],[121.0281,16.8946],[121.0313,16.9048],[121.0318,16.915],[121.0369,16.9244],[121.0367,16.9305],[121.0402,16.9331],[121.0423,16.9375],[121.0432,16.9629],[121.0472,16.9687],[121.0464,16.975],[121.0498,16.9849],[121.0489,16.9926],[121.0423,16.9992],[121.059,17.0116],[121.109,17.0145],[121.1432,17.0122],[121.1439,16.9985],[121.1507,16.9728],[121.1498,16.959],[121.1655,16.918],[121.1665,16.9195],[121.1676,16.9181],[121.1666,16.9081],[121.1684,16.9065],[121.1667,16.9042],[121.1716,16.9002],[121.1764,16.8887],[121.1371,16.8745],[121.128,16.9008],[121.1249,16.8991],[121.1188,16.9017],[121.1024,16.8946],[121.0749,16.8914],[121.0719,16.8848],[121.0729,16.8771],[121.0609,16.873],[121.0316,16.8711]]]]},"properties":{"ADM3_EN":"Banaue","name":"Banaue","ADM3_PCODE":"PH142701000","psgc_code":"142701000","ADM2_EN":"Ifugao","ADM2_PCODE":"PH1427","ADM1_EN":"Cordillera Administrative Region (CAR)","ADM1_PCODE":"PH14","ADM0_EN":"Philippines (the)","ADM0_PCODE":"PH","region_key":"car","province_key":"ifugao","type":"Municipality"}},{"type":"Feature","geometry":{"type":"MultiPolygon","coordinates":[[[[121.0992,16.8127],[121.0947,16.8144],[121.0795,16.8286],[121.0727,16.8257],[121.0656,16.8265],[121.0604,16.8336],[121.0557,16.8356],[121.0513,16.8436],[121.0512,16.8467],[121.0453,16.8507],[121.0416,16.8594],[121.0353,16.8648],[121.0316,16.8711],[121.0609,16.873],[121.0729,16.8771],[121.0719,16.8848],[121.0749,16.8914],[121.1024,16.8946],[121.1188,16.9017],[121.1249,16.8991],[121.128,16.9008],[121.1371,16.8745],[121.1424,16.8758],[121.1455,16.8673],[121.1333,16.8357],[121.1149,16.8347],[121.1096,16.8249],[121.1047,16.8319],[121.098,16.8239],[121.0992,16.8127]]]]},"properties":{"ADM3_EN":"Hingyon","name":"Hingyon","ADM3_PCODE":"PH142709000","psgc_code":"142709000","ADM2_EN":"Ifugao","ADM2_PCODE":"PH1427","ADM1_EN":"Cordillera Administrative Region (CAR)","ADM1_PCODE":"PH14","ADM0_EN":"Philippines (the)","ADM0_PCODE":"PH","region_key":"car","province_key":"ifugao","type":"Municipality"}},{"type":"Feature","geometry":{"type":"MultiPolygon","coordinates":[[[[120.8791,16.8276],[120.9012,16.8244],[120.916,16.828],[120.9246,16.8321],[120.934,16.839],[120.9479,16.8579],[120.9621,16.8966],[120.9825,16.9337],[120.973,16.955],[120.9698,16.9719],[120.9712,16.9845],[120.9787,16.998],[121.0004,16.9943],[121.0255,16.9941],[121.0423,16.9992],[121.0489,16.9926],[121.0498,16.9849],[121.0464,16.975],[121.0472,16.9687],[121.0432,16.9629],[121.0423,16.9375],[121.0402,16.9331],[121.0367,16.9305],[121.0369,16.9244],[121.0318,16.915],[121.0313,16.9048],[121.0279,16.8932],[121.0284,16.8909],[121.0306,16.8906],[121.0281,16.8788],[121.0353,16.8648],[121.0416,16.8594],[121.0453,16.8507],[121.0512,16.8467],[121.0513,16.8436],[121.0557,16.8356],[121.0604,16.8336],[121.0656,16.8265],[121.0727,16.8257],[121.0602,16.8129],[121.0632,16.8078],[121.0454,16.7842],[121.0334,16.7756],[121.0284,16.764],[121.0144,16.7723],[121.0108,16.778],[121.0032,16.7819],[120.9193,16.7976],[120.895,16.7919],[120.8786,16.8235],[120.8791,16.8276]]]]},"properties":{"ADM3_EN":"Hungduan","name":"Hungduan","ADM3_PCODE":"PH142702000","psgc_code":"142702000","ADM2_EN":"Ifugao","ADM2_PCODE":"PH1427","ADM1_EN":"Cordillera Administrative Region (CAR)","ADM1_PCODE":"PH14","ADM0_EN":"Philippines (the)","ADM0_PCODE":"PH","region_key":"car","province_key":"ifugao","type":"Municipality"}},{"type":"Feature","geometry":{"type":"MultiPolygon","coordinates":[[[[121.1625,16.7578],[121.1636,16.7526],[121.1624,16.7488],[121.1647,16.7439],[121.1427,16.7339],[121.1408,16.7159],[121.1307,16.7127],[121.1259,16.7144],[121.1238,16.7168],[121.1219,16.7159],[121.121,16.7185],[121.1154,16.722],[121.1151,16.7257],[121.1119,16.7311],[121.1091,16.7308],[121.1022,16.7348],[121.0975,16.7409],[121.0931,16.7414],[121.0876,16.7382],[121.0592,16.7564],[121.0481,16.7557],[121.0334,16.7604],[121.0284,16.764],[121.0334,16.7756],[121.0454,16.7842],[121.0632,16.8078],[121.0602,16.8129],[121.0727,16.8257],[121.0795,16.8286],[121.0947,16.8144],[121.101,16.8119],[121.1104,16.8051],[121.1181,16.7888],[121.1224,16.7873],[121.1238,16.7846],[121.1348,16.7851],[121.1396,16.7804],[121.142,16.7803],[121.1463,16.7832],[121.1543,16.7775],[121.1627,16.7663],[121.1625,16.7578]]]]},"properties":{"ADM3_EN":"Kiangan","name":"Kiangan","ADM3_PCODE":"PH142703000","psgc_code":"142703000","ADM2_EN":"Ifugao","ADM2_PCODE":"PH1427","ADM1_EN":"Cordillera Administrative Region (CAR)","ADM1_PCODE":"PH14","ADM0_EN":"Philippines (the)","ADM0_PCODE":"PH","region_key":"car","province_key":"ifugao","type":"Municipality"}},{"type":"Feature","geometry":{"type":"MultiPolygon","coordinates":[[[[121.3138,16.7449],[121.3256,16.7379],[121.3266,16.7324],[121.3276,16.7331],[121.317,16.7153],[121.3178,16.7024],[121.3161,16.698],[121.3145,16.6989],[121.3067,16.6941],[121.296,16.6952],[121.2917,16.6911],[121.2905,16.6873],[121.2964,16.6802],[121.2933,16.6725],[121.2904,16.6721],[121.2843,16.678],[121.2738,16.6839],[121.2691,16.6926],[121.2491,16.7117],[121.2462,16.7203],[121.2466,16.7391],[121.245,16.7435],[121.2386,16.7479],[121.2317,16.7483],[121.228,16.7591],[121.2238,16.7609],[121.2176,16.7584],[121.1992,16.7626],[121.1747,16.7491],[121.1689,16.7433],[121.1647,16.7439],[121.1624,16.7488],[121.1636,16.7526],[121.1619,16.7565],[121.1627,16.7663],[121.1543,16.7775],[121.1463,16.7832],[121.142,16.7803],[121.1396,16.7804],[121.1348,16.7851],[121.1251,16.784],[121.1224,16.7873],[121.1181,16.7888],[121.1104,16.8051],[121.0992,16.8127],[121.098,16.8239],[121.1047,16.8319],[121.1096,16.8249],[121.1149,16.8347],[121.1333,16.8357],[121.1455,16.8673],[121.1424,16.8758],[121.1843,16.892],[121.1867,16.8894],[121.1886,16.8911],[121.1905,16.8888],[121.1916,16.8927],[121.1944,16.8883],[121.2016,16.8888],[121.2034,16.8856],[121.205,16.8876],[121.2044,16.8895],[121.208,16.8887],[121.2077,16.8906],[121.2113,16.8909],[121.2103,16.8942],[121.2134,16.8934],[121.2147,16.8886],[121.2159,16.8901],[121.2149,16.8931],[121.2166,16.8937],[121.2201,16.8935],[121.223,16.8898],[121.2237,16.8949],[121.2289,16.8948],[121.2316,16.8965],[121.2322,16.8988],[121.2363,16.8977],[121.2388,16.9003],[121.2407,16.8973],[121.2378,16.8934],[121.2471,16.8879],[121.2516,16.8803],[121.261,16.8773],[121.2641,16.8715],[121.2675,16.8693],[121.27,16.8627],[121.2723,16.8632],[121.2747,16.8617],[121.2738,16.8541],[121.2623,16.8503],[121.2573,16.8534],[121.2555,16.8525],[121.2598,16.8459],[121.255,16.8311],[121.2572,16.8291],[121.2611,16.8326],[121.2683,16.8315],[121.271,16.8284],[121.2691,16.8256],[121.265,16.8258],[121.2641,16.8244],[121.2644,16.8202],[121.2698,16.822],[121.2712,16.8193],[121.2697,16.8168],[121.2635,16.8148],[121.2627,16.8116],[121.2691,16.8104],[121.2709,16.8036],[121.2683,16.802],[121.2705,16.7969],[121.2677,16.7962],[121.2655,16.8019],[121.2564,16.8034],[121.2578,16.7968],[121.2631,16.7927],[121.2677,16.7919],[121.266,16.7886],[121.2672,16.7852],[121.2659,16.7807],[121.2698,16.7744],[121.2739,16.7751],[121.2791,16.7708],[121.2856,16.7764],[121.291,16.7776],[121.2923,16.777],[121.2933,16.771],[121.2951,16.7708],[121.2971,16.7743],[121.3038,16.7768],[121.3026,16.7736],[121.3039,16.7697],[121.3018,16.7663],[121.3057,16.7602],[121.3032,16.7526],[121.3047,16.7503],[121.3089,16.75],[121.3104,16.7445],[121.3138,16.7449]]]]},"properties":{"ADM3_EN":"Lagawe","name":"Lagawe","ADM3_PCODE":"PH142704000","psgc_code":"142704000","ADM2_EN":"Ifugao","ADM2_PCODE":"PH1427","ADM1_EN":"Cordillera Administrative Region (CAR)","ADM1_PCODE":"PH14","ADM0_EN":"Philippines (the)","ADM0_PCODE":"PH","region_key":"car","province_key":"ifugao","type":"Municipality"}},{"type":"Feature","geometry":{"type":"MultiPolygon","coordinates":[[[[121.1415,16.6961],[121.1408,16.7159],[121.1427,16.7339],[121.1647,16.7439],[121.1689,16.7433],[121.1747,16.7491],[121.1992,16.7626],[121.2176,16.7584],[121.2238,16.7609],[121.228,16.7591],[121.2317,16.7483],[121.2386,16.7479],[121.245,16.7435],[121.2466,16.7391],[121.2462,16.7203],[121.2491,16.7117],[121.2691,16.6926],[121.2738,16.6839],[121.2843,16.678],[121.2904,16.6721],[121.2933,16.6725],[121.2972,16.6642],[121.2941,16.6601],[121.2885,16.6578],[121.2783,16.6694],[121.2713,16.6603],[121.2656,16.6591],[121.2607,16.6532],[121.2548,16.6544],[121.2527,16.6504],[121.2507,16.6502],[121.2458,16.6548],[121.2432,16.6533],[121.2339,16.6555],[121.2305,16.6535],[121.2315,16.6513],[121.2299,16.649],[121.2105,16.6446],[121.2078,16.6388],[121.2036,16.6372],[121.1953,16.6414],[121.1776,16.6372],[121.176,16.6403],[121.1765,16.6448],[121.1412,16.638],[121.1398,16.6383],[121.1394,16.646],[121.1415,16.6961]]]]},"properties":{"ADM3_EN":"Lamut","name":"Lamut","ADM3_PCODE":"PH142705000","psgc_code":"142705000","ADM2_EN":"Ifugao","ADM2_PCODE":"PH1427","ADM1_EN":"Cordillera Administrative Region (CAR)","ADM1_PCODE":"PH14","ADM0_EN":"Philippines (the)","ADM0_PCODE":"PH","region_key":"car","province_key":"ifugao","type":"Municipality"}},{"type":"Feature","geometry":{"type":"MultiPolygon","coordinates":[[[[121.3618,16.7894],[121.3557,16.7876],[121.3548,16.7764],[121.3528,16.7804],[121.3439,16.7819],[121.3405,16.7815],[121.3368,16.7781],[121.3382,16.7724],[121.3455,16.7683],[121.3462,16.7619],[121.3435,16.7595],[121.3365,16.7584],[121.3324,16.7565],[121.331,16.7556],[121.3307,16.755],[121.3331,16.7558],[121.3363,16.7532],[121.3343,16.7446],[121.3355,16.7439],[121.3328,16.7366],[121.3266,16.7324],[121.3256,16.7379],[121.3138,16.7449],[121.3104,16.7445],[121.3089,16.75],[121.3039,16.7509],[121.3031,16.7546],[121.3057,16.7602],[121.3018,16.7663],[121.3039,16.7697],[121.3026,16.7736],[121.3038,16.7768],[121.2971,16.7743],[121.2951,16.7708],[121.2933,16.771],[121.2923,16.777],[121.291,16.7776],[121.2856,16.7764],[121.2791,16.7708],[121.2739,16.7751],[121.2685,16.7753],[121.2659,16.7807],[121.2672,16.7852],[121.266,16.7886],[121.2677,16.7919],[121.2631,16.7927],[121.2592,16.7956],[121.2559,16.8024],[121.2631,16.8028],[121.2655,16.8019],[121.2677,16.7962],[121.2705,16.7969],[121.2683,16.802],[121.2709,16.8036],[121.2691,16.8104],[121.2627,16.8116],[121.2635,16.8148],[121.2697,16.8168],[121.2712,16.8193],[121.2698,16.822],[121.2644,16.8202],[121.2641,16.8244],[121.265,16.8258],[121.2691,16.8256],[121.271,16.8284],[121.2683,16.8315],[121.2611,16.8326],[121.2572,16.8291],[121.255,16.8311],[121.2598,16.8459],[121.2554,16.8517],[121.2573,16.8534],[121.2623,16.8503],[121.2738,16.8541],[121.2747,16.8617],[121.2723,16.8632],[121.27,16.8627],[121.2675,16.8693],[121.2641,16.8715],[121.261,16.8773],[121.2516,16.8803],[121.2471,16.8879],[121.2378,16.8934],[121.2407,16.8973],[121.2388,16.9003],[121.2363,16.8977],[121.2322,16.8988],[121.2316,16.8965],[121.2289,16.8948],[121.2237,16.8949],[121.223,16.8898],[121.2201,16.8935],[121.2166,16.8937],[121.2149,16.8931],[121.2159,16.8901],[121.2147,16.8886],[121.2134,16.8934],[121.2103,16.8942],[121.2113,16.8909],[121.2077,16.8906],[121.208,16.8887],[121.2044,16.8895],[121.205,16.8876],[121.2034,16.8856],[121.2016,16.8888],[121.1944,16.8883],[121.1916,16.8927],[121.1905,16.8888],[121.1886,16.8911],[121.1867,16.8894],[121.1843,16.892],[121.1764,16.8887],[121.1716,16.9002],[121.1667,16.9042],[121.1684,16.9065],[121.1666,16.9081],[121.1676,16.9181],[121.1665,16.9195],[121.1655,16.918],[121.1498,16.959],[121.1507,16.9728],[121.1439,16.9985],[121.1432,17.0122],[121.1708,17.0058],[121.1914,17.0051],[121.228,17.0067],[121.2525,17.0138],[121.2706,16.9884],[121.2694,16.976],[121.2739,16.9656],[121.2769,16.9624],[121.2768,16.9591],[121.278,16.9583],[121.2793,16.9622],[121.2825,16.9615],[121.2837,16.9589],[121.28,16.9565],[121.279,16.9531],[121.2751,16.9559],[121.2729,16.9538],[121.2771,16.9508],[121.2756,16.9478],[121.2763,16.9433],[121.2735,16.9462],[121.2723,16.9454],[121.2726,16.9405],[121.2748,16.9403],[121.2723,16.9336],[121.2751,16.9326],[121.2736,16.9302],[121.2702,16.9303],[121.2699,16.9272],[121.2671,16.9259],[121.2695,16.9209],[121.2687,16.9191],[121.2648,16.918],[121.2655,16.9151],[121.2692,16.9156],[121.2698,16.9128],[121.277,16.9162],[121.2789,16.9121],[121.2764,16.9098],[121.2759,16.9028],[121.272,16.8982],[121.2741,16.896],[121.2798,16.8988],[121.2853,16.8949],[121.2881,16.8906],[121.2834,16.8861],[121.2846,16.8844],[121.2881,16.8843],[121.2887,16.8827],[121.2786,16.8794],[121.2808,16.8727],[121.2843,16.8708],[121.2828,16.8689],[121.2912,16.8539],[121.347,16.8091],[121.3685,16.7896],[121.3618,16.7894]]]]},"properties":{"ADM3_EN":"Mayoyao","name":"Mayoyao","ADM3_PCODE":"PH142706000","psgc_code":"142706000","ADM2_EN":"Ifugao","ADM2_PCODE":"PH1427","ADM1_EN":"Cordillera Administrative Region (CAR)","ADM1_PCODE":"PH14","ADM0_EN":"Philippines (the)","ADM0_PCODE":"PH","region_key":"car","province_key":"ifugao","type":"Municipality"}},{"type":"Feature","geometry":{"type":"MultiPolygon","coordinates":[[[[120.8978,16.6059],[120.8958,16.6095],[120.8952,16.6903],[120.8963,16.7384],[120.8992,16.7705],[120.8982,16.7839],[120.895,16.7919],[120.9193,16.7976],[121.0032,16.7819],[121.0108,16.778],[121.0144,16.7723],[121.0284,16.764],[121.0214,16.7466],[121.0127,16.687],[121.0092,16.6775],[121.014,16.6747],[121.0152,16.6663],[121.007,16.6345],[120.9996,16.6146],[121.0395,16.6219],[120.9052,16.5959],[120.9049,16.6007],[120.8978,16.6059]]]]},"properties":{"ADM3_EN":"Tinoc","name":"Tinoc","ADM3_PCODE":"PH142710000","psgc_code":"142710000","ADM2_EN":"Ifugao","ADM2_PCODE":"PH1427","ADM1_EN":"Cordillera Administrative Region (CAR)","ADM1_PCODE":"PH14","ADM0_EN":"Philippines (the)","ADM0_PCODE":"PH","region_key":"car","province_key":"ifugao","type":"Municipality"}},{"type":"Feature","geometry":{"type":"MultiPolygon","coordinates":[[[[121.2433,17.4345],[121.1794,17.4242],[121.1346,17.4317],[121.105,17.445],[120.9985,17.4293],[120.998,17.4914],[121.0538,17.53],[121.071,17.5359],[121.1102,17.5609],[121.1197,17.5893],[121.0982,17.6287],[121.0915,17.6667],[121.1227,17.684],[121.1883,17.6543],[121.2274,17.6243],[121.2833,17.5396],[121.275,17.4745],[121.2433,17.4345]]]]},"properties":{"ADM3_EN":"Balbalan","name":"Balbalan","ADM3_PCODE":"PH143201000","psgc_code":"143201000","ADM2_EN":"Kalinga","ADM2_PCODE":"PH1432","ADM1_EN":"Cordillera Administrative Region (CAR)","ADM1_PCODE":"PH14","ADM0_EN":"Philippines (the)","ADM0_PCODE":"PH","region_key":"car","province_key":"kalinga","type":"Municipality"}},{"type":"Feature","geometry":{"type":"MultiPolygon","coordinates":[[[[120.9307,17.2852],[120.9406,17.3075],[120.9541,17.3302],[120.9642,17.3438],[121.1029,17.3341],[121.1179,17.3534],[121.118,17.3571],[121.1206,17.3599],[121.1323,17.3652],[121.1372,17.3647],[121.1422,17.374],[121.1431,17.379],[121.2016,17.3744],[121.2188,17.3965],[121.2442,17.3678],[121.2327,17.3617],[121.222,17.3488],[121.215,17.3368],[121.2005,17.3042],[121.1637,17.3204],[121.1465,17.3168],[121.1167,17.3008],[121.0879,17.2787],[121.0556,17.2568],[121.0285,17.2458],[120.9882,17.237],[120.9148,17.2476],[120.9235,17.2609],[120.9307,17.2852]]]]},"properties":{"ADM3_EN":"Lubuagan","name":"Lubuagan","ADM3_PCODE":"PH143206000","psgc_code":"143206000","ADM2_EN":"Kalinga","ADM2_PCODE":"PH1432","ADM1_EN":"Cordillera Administrative Region (CAR)","ADM1_PCODE":"PH14","ADM0_EN":"Philippines (the)","ADM0_PCODE":"PH","region_key":"car","province_key":"kalinga","type":"Municipality"}},{"type":"Feature","geometry":{"type":"MultiPolygon","coordinates":[[[[120.9825,17.3781],[120.9977,17.4186],[120.9985,17.4293],[121.105,17.445],[121.1346,17.4317],[121.1794,17.4242],[121.2433,17.4345],[121.2188,17.3965],[121.2016,17.3744],[121.1431,17.379],[121.1422,17.374],[121.1372,17.3647],[121.1323,17.3652],[121.1206,17.3599],[121.118,17.3571],[121.1179,17.3534],[121.1029,17.3341],[120.9642,17.3438],[120.9825,17.3781]]]]},"properties":{"ADM3_EN":"Pasil","name":"Pasil","ADM3_PCODE":"PH143208000","psgc_code":"143208000","ADM2_EN":"Kalinga","ADM2_PCODE":"PH1432","ADM1_EN":"Cordillera Administrative Region (CAR)","ADM1_PCODE":"PH14","ADM0_EN":"Philippines (the)","ADM0_PCODE":"PH","region_key":"car","province_key":"kalinga","type":"Municipality"}},{"type":"Feature","geometry":{"type":"MultiPolygon","coordinates":[[[[121.2792,17.5458],[121.2274,17.6243],[121.2538,17.671],[121.3292,17.6572],[121.3755,17.6416],[121.3894,17.6413],[121.399,17.6645],[121.4292,17.6829],[121.4307,17.6852],[121.4394,17.6897],[121.443,17.6898],[121.4379,17.6708],[121.4428,17.6641],[121.4472,17.6644],[121.4506,17.6614],[121.4572,17.6637],[121.4599,17.6681],[121.4693,17.6756],[121.4747,17.6753],[121.4796,17.6726],[121.4957,17.6587],[121.5055,17.6529],[121.5118,17.6465],[121.5137,17.6467],[121.5237,17.6301],[121.5532,17.6121],[121.5868,17.5772],[121.4402,17.5551],[121.4004,17.5118],[121.34,17.4941],[121.3214,17.4712],[121.2864,17.4616],[121.2433,17.4345],[121.275,17.4745],[121.2833,17.5396],[121.2792,17.5458]]]]},"properties":{"ADM3_EN":"Pinukpuk","name":"Pinukpuk","ADM3_PCODE":"PH143209000","psgc_code":"143209000","ADM2_EN":"Kalinga","ADM2_PCODE":"PH1432","ADM1_EN":"Cordillera Administrative Region (CAR)","ADM1_PCODE":"PH14","ADM0_EN":"Philippines (the)","ADM0_PCODE":"PH","region_key":"car","province_key":"kalinga","type":"Municipality"}},{"type":"Feature","geometry":{"type":"MultiPolygon","coordinates":[[[[121.5819,17.4505],[121.5494,17.4883],[121.4889,17.5626],[121.5868,17.5772],[121.6168,17.548],[121.6418,17.5207],[121.6561,17.5082],[121.6703,17.4903],[121.6716,17.4638],[121.6679,17.4531],[121.675,17.4448],[121.6599,17.4317],[121.6045,17.3966],[121.6139,17.4126],[121.5819,17.4505]]]]},"properties":{"ADM3_EN":"Rizal","name":"Rizal","ADM3_PCODE":"PH143211000","psgc_code":"143211000","ADM2_EN":"Kalinga","ADM2_PCODE":"PH1432","ADM1_EN":"Cordillera Administrative Region (CAR)","ADM1_PCODE":"PH14","ADM0_EN":"Philippines (the)","ADM0_PCODE":"PH","region_key":"car","province_key":"kalinga","type":"Municipality"}},{"type":"Feature","geometry":{"type":"MultiPolygon","coordinates":[[[[121.3882,17.3016],[121.3906,17.3041],[121.3869,17.326],[121.3772,17.3297],[121.3727,17.3339],[121.3665,17.3321],[121.3604,17.3344],[121.3565,17.3423],[121.3586,17.3489],[121.3542,17.3591],[121.3485,17.364],[121.3396,17.367],[121.3295,17.3614],[121.3151,17.3619],[121.3024,17.3662],[121.2997,17.3697],[121.2736,17.3734],[121.2607,17.3723],[121.2442,17.3678],[121.2188,17.3965],[121.2433,17.4345],[121.2864,17.4616],[121.3214,17.4712],[121.34,17.4941],[121.4004,17.5118],[121.4402,17.5551],[121.4889,17.5626],[121.5494,17.4883],[121.6139,17.4126],[121.6045,17.3966],[121.5498,17.2792],[121.4461,17.2939],[121.4105,17.3044],[121.3884,17.2973],[121.3897,17.2993],[121.3882,17.3016]]]]},"properties":{"ADM3_EN":"Tabuk City","name":"Tabuk City","ADM3_PCODE":"PH143213000","psgc_code":"143213000","ADM2_EN":"Kalinga","ADM2_PCODE":"PH1432","ADM1_EN":"Cordillera Administrative Region (CAR)","ADM1_PCODE":"PH14","ADM0_EN":"Philippines (the)","ADM0_PCODE":"PH","region_key":"car","province_key":"kalinga","type":"City"}},{"type":"Feature","geometry":{"type":"MultiPolygon","coordinates":[[[[121.221,17.1781],[121.18,17.1726],[121.1622,17.1682],[121.1721,17.2193],[121.1805,17.2466],[121.1947,17.2842],[121.2005,17.3042],[121.215,17.3368],[121.222,17.3488],[121.2302,17.3594],[121.2371,17.3649],[121.2607,17.3723],[121.2818,17.373],[121.2997,17.3697],[121.3024,17.3662],[121.3151,17.3619],[121.3295,17.3614],[121.3396,17.367],[121.3485,17.364],[121.3542,17.3591],[121.3586,17.3489],[121.3565,17.3423],[121.3604,17.3344],[121.3665,17.3321],[121.3727,17.3339],[121.3772,17.3297],[121.3869,17.326],[121.3906,17.3041],[121.3882,17.3016],[121.3897,17.2993],[121.3884,17.2973],[121.3704,17.2924],[121.3412,17.2813],[121.3339,17.2725],[121.3242,17.2541],[121.2846,17.2101],[121.2497,17.1862],[121.221,17.1781]]]]},"properties":{"ADM3_EN":"Tanudan","name":"Tanudan","ADM3_PCODE":"PH143214000","psgc_code":"143214000","ADM2_EN":"Kalinga","ADM2_PCODE":"PH1432","ADM1_EN":"Cordillera Administrative Region (CAR)","ADM1_PCODE":"PH14","ADM0_EN":"Philippines (the)","ADM0_PCODE":"PH","region_key":"car","province_key":"kalinga","type":"Municipality"}},{"type":"Feature","geometry":{"type":"MultiPolygon","coordinates":[[[[121.0848,17.1973],[121.0821,17.2031],[121.0821,17.21],[121.0641,17.2303],[121.0565,17.2338],[121.0452,17.2331],[121.034,17.2304],[120.9882,17.237],[121.0285,17.2458],[121.0556,17.2568],[121.0879,17.2787],[121.1167,17.3008],[121.1367,17.3123],[121.1502,17.318],[121.1637,17.3204],[121.2005,17.3042],[121.1947,17.2842],[121.1752,17.2306],[121.1622,17.1682],[121.1382,17.175],[121.0865,17.1933],[121.0848,17.1973]]]]},"properties":{"ADM3_EN":"Tinglayan","name":"Tinglayan","ADM3_PCODE":"PH143215000","psgc_code":"143215000","ADM2_EN":"Kalinga","ADM2_PCODE":"PH1432","ADM1_EN":"Cordillera Administrative Region (CAR)","ADM1_PCODE":"PH14","ADM0_EN":"Philippines (the)","ADM0_PCODE":"PH","region_key":"car","province_key":"kalinga","type":"Municipality"}},{"type":"Feature","geometry":{"type":"MultiPolygon","coordinates":[[[[121.0719,17.0288],[121.1042,17.1009],[121.1072,17.1257],[121.104,17.1453],[121.0955,17.159],[121.0946,17.1779],[121.088,17.1877],[121.0865,17.1933],[121.1382,17.175],[121.1622,17.1682],[121.1803,17.1247],[121.1852,17.1171],[121.2071,17.056],[121.2202,17.032],[121.228,17.0067],[121.1914,17.0051],[121.1708,17.0058],[121.1432,17.0122],[121.109,17.0145],[121.059,17.0116],[121.0719,17.0288]]]]},"properties":{"ADM3_EN":"Barlig","name":"Barlig","ADM3_PCODE":"PH144401000","psgc_code":"144401000","ADM2_EN":"Mountain Province","ADM2_PCODE":"PH1444","ADM1_EN":"Cordillera Administrative Region (CAR)","ADM1_PCODE":"PH14","ADM0_EN":"Philippines (the)","ADM0_PCODE":"PH","region_key":"car","province_key":"mountain_province","type":"Municipality"}},{"type":"Feature","geometry":{"type":"MultiPolygon","coordinates":[[[[120.8583,16.8671],[120.8761,16.9085],[120.836,16.9666],[120.8468,17.0037],[120.8482,17.0201],[120.8456,17.0359],[120.8466,17.0422],[120.8504,17.0513],[120.8564,17.0587],[120.8765,17.0563],[120.8763,17.0535],[120.9038,17.0374],[120.8968,17.0308],[120.8935,17.0235],[120.9007,17.003],[120.9047,16.9987],[120.9016,16.9958],[120.8975,16.9347],[120.9025,16.9214],[120.9197,16.8965],[120.9283,16.8742],[120.9375,16.8628],[120.9433,16.8505],[120.934,16.839],[120.9246,16.8321],[120.916,16.828],[120.9012,16.8244],[120.887,16.8257],[120.8637,16.8332],[120.8551,16.8387],[120.8523,16.8425],[120.8498,16.8497],[120.8583,16.8671]]]]},"properties":{"ADM3_EN":"Bauko","name":"Bauko","ADM3_PCODE":"PH144402000","psgc_code":"144402000","ADM2_EN":"Mountain Province","ADM2_PCODE":"PH1444","ADM1_EN":"Cordillera Administrative Region (CAR)","ADM1_PCODE":"PH14","ADM0_EN":"Philippines (the)","ADM0_PCODE":"PH","region_key":"car","province_key":"mountain_province","type":"Municipality"}},{"type":"Feature","geometry":{"type":"MultiPolygon","coordinates":[[[[120.8819,17.1072],[120.8843,17.0844],[120.8765,17.0563],[120.8289,17.0625],[120.7752,17.0633],[120.7743,17.0753],[120.7805,17.1104],[120.791,17.128],[120.8144,17.1564],[120.8355,17.173],[120.8505,17.1817],[120.8583,17.1882],[120.8773,17.1893],[120.8863,17.1879],[120.8776,17.1406],[120.8819,17.1072]]]]},"properties":{"ADM3_EN":"Besao","name":"Besao","ADM3_PCODE":"PH144403000","psgc_code":"144403000","ADM2_EN":"Mountain Province","ADM2_PCODE":"PH1444","ADM1_EN":"Cordillera Administrative Region (CAR)","ADM1_PCODE":"PH14","ADM0_EN":"Philippines (the)","ADM0_PCODE":"PH","region_key":"car","province_key":"mountain_province","type":"Municipality"}},{"type":"Feature","geometry":{"type":"MultiPolygon","coordinates":[[[[120.9204,17.0259],[120.9166,17.0308],[120.9218,17.0377],[120.9247,17.0377],[120.9294,17.0432],[120.9398,17.077],[120.9403,17.0847],[120.9398,17.0913],[120.936,17.1023],[120.8977,17.1908],[120.9152,17.2134],[120.9542,17.1987],[120.9843,17.1817],[121.058,17.134],[121.0735,17.1192],[121.0761,17.1184],[121.0919,17.1047],[121.101,17.0949],[121.0719,17.0288],[121.059,17.0116],[121.0423,16.9992],[121.0255,16.9941],[121.0004,16.9943],[120.9787,16.998],[120.9204,17.0259]]]]},"properties":{"ADM3_EN":"Bontoc","name":"Bontoc","ADM3_PCODE":"PH144404000","psgc_code":"144404000","ADM2_EN":"Mountain Province","ADM2_PCODE":"PH1444","ADM1_EN":"Cordillera Administrative Region (CAR)","ADM1_PCODE":"PH14","ADM0_EN":"Philippines (the)","ADM0_PCODE":"PH","region_key":"car","province_key":"mountain_province","type":"Municipality"}},{"type":"Feature","geometry":{"type":"MultiPolygon","coordinates":[[[[121.2202,17.032],[121.2071,17.056],[121.1852,17.1171],[121.1803,17.1247],[121.1622,17.1682],[121.18,17.1726],[121.221,17.1781],[121.2497,17.1862],[121.2846,17.2101],[121.3242,17.2541],[121.3801,17.163],[121.3922,17.1479],[121.4394,17.08],[121.3516,17.0672],[121.3326,17.0552],[121.3194,17.0442],[121.3045,17.0387],[121.2869,17.0282],[121.2525,17.0138],[121.228,17.0067],[121.2202,17.032]]]]},"properties":{"ADM3_EN":"Natonin","name":"Natonin","ADM3_PCODE":"PH144405000","psgc_code":"144405000","ADM2_EN":"Mountain Province","ADM2_PCODE":"PH1444","ADM1_EN":"Cordillera Administrative Region (CAR)","ADM1_PCODE":"PH14","ADM0_EN":"Philippines (the)","ADM0_PCODE":"PH","region_key":"car","province_key":"mountain_province","type":"Municipality"}},{"type":"Feature","geometry":{"type":"MultiPolygon","coordinates":[[[[121.5498,17.2792],[121.5497,17.2509],[121.5518,17.2423],[121.5519,17.2139],[121.557,17.1803],[121.5544,17.1763],[121.555,17.1634],[121.5597,17.1538],[121.5603,17.1492],[121.5622,17.1018],[121.5624,17.0951],[121.5543,17.0711],[121.537,17.0795],[121.4394,17.08],[121.3922,17.1479],[121.3801,17.163],[121.3242,17.2541],[121.3339,17.2725],[121.3412,17.2813],[121.3704,17.2924],[121.4105,17.3044],[121.4461,17.2939],[121.5498,17.2792]]]]},"properties":{"ADM3_EN":"Paracelis","name":"Paracelis","ADM3_PCODE":"PH144406000","psgc_code":"144406000","ADM2_EN":"Mountain Province","ADM2_PCODE":"PH1444","ADM1_EN":"Cordillera Administrative Region (CAR)","ADM1_PCODE":"PH14","ADM0_EN":"Philippines (the)","ADM0_PCODE":"PH","region_key":"car","province_key":"mountain_province","type":"Municipality"}},{"type":"Feature","geometry":{"type":"MultiPolygon","coordinates":[[[[120.9549,16.8752],[120.952,16.8664],[120.9433,16.8505],[120.9375,16.8628],[120.9283,16.8742],[120.9197,16.8965],[120.9025,16.9214],[120.8981,16.9324],[120.9016,16.9958],[120.9047,16.9987],[120.9007,17.003],[120.8935,17.0235],[120.8968,17.0308],[120.9038,17.0374],[120.9166,17.0308],[120.9204,17.0259],[120.9787,16.998],[120.9712,16.9845],[120.9698,16.9719],[120.973,16.955],[120.9825,16.9337],[120.9621,16.8966],[120.9549,16.8752]]]]},"properties":{"ADM3_EN":"Sabangan","name":"Sabangan","ADM3_PCODE":"PH144407000","psgc_code":"144407000","ADM2_EN":"Mountain Province","ADM2_PCODE":"PH1444","ADM1_EN":"Cordillera Administrative Region (CAR)","ADM1_PCODE":"PH14","ADM0_EN":"Philippines (the)","ADM0_PCODE":"PH","region_key":"car","province_key":"mountain_province","type":"Municipality"}},{"type":"Feature","geometry":{"type":"MultiPolygon","coordinates":[[[[121.0919,17.1047],[121.0761,17.1184],[121.0735,17.1192],[121.058,17.134],[120.9703,17.1904],[120.9542,17.1987],[120.9152,17.2134],[120.9148,17.2476],[121.034,17.2304],[121.0525,17.234],[121.0565,17.2338],[121.0641,17.2303],[121.0821,17.21],[121.0821,17.2031],[121.088,17.1877],[121.0946,17.1779],[121.0955,17.159],[121.104,17.1453],[121.1072,17.1257],[121.1042,17.1009],[121.101,17.0949],[121.0919,17.1047]]]]},"properties":{"ADM3_EN":"Sadanga","name":"Sadanga","ADM3_PCODE":"PH144408000","psgc_code":"144408000","ADM2_EN":"Mountain Province","ADM2_PCODE":"PH1444","ADM1_EN":"Cordillera Administrative Region (CAR)","ADM1_PCODE":"PH14","ADM0_EN":"Philippines (the)","ADM0_PCODE":"PH","region_key":"car","province_key":"mountain_province","type":"Municipality"}},{"type":"Feature","geometry":{"type":"MultiPolygon","coordinates":[[[[120.9278,17.042],[120.9247,17.0377],[120.9218,17.0377],[120.9166,17.0308],[120.8763,17.0535],[120.8786,17.0676],[120.8836,17.0798],[120.8844,17.088],[120.8776,17.1406],[120.8863,17.1879],[120.8911,17.187],[120.8977,17.1908],[120.9398,17.0913],[120.9398,17.077],[120.9294,17.0432],[120.9278,17.042]]]]},"properties":{"ADM3_EN":"Sagada","name":"Sagada","ADM3_PCODE":"PH144409000","psgc_code":"144409000","ADM2_EN":"Mountain Province","ADM2_PCODE":"PH1444","ADM1_EN":"Cordillera Administrative Region (CAR)","ADM1_PCODE":"PH14","ADM0_EN":"Philippines (the)","ADM0_PCODE":"PH","region_key":"car","province_key":"mountain_province","type":"Municipality"}},{"type":"Feature","geometry":{"type":"MultiPolygon","coordinates":[[[[120.8204,16.8916],[120.7934,16.919],[120.7755,16.9348],[120.7844,16.9524],[120.7872,16.9878],[120.7844,17.0172],[120.7752,17.0633],[120.8289,17.0625],[120.8564,17.0587],[120.8504,17.0513],[120.8466,17.0422],[120.8456,17.0359],[120.8482,17.0201],[120.8468,17.0037],[120.836,16.9666],[120.8761,16.9085],[120.8498,16.8497],[120.8444,16.8729],[120.8376,16.8806],[120.8204,16.8916]]]]},"properties":{"ADM3_EN":"Tadian","name":"Tadian","ADM3_PCODE":"PH144410000","psgc_code":"144410000","ADM2_EN":"Mountain Province","ADM2_PCODE":"PH1444","ADM1_EN":"Cordillera Administrative Region (CAR)","ADM1_PCODE":"PH14","ADM0_EN":"Philippines (the)","ADM0_PCODE":"PH","region_key":"car","province_key":"mountain_province","type":"Municipality"}}]}