{"type":"FeatureCollection","name":"ncr_municipalities","crs":{"type":"name","properties":{"name":"urn:ogc:def:crs:OGC:1.3:CRS84"}},"features":[{"type":"Feature","geometry":{"type":"MultiPolygon","coordinates":[[[[120.9763,14.6357],[120.9704,14.6336],[120.9658,14.6341],[120.9666,14.6436],[120.9688,14.6424],[120.9689,14.6443],[120.9682,14.6473],[120.9668,14.6472],[120.965,14.6547],[120.9638,14.6544],[120.9635,14.6587],[120.9688,14.6626],[120.9807,14.6614],[120.9934,14.668],[120.9982,14.6688],[120.9992,14.6832],[121.003,14.6853],[121.0117,14.6806],[121.0139,14.6828],[121.0138,14.6874],[121.0153,14.6891],[121.0249,14.6884],[121.0195,14.6838],[121.0153,14.6835],[121.0153,14.679],[121.0098,14.6758],[121.0104,14.6731],[121.0053,14.6721],[120.9991,14.6678],[120.9971,14.6562],[120.9931,14.6522],[120.9877,14.6395],[120.9899,14.6373],[120.9895,14.6357],[120.9822,14.638],[120.979,14.6364],[120.9774,14.6385],[120.9754,14.6376],[120.9763,14.6357]]],[[[121.0202,14.7098],[121.019,14.7053],[121.0135,14.7057],[121.0135,14.7072],[121.0096,14.7067],[121.0061,14.7087],[121.006,14.7124],[121.0089,14.7172],[121.0071,14.7197],[121.0122,14.7203],[121.0118,14.7233],[121.0085,14.7233],[121.0085,14.7258],[120.9981,14.73],[121.0007,14.7322],[121.008,14.7286],[121.0138,14.7287],[121.0148,14.7302],[121.0123,14.7349],[121.0158,14.7368],[121.0078,14.742],[121.0026,14.7423],[121.0044,14.7466],[121.0071,14.7479],[121.01,14.7463],[121.0192,14.7504],[121.0424,14.757],[121.0426,14.7648],[121.0396,14.7635],[121.039,14.7656],[121.0414,14.7657],[121.0412,14.7701],[121.0432,14.771],[121.0454,14.7773],[121.0494,14.7772],[121.0511,14.7798],[121.0517,14.7782],[121.0535,14.7797],[121.0546,14.7785],[121.0553,14.7801],[121.0577,14.7783],[121.0598,14.7813],[121.0608,14.7794],[121.0628,14.7806],[121.0627,14.775],[121.0638,14.7762],[121.0659,14.7755],[121.0664,14.7736],[121.0675,14.775],[121.0696,14.7685],[121.071,14.7711],[121.0738,14.7642],[121.075,14.7642],[121.0759,14.7672],[121.0781,14.764],[121.0801,14.7636],[121.0805,14.7675],[121.0858,14.7628],[121.0894,14.7631],[121.0942,14.76],[121.1043,14.7581],[121.0974,14.7506],[121.092,14.7495],[121.0886,14.7423],[121.0837,14.7389],[121.0744,14.7386],[121.0722,14.7365],[121.0708,14.7379],[121.0681,14.7363],[121.0512,14.7374],[121.0496,14.7353],[121.0475,14.7358],[121.0468,14.7318],[121.0463,14.7345],[121.0441,14.7345],[121.0438,14.7319],[121.0401,14.7313],[121.0411,14.7289],[121.0388,14.726],[121.0324,14.724],[121.0311,14.7249],[121.028,14.7228],[121.0303,14.7201],[121.0263,14.7188],[121.0238,14.7148],[121.0207,14.7143],[121.0202,14.7098]]]]},"properties":{"ADM3_EN":"Kalookan City","name":"Kalookan City","ADM3_PCODE":"PH137501000","psgc_code":"137501000","ADM2_EN":"Metro Manila","ADM2_PCODE":"PH1375","ADM1_EN":"National Capital Region (NCR)","ADM1_PCODE":"PH13","ADM0_EN":"Philippines (the)","ADM0_PCODE":"PH","region_key":"ncr","province_key":"metro_manila","type":"City"}},{"type":"Feature","geometry":{"type":"MultiPolygon","coordinates":[[[[121.0121,14.3813],[121.0088,14.3817],[121.007,14.3842],[121.0058,14.3876],[121.007,14.3918],[121.0006,14.3957],[121.0017,14.3982],[120.9999,14.4026],[120.9971,14.407],[120.9945,14.4069],[120.994,14.4121],[120.9898,14.417],[120.9887,14.4227],[120.9857,14.4231],[120.9859,14.4277],[120.9846,14.4267],[120.983,14.434],[120.9775,14.4358],[120.9726,14.4397],[120.9686,14.4472],[120.969,14.4556],[120.9647,14.4671],[120.9682,14.4697],[120.9662,14.4704],[120.9666,14.4729],[120.9701,14.4734],[120.9696,14.4755],[120.9786,14.4833],[120.981,14.4895],[120.9851,14.4861],[120.9879,14.4861],[120.9912,14.4816],[120.9907,14.4789],[120.9963,14.4762],[121.0015,14.4689],[121.0011,14.4554],[121.0078,14.4545],[121.0103,14.4509],[121.0101,14.4486],[121.0128,14.4497],[121.013,14.4469],[121.0151,14.4462],[121.0153,14.4385],[121.0193,14.4362],[121.0235,14.4364],[121.0217,14.4231],[121.0118,14.4079],[121.0085,14.3925],[121.0121,14.3813]]],[[[120.9794,14.4917],[120.9781,14.4919],[120.9779,14.4879],[120.9714,14.4811],[120.9769,14.4925],[120.9792,14.4939],[120.9794,14.4917]]]]},"properties":{"ADM3_EN":"Las Piñas","name":"Las Piñas","ADM3_PCODE":"PH137601000","psgc_code":"137601000","ADM2_EN":"Metro Manila","ADM2_PCODE":"PH1376","ADM1_EN":"National Capital Region (NCR)","ADM1_PCODE":"PH13","ADM0_EN":"Philippines (the)","ADM0_PCODE":"PH","region_key":"ncr","province_key":"metro_manila","type":"City"}},{"type":"Feature","geometry":{"type":"MultiPolygon","coordinates":[[[[121.0341,14.5687],[121.0487,14.5696],[121.066,14.56],[121.0632,14.5527],[121.0665,14.5504],[121.0631,14.5441],[121.0611,14.5466],[121.06,14.5454],[121.0662,14.5373],[121.0605,14.5362],[121.0606,14.5338],[121.0572,14.5306],[121.058,14.5282],[121.0563,14.5279],[121.0548,14.5238],[121.0394,14.515],[121.0311,14.5207],[121.0242,14.5341],[121.0196,14.532],[121.0134,14.5326],[121.0119,14.5413],[121.0079,14.5427],[121.0076,14.5504],[121.0003,14.5545],[120.9974,14.5615],[120.9973,14.5634],[121.0149,14.5811],[121.0341,14.5687]]]]},"properties":{"ADM3_EN":"Makati City","name":"Makati City","ADM3_PCODE":"PH137602000","psgc_code":"137602000","ADM2_EN":"Metro Manila","ADM2_PCODE":"PH1376","ADM1_EN":"National Capital Region (NCR)","ADM1_PCODE":"PH13","ADM0_EN":"Philippines (the)","ADM0_PCODE":"PH","region_key":"ncr","province_key":"metro_manila","type":"City"}},{"type":"Feature","geometry":{"type":"MultiPolygon","coordinates":[[[[120.9455,14.6813],[120.9519,14.6858],[120.9577,14.6876],[120.9598,14.6839],[120.96,14.6763],[120.9638,14.6806],[120.97,14.6791],[120.9709,14.6759],[120.975,14.6754],[120.9764,14.6716],[120.983,14.6689],[120.9944,14.6748],[120.9992,14.6832],[120.9982,14.6688],[120.9934,14.668],[120.98,14.6612],[120.9688,14.6626],[120.9646,14.6585],[120.958,14.6594],[120.9584,14.6562],[120.9626,14.6514],[120.9576,14.6455],[120.953,14.6532],[120.9502,14.6502],[120.9479,14.6522],[120.944,14.665],[120.9325,14.6839],[120.9332,14.6889],[120.925,14.698],[120.9282,14.7022],[120.9351,14.6986],[120.9347,14.6963],[120.9369,14.6946],[120.9374,14.6913],[120.9408,14.6892],[120.9407,14.6861],[120.9455,14.6813]]]]},"properties":{"ADM3_EN":"Malabon","name":"Malabon","ADM3_PCODE":"PH137502000","psgc_code":"137502000","ADM2_EN":"Metro Manila","ADM2_PCODE":"PH1375","ADM1_EN":"National Capital Region (NCR)","ADM1_PCODE":"PH13","ADM0_EN":"Philippines (the)","ADM0_PCODE":"PH","region_key":"ncr","province_key":"metro_manila","type":"City"}},{"type":"Feature","geometry":{"type":"MultiPolygon","coordinates":[[[[121.0341,14.5687],[121.0149,14.5811],[121.0237,14.596],[121.0266,14.596],[121.0324,14.5916],[121.0411,14.5943],[121.0495,14.6017],[121.0571,14.602],[121.0576,14.5984],[121.0552,14.5904],[121.0575,14.5916],[121.058,14.5828],[121.0564,14.5835],[121.0543,14.5799],[121.055,14.5745],[121.0445,14.5696],[121.0341,14.5687]]]]},"properties":{"ADM3_EN":"Mandaluyong","name":"Mandaluyong","ADM3_PCODE":"PH137401000","psgc_code":"137401000","ADM2_EN":"Metro Manila","ADM2_PCODE":"PH1374","ADM1_EN":"National Capital Region (NCR)","ADM1_PCODE":"PH13","ADM0_EN":"Philippines (the)","ADM0_PCODE":"PH","region_key":"ncr","province_key":"metro_manila","type":"City"}},{"type":"Feature","geometry":{"type":"MultiPolygon","coordinates":[[[[120.9983,14.5645],[120.9967,14.5633],[120.9963,14.5648],[120.9938,14.5643],[120.9864,14.5605],[120.981,14.573],[120.9728,14.5795],[120.9731,14.5828],[120.9692,14.5795],[120.9681,14.5806],[120.9705,14.5829],[120.9672,14.5811],[120.9663,14.5819],[120.9681,14.5847],[120.9661,14.5825],[120.9649,14.5831],[120.9669,14.585],[120.9664,14.5867],[120.9628,14.5825],[120.9617,14.5836],[120.9651,14.5882],[120.9619,14.5869],[120.9642,14.5897],[120.9632,14.5929],[120.9631,14.5895],[120.9606,14.5872],[120.9589,14.58],[120.955,14.5742],[120.9597,14.5911],[120.957,14.5933],[120.9599,14.5951],[120.9728,14.5944],[120.9802,14.5961],[120.9898,14.589],[121.0004,14.596],[121.0055,14.5967],[121.0148,14.5934],[121.0105,14.5969],[120.9986,14.5974],[120.99,14.5914],[120.986,14.5925],[120.9827,14.5965],[120.9799,14.5972],[120.945,14.5946],[120.9425,14.5967],[120.9432,14.5994],[120.9539,14.6019],[120.9492,14.6069],[120.9483,14.6136],[120.9545,14.603],[120.9575,14.6003],[120.9599,14.6011],[120.958,14.6028],[120.9597,14.6031],[120.9582,14.604],[120.9595,14.6055],[120.9575,14.6064],[120.9592,14.6068],[120.9575,14.6078],[120.9592,14.61],[120.9575,14.6106],[120.9593,14.6118],[120.9574,14.6118],[120.9589,14.6128],[120.9564,14.6144],[120.9586,14.6228],[120.9565,14.627],[120.9593,14.6267],[120.9587,14.6287],[120.9608,14.6286],[120.9631,14.6308],[120.9617,14.6328],[120.9627,14.6345],[120.9634,14.6328],[120.9759,14.6346],[120.9754,14.6376],[120.977,14.6385],[120.979,14.6364],[120.9822,14.638],[120.9895,14.6357],[120.9865,14.6255],[120.9974,14.6169],[120.9985,14.6178],[121.0022,14.6147],[121.0018,14.6133],[121.0133,14.6074],[121.0135,14.6054],[121.0207,14.6002],[121.0237,14.596],[121.0149,14.5811],[121.0086,14.576],[121.0099,14.5748],[121.0083,14.5747],[120.9983,14.5645]]]]},"properties":{"ADM3_EN":"Manila","name":"Manila","ADM3_PCODE":"PH133900000","psgc_code":"133900000","ADM2_EN":"Metro Manila","ADM2_PCODE":"PH1339","ADM1_EN":"National Capital Region (NCR)","ADM1_PCODE":"PH13","ADM0_EN":"Philippines (the)","ADM0_PCODE":"PH","region_key":"ncr","province_key":"metro_manila","type":"City"}},{"type":"Feature","geometry":{"type":"MultiPolygon","coordinates":[[[[121.1026,14.6298],[121.1017,14.6249],[121.1031,14.6212],[121.0957,14.62],[121.0951,14.6215],[121.0866,14.6223],[121.0864,14.6201],[121.0827,14.6238],[121.0803,14.6198],[121.0771,14.618],[121.0735,14.6196],[121.0744,14.6215],[121.0727,14.6279],[121.0753,14.6291],[121.0758,14.6349],[121.0796,14.6387],[121.0814,14.6434],[121.0835,14.6433],[121.0877,14.6464],[121.0852,14.6487],[121.0858,14.6509],[121.0839,14.654],[121.0896,14.6589],[121.0921,14.6636],[121.094,14.6646],[121.0981,14.6628],[121.0974,14.6685],[121.1038,14.6759],[121.1077,14.6734],[121.1078,14.6711],[121.1093,14.6732],[121.1121,14.6723],[121.1116,14.6737],[121.1132,14.6748],[121.1144,14.6721],[121.1166,14.6726],[121.1205,14.668],[121.1232,14.6723],[121.128,14.6692],[121.1277,14.6662],[121.1321,14.6582],[121.1318,14.6555],[121.1283,14.6528],[121.1258,14.6434],[121.1276,14.6351],[121.1211,14.6386],[121.1173,14.6363],[121.1133,14.6382],[121.1088,14.6358],[121.1055,14.636],[121.1026,14.6298]]]]},"properties":{"ADM3_EN":"Marikina","name":"Marikina","ADM3_PCODE":"PH137402000","psgc_code":"137402000","ADM2_EN":"Metro Manila","ADM2_PCODE":"PH1374","ADM1_EN":"National Capital Region (NCR)","ADM1_PCODE":"PH13","ADM0_EN":"Philippines (the)","ADM0_PCODE":"PH","region_key":"ncr","province_key":"metro_manila","type":"City"}},{"type":"Feature","geometry":{"type":"MultiPolygon","coordinates":[[[[121.0092,14.3691],[121.0126,14.3814],[121.0095,14.3863],[121.0085,14.3925],[121.0118,14.4079],[121.0217,14.4231],[121.0236,14.435],[121.0399,14.4441],[121.039,14.45],[121.0447,14.4567],[121.0446,14.4691],[121.0562,14.4679],[121.0521,14.4495],[121.0507,14.4495],[121.0507,14.3993],[121.0539,14.3834],[121.0568,14.3809],[121.0558,14.3786],[121.0546,14.3785],[121.0535,14.3749],[121.052,14.3755],[121.0521,14.3719],[121.0487,14.3685],[121.0452,14.3685],[121.0424,14.3724],[121.0189,14.3533],[121.007,14.3493],[121.0092,14.3691]]]]},"properties":{"ADM3_EN":"Muntinlupa","name":"Muntinlupa","ADM3_PCODE":"PH137603000","psgc_code":"137603000","ADM2_EN":"Metro Manila","ADM2_PCODE":"PH1376","ADM1_EN":"National Capital Region (NCR)","ADM1_PCODE":"PH13","ADM0_EN":"Philippines (the)","ADM0_PCODE":"PH","region_key":"ncr","province_key":"metro_manila","type":"City"}},{"type":"Feature","geometry":{"type":"MultiPolygon","coordinates":[[[[120.9656,14.6366],[120.9659,14.6338],[120.9634,14.6328],[120.9632,14.6346],[120.9614,14.6339],[120.9622,14.6383],[120.9597,14.6342],[120.9567,14.6336],[120.9539,14.6364],[120.9517,14.6353],[120.9511,14.6403],[120.9442,14.6453],[120.9481,14.6486],[120.9476,14.6518],[120.9294,14.675],[120.9239,14.685],[120.9169,14.6919],[120.9209,14.6996],[120.9282,14.7022],[120.925,14.698],[120.9332,14.6889],[120.9325,14.6839],[120.9434,14.6664],[120.9495,14.6503],[120.953,14.6532],[120.9576,14.6455],[120.9626,14.6514],[120.9584,14.6562],[120.958,14.6594],[120.9635,14.6587],[120.9638,14.6544],[120.965,14.6547],[120.9668,14.6472],[120.9682,14.6473],[120.9689,14.6443],[120.9688,14.6424],[120.9666,14.6436],[120.9656,14.6366]]]]},"properties":{"ADM3_EN":"Navotas","name":"Navotas","ADM3_PCODE":"PH137503000","psgc_code":"137503000","ADM2_EN":"Metro Manila","ADM2_PCODE":"PH1375","ADM1_EN":"National Capital Region (NCR)","ADM1_PCODE":"PH13","ADM0_EN":"Philippines (the)","ADM0_PCODE":"PH","region_key":"ncr","province_key":"metro_manila","type":"City"}},{"type":"Feature","geometry":{"type":"MultiPolygon","coordinates":[[[[121.0234,14.4356],[121.0152,14.4387],[121.0151,14.4462],[121.013,14.4469],[121.0128,14.4497],[121.0097,14.4488],[121.0103,14.4509],[121.0078,14.4545],[121.0011,14.4554],[121.0015,14.4689],[120.9963,14.4762],[120.9907,14.4789],[120.9912,14.4816],[120.9879,14.4861],[120.9851,14.4861],[120.981,14.4895],[120.9859,14.4929],[120.9893,14.5022],[120.9744,14.5081],[120.9792,14.517],[120.9833,14.515],[120.9853,14.5167],[120.9789,14.5189],[120.9811,14.5219],[120.9792,14.5222],[120.9786,14.5336],[120.996,14.5359],[120.9988,14.5343],[120.9992,14.5221],[120.9974,14.5157],[120.9993,14.5131],[120.9985,14.5104],[121.0008,14.5092],[120.9984,14.5048],[121.0009,14.5034],[121.0017,14.5001],[121.0068,14.503],[121.0095,14.5017],[121.017,14.5044],[121.0191,14.5037],[121.023,14.5067],[121.0284,14.5066],[121.0305,14.5085],[121.0335,14.5084],[121.0358,14.5055],[121.0383,14.5062],[121.0461,14.5016],[121.0468,14.4926],[121.0445,14.4834],[121.0447,14.4567],[121.039,14.45],[121.0403,14.4449],[121.039,14.4431],[121.0261,14.4356],[121.0234,14.4356]]],[[[120.9875,14.5017],[120.9835,14.4965],[120.9814,14.4975],[120.9822,14.5025],[120.9875,14.5017]]],[[[121.0026,14.512],[121.0043,14.5135],[121.01,14.5107],[121.0008,14.5092],[121.0026,14.512]]]]},"properties":{"ADM3_EN":"Parañaque","name":"Parañaque","ADM3_PCODE":"PH137604000","psgc_code":"137604000","ADM2_EN":"Metro Manila","ADM2_PCODE":"PH1376","ADM1_EN":"National Capital Region (NCR)","ADM1_PCODE":"PH13","ADM0_EN":"Philippines (the)","ADM0_PCODE":"PH","region_key":"ncr","province_key":"metro_manila","type":"City"}},{"type":"Feature","geometry":{"type":"MultiPolygon","coordinates":[[[[121.0001,14.5097],[120.9985,14.5104],[120.9993,14.5131],[120.9974,14.5157],[120.9992,14.5223],[120.9983,14.535],[120.996,14.5359],[120.9786,14.5336],[120.9786,14.5408],[120.9817,14.5444],[120.9783,14.5561],[120.9792,14.5578],[120.9853,14.56],[120.9844,14.5649],[120.9864,14.5605],[120.9938,14.5643],[120.9963,14.5648],[120.9978,14.5632],[121.0003,14.5545],[121.0077,14.5502],[121.0079,14.5427],[121.0119,14.5413],[121.0134,14.5326],[121.0216,14.5326],[121.0346,14.5079],[121.0231,14.5068],[121.0191,14.5037],[121.017,14.5044],[121.0097,14.5018],[121.0068,14.503],[121.0017,14.5001],[121.0009,14.5034],[120.9984,14.5048],[121.0001,14.5097]],[[121.001,14.5093],[121.0073,14.5092],[121.01,14.5107],[121.0043,14.5135],[121.001,14.5093]]]]},"properties":{"ADM3_EN":"Pasay City","name":"Pasay City","ADM3_PCODE":"PH137605000","psgc_code":"137605000","ADM2_EN":"Metro Manila","ADM2_PCODE":"PH1376","ADM1_EN":"National Capital Region (NCR)","ADM1_PCODE":"PH13","ADM0_EN":"Philippines (the)","ADM0_PCODE":"PH","region_key":"ncr","province_key":"metro_manila","type":"City"}},{"type":"Feature","geometry":{"type":"MultiPolygon","coordinates":[[[[121.08,14.5479],[121.0785,14.5479],[121.0774,14.5513],[121.0742,14.5536],[121.0637,14.5549],[121.066,14.56],[121.065,14.5616],[121.0491,14.5695],[121.0445,14.5696],[121.055,14.5745],[121.0543,14.5799],[121.0564,14.5835],[121.0579,14.5825],[121.0575,14.5891],[121.0594,14.5914],[121.0686,14.594],[121.0813,14.5908],[121.081,14.6029],[121.0833,14.6031],[121.0866,14.6001],[121.0883,14.6013],[121.0853,14.6071],[121.0777,14.6128],[121.0763,14.6157],[121.0827,14.6238],[121.0864,14.6201],[121.0873,14.6223],[121.0951,14.6215],[121.0957,14.62],[121.1041,14.621],[121.105,14.6171],[121.1099,14.6142],[121.111,14.6118],[121.1063,14.6065],[121.1078,14.6001],[121.1104,14.5991],[121.1079,14.5975],[121.1095,14.5914],[121.1071,14.588],[121.1079,14.5813],[121.0934,14.5682],[121.0972,14.5564],[121.0967,14.5536],[121.1007,14.551],[121.0998,14.5464],[121.0956,14.5416],[121.0941,14.5455],[121.0806,14.544],[121.08,14.5479]]]]},"properties":{"ADM3_EN":"Pasig City","name":"Pasig City","ADM3_PCODE":"PH137403000","psgc_code":"137403000","ADM2_EN":"Metro Manila","ADM2_PCODE":"PH1374","ADM1_EN":"National Capital Region (NCR)","ADM1_PCODE":"PH13","ADM0_EN":"Philippines (the)","ADM0_PCODE":"PH","region_key":"ncr","province_key":"metro_manila","type":"City"}},{"type":"Feature","geometry":{"type":"MultiPolygon","coordinates":[[[[121.0649,14.5395],[121.06,14.5454],[121.0611,14.5466],[121.0631,14.5441],[121.0665,14.5504],[121.0632,14.5526],[121.0637,14.5549],[121.0742,14.5536],[121.0774,14.5513],[121.0785,14.5479],[121.0686,14.5399],[121.0697,14.5393],[121.0649,14.5395]]]]},"properties":{"ADM3_EN":"Pateros","name":"Pateros","ADM3_PCODE":"PH137606000","psgc_code":"137606000","ADM2_EN":"Metro Manila","ADM2_PCODE":"PH1376","ADM1_EN":"National Capital Region (NCR)","ADM1_PCODE":"PH13","ADM0_EN":"Philippines (the)","ADM0_PCODE":"PH","region_key":"ncr","province_key":"metro_manila","type":"City"}},{"type":"Feature","geometry":{"type":"MultiPolygon","coordinates":[[[[121.0367,14.6077],[121.035,14.6067],[121.0281,14.613],[121.023,14.6125],[121.0208,14.6139],[121.019,14.6091],[121.0145,14.605],[121.0133,14.6074],[121.0018,14.6133],[121.0022,14.6147],[120.9985,14.6178],[120.9974,14.6169],[120.9864,14.6257],[120.99,14.637],[120.9877,14.6395],[120.9931,14.6522],[120.9971,14.6562],[120.9991,14.6678],[121.0053,14.6721],[121.0104,14.6731],[121.0098,14.6758],[121.0153,14.679],[121.0155,14.6838],[121.0192,14.6837],[121.0251,14.6877],[121.0262,14.6912],[121.0203,14.6981],[121.0226,14.7031],[121.0219,14.7057],[121.0206,14.7045],[121.0194,14.7058],[121.0207,14.7143],[121.0238,14.7148],[121.0263,14.7188],[121.0303,14.7201],[121.028,14.7228],[121.0311,14.7249],[121.0324,14.724],[121.0388,14.726],[121.0411,14.7289],[121.0401,14.7313],[121.0438,14.7319],[121.0441,14.7345],[121.0463,14.7345],[121.0468,14.7318],[121.0475,14.7358],[121.0496,14.7353],[121.0512,14.7374],[121.0681,14.7363],[121.0708,14.7379],[121.0722,14.7365],[121.0744,14.7386],[121.0837,14.7389],[121.0886,14.7423],[121.092,14.7495],[121.0977,14.7508],[121.1036,14.7579],[121.1071,14.757],[121.114,14.7602],[121.1181,14.7532],[121.1132,14.7532],[121.1144,14.7405],[121.1186,14.7394],[121.1179,14.7374],[121.1248,14.7442],[121.1314,14.7392],[121.1271,14.7365],[121.1253,14.7328],[121.1253,14.7305],[121.1278,14.7279],[121.1271,14.7253],[121.1215,14.7252],[121.1199,14.7223],[121.1205,14.7111],[121.1196,14.7101],[121.1177,14.7113],[121.1156,14.7062],[121.1169,14.6992],[121.1087,14.6974],[121.1091,14.6846],[121.1058,14.6781],[121.0974,14.6685],[121.0986,14.6634],[121.0972,14.6621],[121.0936,14.6646],[121.0866,14.6559],[121.0845,14.6555],[121.0852,14.6487],[121.0877,14.6464],[121.0835,14.6433],[121.0814,14.6434],[121.0796,14.6387],[121.0758,14.6349],[121.0753,14.6291],[121.0727,14.6279],[121.0744,14.6215],[121.0735,14.6196],[121.0771,14.618],[121.0772,14.6136],[121.0853,14.6071],[121.0881,14.6009],[121.0866,14.6001],[121.0833,14.6031],[121.081,14.6029],[121.0813,14.5908],[121.0682,14.594],[121.0594,14.5914],[121.0575,14.5891],[121.0575,14.5916],[121.0552,14.5904],[121.0576,14.5997],[121.055,14.6064],[121.05,14.6048],[121.0477,14.6098],[121.0433,14.6088],[121.0405,14.6098],[121.0367,14.6077]]]]},"properties":{"ADM3_EN":"Quezon City","name":"Quezon City","ADM3_PCODE":"PH137404000","psgc_code":"137404000","ADM2_EN":"Metro Manila","ADM2_PCODE":"PH1374","ADM1_EN":"National Capital Region (NCR)","ADM1_PCODE":"PH13","ADM0_EN":"Philippines (the)","ADM0_PCODE":"PH","region_key":"ncr","province_key":"metro_manila","type":"City"}},{"type":"Feature","geometry":{"type":"MultiPolygon","coordinates":[[[[121.0292,14.5946],[121.0237,14.596],[121.0145,14.605],[121.019,14.6091],[121.0205,14.6138],[121.023,14.6125],[121.0282,14.6129],[121.0352,14.6066],[121.0405,14.6098],[121.0433,14.6088],[121.0477,14.6098],[121.05,14.6048],[121.055,14.6064],[121.0571,14.602],[121.0495,14.6017],[121.0411,14.5943],[121.0324,14.5916],[121.0292,14.5946]]]]},"properties":{"ADM3_EN":"San Juan","name":"San Juan","ADM3_PCODE":"PH137405000","psgc_code":"137405000","ADM2_EN":"Metro Manila","ADM2_PCODE":"PH1374","ADM1_EN":"National Capital Region (NCR)","ADM1_PCODE":"PH13","ADM0_EN":"Philippines (the)","ADM0_PCODE":"PH","region_key":"ncr","province_key":"metro_manila","type":"City"}},{"type":"Feature","geometry":{"type":"MultiPolygon","coordinates":[[[[121.0614,14.4856],[121.0599,14.4755],[121.0562,14.4679],[121.0446,14.4691],[121.0445,14.4834],[121.0468,14.4926],[121.0461,14.5016],[121.0383,14.5062],[121.0358,14.5055],[121.0216,14.5326],[121.0242,14.5341],[121.0311,14.5207],[121.0394,14.515],[121.0548,14.5238],[121.0563,14.5279],[121.058,14.5282],[121.0572,14.5306],[121.0606,14.5338],[121.0605,14.5362],[121.0655,14.5366],[121.0658,14.5387],[121.0697,14.5393],[121.0686,14.5399],[121.0775,14.5481],[121.0801,14.5479],[121.0806,14.544],[121.0944,14.5454],[121.0956,14.5416],[121.1049,14.5331],[121.1055,14.528],[121.109,14.5253],[121.1057,14.5242],[121.1001,14.528],[121.0946,14.5253],[121.0913,14.5212],[121.0878,14.51],[121.0791,14.508],[121.0741,14.5107],[121.074,14.5137],[121.07,14.5114],[121.0637,14.4999],[121.0614,14.4856]]]]},"properties":{"ADM3_EN":"Taguig","name":"Taguig","ADM3_PCODE":"PH137607000","psgc_code":"137607000","ADM2_EN":"Metro Manila","ADM2_PCODE":"PH1376","ADM1_EN":"National Capital Region (NCR)","ADM1_PCODE":"PH13","ADM0_EN":"Philippines (the)","ADM0_PCODE":"PH","region_key":"ncr","province_key":"metro_manila","type":"City"}},{"type":"Feature","geometry":{"type":"MultiPolygon","coordinates":[[[[120.9947,14.6752],[120.983,14.6689],[120.9764,14.6716],[120.975,14.6754],[120.9709,14.6759],[120.97,14.6791],[120.9638,14.6806],[120.96,14.6763],[120.9598,14.6839],[120.9578,14.6875],[120.9585,14.6934],[120.956,14.6995],[120.9528,14.6987],[120.9554,14.7089],[120.9501,14.7083],[120.9502,14.7063],[120.9481,14.7063],[120.9489,14.7089],[120.9437,14.7095],[120.9462,14.7106],[120.9437,14.7124],[120.9452,14.7134],[120.9409,14.7164],[120.9366,14.7228],[120.9347,14.7231],[120.9355,14.7305],[120.9398,14.7311],[120.9484,14.7359],[120.9526,14.7311],[120.9603,14.7282],[120.9664,14.7284],[120.9664,14.7219],[120.9618,14.7218],[120.9614,14.7193],[120.9646,14.7131],[120.9681,14.717],[120.9691,14.7154],[120.9723,14.7152],[120.9699,14.713],[120.9709,14.7094],[120.9754,14.7126],[120.9891,14.7121],[120.993,14.7149],[120.9911,14.7328],[121.001,14.7369],[121.0034,14.7422],[121.0078,14.742],[121.0146,14.7384],[121.0157,14.7363],[121.0123,14.7349],[121.0148,14.7302],[121.0138,14.7287],[121.008,14.7286],[121.0007,14.7322],[120.9981,14.73],[121.0085,14.7258],[121.0085,14.7233],[121.0118,14.7235],[121.0122,14.7203],[121.0071,14.7197],[121.0089,14.7172],[121.006,14.7124],[121.0061,14.7087],[121.0096,14.7067],[121.0135,14.7072],[121.0135,14.7057],[121.0194,14.7058],[121.0206,14.7045],[121.0219,14.7057],[121.0226,14.7027],[121.0206,14.6971],[121.0261,14.6905],[121.0243,14.6882],[121.0153,14.6891],[121.0138,14.6874],[121.0139,14.6828],[121.0117,14.6806],[121.003,14.6853],[120.9987,14.6829],[120.9947,14.6752]],[[121.0025,14.7375],[121.0022,14.7376],[121.0018,14.7373],[121.0024,14.7373],[121.0025,14.7375]]]]},"properties":{"ADM3_EN":"Valenzuela","name":"Valenzuela","ADM3_PCODE":"PH137504000","psgc_code":"137504000","ADM2_EN":"Metro Manila","ADM2_PCODE":"PH1375","ADM1_EN":"National Capital Region (NCR)","ADM1_PCODE":"PH13","ADM0_EN":"Philippines (the)","ADM0_PCODE":"PH","region_key":"ncr","province_key":"metro_manila","type":"City"}}]}