{"type": "FeatureCollection", "features": [{"type": "Feature", "geometry": {"type": "Polygon", "coordinates": [[[120.957, 14.618], [120.985, 14.625], [121.01, 14.605], [121.012, 14.582], [120.995, 14.568], [120.97, 14.56], [120.962, 14.585], [120.957, 14.618]]]}, "properties": {"ADM3_EN": "City of Manila", "ADM3_PCODE": "PH133901000", "ADM2_EN": "NCR, Second District", "ADM2_PCODE": "PH13000", "ADM1_EN": "National Capital Region (NCR)", "ADM1_PCODE": "PH13", "ADM0_EN": "Philippines (the)", "ADM0_PCODE": "PH", "psgc_id": "PH133901000", "psgc_code": "133901000", "psgc_name": "City of Manila", "psgc_type": "city", "match_confidence": 1.0, "AREA_SQKM": 42.88, "population": 1846513, "region_key": "ncr"}}, {"type": "Feature", "geometry": {"type": "Polygon", "coordinates": [[[121.002, 14.735], [121.05, 14.755], [121.11, 14.74], [121.095, 14.68], [121.085, 14.62], [121.025, 14.615], [120.99, 14.645], [121.002, 14.735]]]}, "properties": {"ADM3_EN": "Quezon City", "ADM3_PCODE": "PH137404000", "ADM2_EN": "NCR, Second District", "ADM2_PCODE": "PH13000", "ADM1_EN": "National Capital Region (NCR)", "ADM1_PCODE": "PH13", "ADM0_EN": "Philippines (the)", "ADM0_PCODE": "PH", "psgc_id": "PH137404000", "psgc_code": "137404000", "psgc_name": "Quezon City", "psgc_type": "city", "match_confidence": 1.0, "AREA_SQKM": 166.2, "population": 2960048, "region_key": "ncr"}}, {"type": "Feature", "geometry": {"type": "Polygon", "coordinates": [[[121.005, 14.572], [121.042, 14.57], [121.065, 14.55], [121.04, 14.535], [121.01, 14.542], [121.005, 14.572]]]}, "properties": {"ADM3_EN": "Makati City", "ADM3_PCODE": "PH137601000", "ADM2_EN": "NCR, Second District", "ADM2_PCODE": "PH13000", "ADM1_EN": "National Capital Region (NCR)", "ADM1_PCODE": "PH13", "ADM0_EN": "Philippines (the)", "ADM0_PCODE": "PH", "psgc_id": "PH137601000", "psgc_code": "137601000", "psgc_name": "Makati City", "psgc_type": "city", "match_confidence": 1.0, "AREA_SQKM": 21.57, "population": 629616, "region_key": "ncr"}}, {"type": "Feature", "geometry": {"type": "Polygon", "coordinates": [[[121.035, 14.545], [121.07, 14.552], [121.095, 14.52], [121.085, 14.485], [121.045, 14.495], [121.035, 14.545]]]}, "properties": {"ADM3_EN": "Taguig City", "ADM3_PCODE": "PH137607000", "ADM2_EN": "NCR, Second District", "ADM2_PCODE": "PH13000", "ADM1_EN": "National Capital Region (NCR)", "ADM1_PCODE": "PH13", "ADM0_EN": "Philippines (the)", "ADM0_PCODE": "PH", "psgc_id": "PH137607000", "psgc_code": "137607000", "psgc_name": "Taguig City", "psgc_type": "city", "match_confidence": 1.0, "AREA_SQKM": 45.21, "population": 886722, "region_key": "ncr"}}, {"type": "Feature", "geometry": {"type": "Polygon", "coordinates": [[[121.055, 14.595], [121.1, 14.598], [121.115, 14.57], [121.085, 14.552], [121.058, 14.565], [121.055, 14.595]]]}, "properties": {"ADM3_EN": "Pasig City", "ADM3_PCODE": "PH137403000", "ADM2_EN": "NCR, Second District", "ADM2_PCODE": "PH13000", "ADM1_EN": "National Capital Region (NCR)", "ADM1_PCODE": "PH13", "ADM0_EN": "Philippines (the)", "ADM0_PCODE": "PH", "psgc_id": "PH137403000", "psgc_code": "137403000", "psgc_name": "Pasig City", "psgc_type": "city", "match_confidence": 1.0, "AREA_SQKM": 31.0, "population": 803159, "region_key": "ncr"}}, {"type": "Feature", "geometry": {"type": "Polygon", "coordinates": [[[121.02, 14.595], [121.052, 14.592], [121.05, 14.572], [121.018, 14.578], [121.02, 14.595]]]}, "properties": {"ADM3_EN": "Mandaluyong City", "ADM3_PCODE": "PH137401000", "ADM2_EN": "NCR, Second District", "ADM2_PCODE": "PH13000", "ADM1_EN": "National Capital Region (NCR)", "ADM1_PCODE": "PH13", "ADM0_EN": "Philippines (the)", "ADM0_PCODE": "PH", "psgc_id": "PH137401000", "psgc_code": "137401000", "psgc_name": "Mandaluyong City", "psgc_type": "city", "match_confidence": 1.0, "AREA_SQKM": 11.26, "population": 425758, "region_key": "ncr"}}, {"type": "Feature", "geometry": {"type": "Polygon", "coordinates": [[[121.085, 14.665], [121.125, 14.675], [121.135, 14.63], [121.095, 14.622], [121.085, 14.665]]]}, "properties": {"ADM3_EN": "Marikina City", "ADM3_PCODE": "PH137402000", "ADM2_EN": "NCR, Second District", "ADM2_PCODE": "PH13000", "ADM1_EN": "National Capital Region (NCR)", "ADM1_PCODE": "PH13", "ADM0_EN": "Philippines (the)", "ADM0_PCODE": "PH", "psgc_id": "PH137402000", "psgc_code": "137402000", "psgc_name": "Marikina City", "psgc_type": "city", "match_confidence": 1.0, "AREA_SQKM": 21.52, "population": 456059, "region_key": "ncr"}}, {"type": "Feature", "geometry": {"type": "Polygon", "coordinates": [[[120.975, 14.552], [121.015, 14.545], [121.02, 14.515], [120.985, 14.52], [120.975, 14.552]]]}, "properties": {"ADM3_EN": "Pasay City", "ADM3_PCODE": "PH137605000", "ADM2_EN": "NCR, Second District", "ADM2_PCODE": "PH13000", "ADM1_EN": "National Capital Region (NCR)", "ADM1_PCODE": "PH13", "ADM0_EN": "Philippines (the)", "ADM0_PCODE": "PH", "psgc_id": "PH137605000", "psgc_code": "137605000", "psgc_name": "Pasay City", "psgc_type": "city", "match_confidence": 1.0, "AREA_SQKM": 18.21, "population": 440656, "region_key": "ncr"}}, {"type": "Feature", "geometry": {"type": "Polygon", "coordinates": [[[120.965, 14.66], [120.995, 14.662], [120.99, 14.635], [120.96, 14.638], [120.965, 14.66]]]}, "properties": {"ADM3_EN": "Caloocan City", "ADM3_PCODE": "PH137501000", "ADM2_EN": "NCR, Second District", "ADM2_PCODE": "PH13000", "ADM1_EN": "National Capital Region (NCR)", "ADM1_PCODE": "PH13", "ADM0_EN": "Philippines (the)", "ADM0_PCODE": "PH", "psgc_id": "PH137501000", "psgc_code": "137501000", "psgc_name": "Caloocan City", "psgc_type": "city", "match_confidence": 1.0, "AREA_SQKM": 55.8, "population": 1661584, "region_key": "ncr"}}, {"type": "Feature", "geometry": {"type": "Polygon", "coordinates": [[[120.935, 14.675], [120.97, 14.672], [120.968, 14.652], [120.94, 14.655], [120.935, 14.675]]]}, "properties": {"ADM3_EN": "Malabon City", "ADM3_PCODE": "PH137502000", "ADM2_EN": "NCR, Second District", "ADM2_PCODE": "PH13000", "ADM1_EN": "National Capital Region (NCR)", "ADM1_PCODE": "PH13", "ADM0_EN": "Philippines (the)", "ADM0_PCODE": "PH", "psgc_id": "PH137502000", "psgc_code": "137502000", "psgc_name": "Malabon City", "psgc_type": "city", "match_confidence": 1.0, "AREA_SQKM": 15.76, "population": 380522, "region_key": "ncr"}}, {"type": "Feature", "geometry": {"type": "Polygon", "coordinates": [[[120.925, 14.685], [120.95, 14.678], [120.945, 14.635], [120.93, 14.64], [120.925, 14.685]]]}, "properties": {"ADM3_EN": "Navotas City", "ADM3_PCODE": "PH137503000", "ADM2_EN": "NCR, Second District", "ADM2_PCODE": "PH13000", "ADM1_EN": "National Capital Region (NCR)", "ADM1_PCODE": "PH13", "ADM0_EN": "Philippines (the)", "ADM0_PCODE": "PH", "psgc_id": "PH137503000", "psgc_code": "137503000", "psgc_name": "Navotas City", "psgc_type": "city", "match_confidence": 1.0, "AREA_SQKM": 10.77, "population": 247543, "region_key": "ncr"}}, {"type": "Feature", "geometry": {"type": "Polygon", "coordinates": [[[120.95, 14.73], [120.995, 14.725], [121.002, 14.685], [120.96, 14.68], [120.95, 14.73]]]}, "properties": {"ADM3_EN": "Valenzuela City", "ADM3_PCODE": "PH137504000", "ADM2_EN": "NCR, Second District", "ADM2_PCODE": "PH13000", "ADM1_EN": "National Capital Region (NCR)", "ADM1_PCODE": "PH13", "ADM0_EN": "Philippines (the)", "ADM0_PCODE": "PH", "psgc_id": "PH137504000", "psgc_code": "137504000", "psgc_name": "Valenzuela City", "psgc_type": "city", "match_confidence": 1.0, "AREA_SQKM": 47.02, "population": 714978, "region_key": "ncr"}}, {"type": "Feature", "geometry": {"type": "Polygon", "coordinates": [[[120.965, 14.465], [121.01, 14.46], [121.005, 14.415], [120.97, 14.425], [120.965, 14.465]]]}, "properties": {"ADM3_EN": "Las Pi\u00f1as City", "ADM3_PCODE": "PH137602000", "ADM2_EN": "NCR, Second District", "ADM2_PCODE": "PH13000", "ADM1_EN": "National Capital Region (NCR)", "ADM1_PCODE": "PH13", "ADM0_EN": "Philippines (the)", "ADM0_PCODE": "PH", "psgc_id": "PH137602000", "psgc_code": "137602000", "psgc_name": "Las Pi\u00f1as City", "psgc_type": "city", "match_confidence": 1.0, "AREA_SQKM": 32.69, "population": 606293, "region_key": "ncr"}}, {"type": "Feature", "geometry": {"type": "Polygon", "coordinates": [[[120.975, 14.515], [121.035, 14.505], [121.025, 14.465], [120.98, 14.475], [120.975, 14.515]]]}, "properties": {"ADM3_EN": "Para\u00f1aque City", "ADM3_PCODE": "PH137604000", "ADM2_EN": "NCR, Second District", "ADM2_PCODE": "PH13000", "ADM1_EN": "National Capital Region (NCR)", "ADM1_PCODE": "PH13", "ADM0_EN": "Philippines (the)", "ADM0_PCODE": "PH", "psgc_id": "PH137604000", "psgc_code": "137604000", "psgc_name": "Para\u00f1aque City", "psgc_type": "city", "match_confidence": 1.0, "AREA_SQKM": 46.57, "population": 689992, "region_key": "ncr"}}, {"type": "Feature", "geometry": {"type": "Polygon", "coordinates": [[[121.015, 14.44], [121.065, 14.435], [121.055, 14.375], [121.02, 14.385], [121.015, 14.44]]]}, "properties": {"ADM3_EN": "Muntinlupa City", "ADM3_PCODE": "PH137603000", "ADM2_EN": "NCR, Second District", "ADM2_PCODE": "PH13000", "ADM1_EN": "National Capital Region (NCR)", "ADM1_PCODE": "PH13", "ADM0_EN": "Philippines (the)", "ADM0_PCODE": "PH", "psgc_id": "PH137603000", "psgc_code": "137603000", "psgc_name": "Muntinlupa City", "psgc_type": "city", "match_confidence": 1.0, "AREA_SQKM": 39.75, "population": 543445, "region_key": "ncr"}}, {"type": "Feature", "geometry": {"type": "Polygon", "coordinates": [[[121.022, 14.61], [121.045, 14.608], [121.042, 14.595], [121.02, 14.598], [121.022, 14.61]]]}, "properties": {"ADM3_EN": "San Juan City", "ADM3_PCODE": "PH137405000", "ADM2_EN": "NCR, Second District", "ADM2_PCODE": "PH13000", "ADM1_EN": "National Capital Region (NCR)", "ADM1_PCODE": "PH13", "ADM0_EN": "Philippines (the)", "ADM0_PCODE": "PH", "psgc_id": "PH137405000", "psgc_code": "137405000", "psgc_name": "San Juan City", "psgc_type": "city", "match_confidence": 1.0, "AREA_SQKM": 5.95, "population": 126347, "region_key": "ncr"}}, {"type": "Feature", "geometry": {"type": "Polygon", "coordinates": [[[121.06, 14.55], [121.075, 14.548], [121.07, 14.538], [121.058, 14.542], [121.06, 14.55]]]}, "properties": {"ADM3_EN": "Pateros", "ADM3_PCODE": "PH137606000", "ADM2_EN": "NCR", "ADM2_PCODE": "PH13000", "ADM1_EN": "National Capital Region (NCR)", "ADM1_PCODE": "PH13", "ADM0_EN": "Philippines (the)", "ADM0_PCODE": "PH", "psgc_id": "PH137606000", "psgc_code": "137606000", "psgc_name": "Pateros", "psgc_type": "municipality", "match_confidence": 1.0, "AREA_SQKM": 2.25, "population": 65227, "region_key": "ncr"}}, {"type": "Feature", "geometry": {"type": "Polygon", "coordinates": [[[120.64, 15.06], [120.72, 15.055], [120.71, 14.995], [120.63, 15.0], [120.64, 15.06]]]}, "properties": {"ADM3_EN": "City of San Fernando (Capital)", "ADM3_PCODE": "PH035416000", "ADM2_EN": "Pampanga", "ADM2_PCODE": "PH0354", "ADM1_EN": "Region III (Central Luzon)", "ADM1_PCODE": "PH03", "ADM0_EN": "Philippines (the)", "ADM0_PCODE": "PH", "psgc_id": "PH035416000", "psgc_code": "035416000", "psgc_name": "City of San Fernando (Capital)", "psgc_type": "city", "match_confidence": 1.0, "AREA_SQKM": 67.74, "population": 354666, "region_key": "r3"}}, {"type": "Feature", "geometry": {"type": "Polygon", "coordinates": [[[120.55, 15.195], [120.635, 15.19], [120.625, 15.12], [120.54, 15.125], [120.55, 15.195]]]}, "properties": {"ADM3_EN": "Angeles City", "ADM3_PCODE": "PH035401000", "ADM2_EN": "Pampanga", "ADM2_PCODE": "PH0354", "ADM1_EN": "Region III (Central Luzon)", "ADM1_PCODE": "PH03", "ADM0_EN": "Philippines (the)", "ADM0_PCODE": "PH", "psgc_id": "PH035401000", "psgc_code": "035401000", "psgc_name": "Angeles City", "psgc_type": "city", "match_confidence": 1.0, "AREA_SQKM": 60.27, "population": 462928, "region_key": "r3"}}, {"type": "Feature", "geometry": {"type": "Polygon", "coordinates": [[[120.78, 14.89], [120.86, 14.885], [120.85, 14.815], [120.77, 14.82], [120.78, 14.89]]]}, "properties": {"ADM3_EN": "Malolos City (Capital)", "ADM3_PCODE": "PH031410000", "ADM2_EN": "Bulacan", "ADM2_PCODE": "PH0314", "ADM1_EN": "Region III (Central Luzon)", "ADM1_PCODE": "PH03", "ADM0_EN": "Philippines (the)", "ADM0_PCODE": "PH", "psgc_id": "PH031410000", "psgc_code": "031410000", "psgc_name": "Malolos City (Capital)", "psgc_type": "city", "match_confidence": 1.0, "AREA_SQKM": 67.25, "population": 261189, "region_key": "r3"}}, {"type": "Feature", "geometry": {"type": "Polygon", "coordinates": [[[120.93, 14.77], [121.0, 14.765], [120.99, 14.715], [120.92, 14.72], [120.93, 14.77]]]}, "properties": {"ADM3_EN": "Meycauayan City", "ADM3_PCODE": "PH031412000", "ADM2_EN": "Bulacan", "ADM2_PCODE": "PH0314", "ADM1_EN": "Region III (Central Luzon)", "ADM1_PCODE": "PH03", "ADM0_EN": "Philippines (the)", "ADM0_PCODE": "PH", "psgc_id": "PH031412000", "psgc_code": "031412000", "psgc_name": "Meycauayan City", "psgc_type": "city", "match_confidence": 1.0, "AREA_SQKM": 32.1, "population": 225673, "region_key": "r3"}}, {"type": "Feature", "geometry": {"type": "Polygon", "coordinates": [[[120.49, 14.72], [120.57, 14.715], [120.56, 14.645], [120.48, 14.65], [120.49, 14.72]]]}, "properties": {"ADM3_EN": "Balanga City (Capital)", "ADM3_PCODE": "PH030803000", "ADM2_EN": "Bataan", "ADM2_PCODE": "PH0308", "ADM1_EN": "Region III (Central Luzon)", "ADM1_PCODE": "PH03", "ADM0_EN": "Philippines (the)", "ADM0_PCODE": "PH", "psgc_id": "PH030803000", "psgc_code": "030803000", "psgc_name": "Balanga City (Capital)", "psgc_type": "city", "match_confidence": 1.0, "AREA_SQKM": 111.63, "population": 104173, "region_key": "r3"}}, {"type": "Feature", "geometry": {"type": "Polygon", "coordinates": [[[121.14, 14.67], [121.25, 14.665], [121.24, 14.565], [121.13, 14.575], [121.14, 14.67]]]}, "properties": {"ADM3_EN": "Antipolo City", "ADM3_PCODE": "PH045801000", "ADM2_EN": "Rizal", "ADM2_PCODE": "PH0458", "ADM1_EN": "Region IV-A (CALABARZON)", "ADM1_PCODE": "PH04", "ADM0_EN": "Philippines (the)", "ADM0_PCODE": "PH", "psgc_id": "PH045801000", "psgc_code": "045801000", "psgc_name": "Antipolo City", "psgc_type": "city", "match_confidence": 1.0, "AREA_SQKM": 306.1, "population": 887399, "region_key": "r4a"}}, {"type": "Feature", "geometry": {"type": "Polygon", "coordinates": [[[121.1, 14.25], [121.19, 14.24], [121.18, 14.15], [121.09, 14.16], [121.1, 14.25]]]}, "properties": {"ADM3_EN": "Calamba City", "ADM3_PCODE": "PH043405000", "ADM2_EN": "Laguna", "ADM2_PCODE": "PH0434", "ADM1_EN": "Region IV-A (CALABARZON)", "ADM1_PCODE": "PH04", "ADM0_EN": "Philippines (the)", "ADM0_PCODE": "PH", "psgc_id": "PH043405000", "psgc_code": "043405000", "psgc_name": "Calamba City", "psgc_type": "city", "match_confidence": 1.0, "AREA_SQKM": 149.5, "population": 539671, "region_key": "r4a"}}, {"type": "Feature", "geometry": {"type": "Polygon", "coordinates": [[[121.06, 14.34], [121.135, 14.335], [121.125, 14.275], [121.05, 14.28], [121.06, 14.34]]]}, "properties": {"ADM3_EN": "Santa Rosa City", "ADM3_PCODE": "PH043428000", "ADM2_EN": "Laguna", "ADM2_PCODE": "PH0434", "ADM1_EN": "Region IV-A (CALABARZON)", "ADM1_PCODE": "PH04", "ADM0_EN": "Philippines (the)", "ADM0_PCODE": "PH", "psgc_id": "PH043428000", "psgc_code": "043428000", "psgc_name": "Santa Rosa City", "psgc_type": "city", "match_confidence": 1.0, "AREA_SQKM": 54.13, "population": 414812, "region_key": "r4a"}}, {"type": "Feature", "geometry": {"type": "Polygon", "coordinates": [[[121.045, 14.385], [121.115, 14.38], [121.105, 14.33], [121.038, 14.335], [121.045, 14.385]]]}, "properties": {"ADM3_EN": "Bi\u00f1an City", "ADM3_PCODE": "PH043403000", "ADM2_EN": "Laguna", "ADM2_PCODE": "PH0434", "ADM1_EN": "Region IV-A (CALABARZON)", "ADM1_PCODE": "PH04", "ADM0_EN": "Philippines (the)", "ADM0_PCODE": "PH", "psgc_id": "PH043403000", "psgc_code": "043403000", "psgc_name": "Bi\u00f1an City", "psgc_type": "city", "match_confidence": 1.0, "AREA_SQKM": 43.5, "population": 407437, "region_key": "r4a"}}, {"type": "Feature", "geometry": {"type": "Polygon", "coordinates": [[[120.9, 14.365], [120.985, 14.36], [120.975, 14.275], [120.89, 14.28], [120.9, 14.365]]]}, "properties": {"ADM3_EN": "Dasmari\u00f1as City", "ADM3_PCODE": "PH042106000", "ADM2_EN": "Cavite", "ADM2_PCODE": "PH0421", "ADM1_EN": "Region IV-A (CALABARZON)", "ADM1_PCODE": "PH04", "ADM0_EN": "Philippines (the)", "ADM0_PCODE": "PH", "psgc_id": "PH042106000", "psgc_code": "042106000", "psgc_name": "Dasmari\u00f1as City", "psgc_type": "city", "match_confidence": 1.0, "AREA_SQKM": 90.13, "population": 703141, "region_key": "r4a"}}, {"type": "Feature", "geometry": {"type": "Polygon", "coordinates": [[[120.93, 14.47], [121.0, 14.465], [120.99, 14.395], [120.92, 14.4], [120.93, 14.47]]]}, "properties": {"ADM3_EN": "Bacoor City", "ADM3_PCODE": "PH042103000", "ADM2_EN": "Cavite", "ADM2_PCODE": "PH0421", "ADM1_EN": "Region IV-A (CALABARZON)", "ADM1_PCODE": "PH04", "ADM0_EN": "Philippines (the)", "ADM0_PCODE": "PH", "psgc_id": "PH042103000", "psgc_code": "042103000", "psgc_name": "Bacoor City", "psgc_type": "city", "match_confidence": 1.0, "AREA_SQKM": 46.17, "population": 664625, "region_key": "r4a"}}, {"type": "Feature", "geometry": {"type": "Polygon", "coordinates": [[[121.01, 13.82], [121.12, 13.815], [121.105, 13.695], [121.0, 13.705], [121.01, 13.82]]]}, "properties": {"ADM3_EN": "Batangas City (Capital)", "ADM3_PCODE": "PH041005000", "ADM2_EN": "Batangas", "ADM2_PCODE": "PH0410", "ADM1_EN": "Region IV-A (CALABARZON)", "ADM1_PCODE": "PH04", "ADM0_EN": "Philippines (the)", "ADM0_PCODE": "PH", "psgc_id": "PH041005000", "psgc_code": "041005000", "psgc_name": "Batangas City (Capital)", "psgc_type": "city", "match_confidence": 1.0, "AREA_SQKM": 282.96, "population": 351437, "region_key": "r4a"}}, {"type": "Feature", "geometry": {"type": "Polygon", "coordinates": [[[121.11, 13.995], [121.21, 13.99], [121.195, 13.9], [121.1, 13.91], [121.11, 13.995]]]}, "properties": {"ADM3_EN": "Lipa City", "ADM3_PCODE": "PH041014000", "ADM2_EN": "Batangas", "ADM2_PCODE": "PH0410", "ADM1_EN": "Region IV-A (CALABARZON)", "ADM1_PCODE": "PH04", "ADM0_EN": "Philippines (the)", "ADM0_PCODE": "PH", "psgc_id": "PH041014000", "psgc_code": "041014000", "psgc_name": "Lipa City", "psgc_type": "city", "match_confidence": 1.0, "AREA_SQKM": 209.4, "population": 372931, "region_key": "r4a"}}, {"type": "Feature", "geometry": {"type": "Polygon", "coordinates": [[[121.57, 13.975], [121.65, 13.97], [121.64, 13.9], [121.56, 13.905], [121.57, 13.975]]]}, "properties": {"ADM3_EN": "Lucena City (Capital)", "ADM3_PCODE": "PH045624000", "ADM2_EN": "Quezon", "ADM2_PCODE": "PH0456", "ADM1_EN": "Region IV-A (CALABARZON)", "ADM1_PCODE": "PH04", "ADM0_EN": "Philippines (the)", "ADM0_PCODE": "PH", "psgc_id": "PH045624000", "psgc_code": "045624000", "psgc_name": "Lucena City (Capital)", "psgc_type": "city", "match_confidence": 1.0, "AREA_SQKM": 80.21, "population": 278924, "region_key": "r4a"}}, {"type": "Feature", "geometry": {"type": "Polygon", "coordinates": [[[121.14, 13.45], [121.22, 13.445], [121.21, 13.365], [121.13, 13.37], [121.14, 13.45]]]}, "properties": {"ADM3_EN": "Calapan City (Capital)", "ADM3_PCODE": "PH175205000", "ADM2_EN": "Oriental Mindoro", "ADM2_PCODE": "PH1752", "ADM1_EN": "MIMAROPA Region", "ADM1_PCODE": "PH17", "ADM0_EN": "Philippines (the)", "ADM0_PCODE": "PH", "psgc_id": "PH175205000", "psgc_code": "175205000", "psgc_name": "Calapan City (Capital)", "psgc_type": "city", "match_confidence": 1.0, "AREA_SQKM": 250.06, "population": 145786, "region_key": "r4b"}}]}