{"type": "FeatureCollection", "name": "region_r1_simplified", "region_key": "r1", "feature_count": 4, "features": [{"type": "Feature", "geometry": {"type": "Polygon", "coordinates": [[[120.28, 16.655], [120.365, 16.65], [120.355, 16.575], [120.27, 16.58], [120.28, 16.655]]]}, "properties": {"ADM3_EN": "San Fernando City (Capital)", "ADM3_PCODE": "PH013314000", "ADM2_EN": "La Union", "ADM2_PCODE": "PH0133", "ADM1_EN": "Region I (Ilocos Region)", "ADM1_PCODE": "PH01", "ADM0_EN": "Philippines (the)", "ADM0_PCODE": "PH", "psgc_id": "PH013314000", "psgc_code": "013314000", "psgc_name": "San Fernando City (Capital)", "psgc_type": "city", "match_confidence": 1.0, "AREA_SQKM": 102.72, "population": 125640, "region_key": "r1"}}, {"type": "Feature", "geometry": {"type": "Polygon", "coordinates": [[[120.3, 16.085], [120.37, 16.08], [120.36, 16.015], [120.29, 16.02], [120.3, 16.085]]]}, "properties": {"ADM3_EN": "Dagupan City", "ADM3_PCODE": "PH015518000", "ADM2_EN": "Pangasinan", "ADM2_PCODE": "PH0155", "ADM1_EN": "Region I (Ilocos Region)", "ADM1_PCODE": "PH01", "ADM0_EN": "Philippines (the)", "ADM0_PCODE": "PH", "psgc_id": "PH015518000", "psgc_code": "015518000", "psgc_name": "Dagupan City", "psgc_type": "city", "match_confidence": 1.0, "AREA_SQKM": 37.23, "population": 174302, "region_key": "r1"}}, {"type": "Feature", "geometry": {"type": "Polygon", "coordinates": [[[120.55, 18.235], [120.64, 18.23], [120.63, 18.155], [120.54, 18.16], [120.55, 18.235]]]}, "properties": {"ADM3_EN": "Laoag City (Capital)", "ADM3_PCODE": "PH012812000", "ADM2_EN": "Ilocos Norte", "ADM2_PCODE": "PH0128", "ADM1_EN": "Region I (Ilocos Region)", "ADM1_PCODE": "PH01", "ADM0_EN": "Philippines (the)", "ADM0_PCODE": "PH", "psgc_id": "PH012812000", "psgc_code": "012812000", "psgc_name": "Laoag City (Capital)", "psgc_type": "city", "match_confidence": 1.0, "AREA_SQKM": 116.08, "population": 111125, "region_key": "r1"}}, {"type": "Feature", "geometry": {"type": "Polygon", "coordinates": [[[120.36, 17.605], [120.42, 17.6], [120.41, 17.545], [120.35, 17.55], [120.36, 17.605]]]}, "properties": {"ADM3_EN": "Vigan City (Capital)", "ADM3_PCODE": "PH012934000", "ADM2_EN": "Ilocos Sur", "ADM2_PCODE": "PH0129", "ADM1_EN": "Region I (Ilocos Region)", "ADM1_PCODE": "PH01", "ADM0_EN": "Philippines (the)", "ADM0_PCODE": "PH", "psgc_id": "PH012934000", "psgc_code": "012934000", "psgc_name": "Vigan City (Capital)", "psgc_type": "city", "match_confidence": 1.0, "AREA_SQKM": 25.12, "population": 53879, "region_key": "r1"}}]}