{"type": "FeatureCollection", "name": "region_r10_simplified", "region_key": "r10", "feature_count": 3, "features": [{"type": "Feature", "geometry": {"type": "Polygon", "coordinates": [[[124.58, 8.52], [124.7, 8.515], [124.69, 8.42], [124.57, 8.425], [124.58, 8.52]]]}, "properties": {"ADM3_EN": "Cagayan de Oro City (Capital)", "ADM3_PCODE": "PH104305000", "ADM2_EN": "Misamis Oriental", "ADM2_PCODE": "PH1043", "ADM1_EN": "Region X (Northern Mindanao)", "ADM1_PCODE": "PH10", "ADM0_EN": "Philippines (the)", "ADM0_PCODE": "PH", "psgc_id": "PH104305000", "psgc_code": "104305000", "psgc_name": "Cagayan de Oro City (Capital)", "psgc_type": "city", "match_confidence": 1.0, "AREA_SQKM": 412.8, "population": 728402, "region_key": "r10"}}, {"type": "Feature", "geometry": {"type": "Polygon", "coordinates": [[[124.2, 8.28], [124.32, 8.27], [124.305, 8.16], [124.19, 8.17], [124.2, 8.28]]]}, "properties": {"ADM3_EN": "Iligan City", "ADM3_PCODE": "PH103504000", "ADM2_EN": "Lanao del Norte", "ADM2_PCODE": "PH1035", "ADM1_EN": "Region X (Northern Mindanao)", "ADM1_PCODE": "PH10", "ADM0_EN": "Philippines (the)", "ADM0_PCODE": "PH", "psgc_id": "PH103504000", "psgc_code": "103504000", "psgc_name": "Iligan City", "psgc_type": "city", "match_confidence": 1.0, "AREA_SQKM": 813.37, "population": 363115, "region_key": "r10"}}, {"type": "Feature", "geometry": {"type": "Polygon", "coordinates": [[[125.08, 8.22], [125.2, 8.21], [125.185, 8.1], [125.07, 8.11], [125.08, 8.22]]]}, "properties": {"ADM3_EN": "Malaybalay City (Capital)", "ADM3_PCODE": "PH101312000", "ADM2_EN": "Bukidnon", "ADM2_PCODE": "PH1013", "ADM1_EN": "Region X (Northern Mindanao)", "ADM1_PCODE": "PH10", "ADM0_EN": "Philippines (the)", "ADM0_PCODE": "PH", "psgc_id": "PH101312000", "psgc_code": "101312000", "psgc_name": "Malaybalay City (Capital)", "psgc_type": "city", "match_confidence": 1.0, "AREA_SQKM": 969.19, "population": 190712, "region_key": "r10"}}]}