{"type": "FeatureCollection", "name": "region_r11_simplified", "region_key": "r11", "feature_count": 7, "features": [{"type": "Feature", "geometry": {"type": "Polygon", "coordinates": [[[125.56, 7.115], [125.64, 7.12], [125.635, 7.045], [125.55, 7.05], [125.56, 7.115]]]}, "properties": {"ADM3_EN": "Davao City (Poblacion)", "ADM3_PCODE": "PH112402000", "ADM2_EN": "Davao del Sur", "ADM2_PCODE": "PH1124", "ADM1_EN": "Region XI (Davao Region)", "ADM1_PCODE": "PH11", "ADM0_EN": "Philippines (the)", "ADM0_PCODE": "PH", "psgc_id": "PH112402000", "psgc_code": "112402000", "psgc_name": "Davao City (Poblacion)", "psgc_type": "city", "match_confidence": 1.0, "AREA_SQKM": 420.0, "population": 680000, "region_key": "r11"}}, {"type": "Feature", "geometry": {"type": "Polygon", "coordinates": [[[125.46, 7.05], [125.56, 7.045], [125.545, 6.96], [125.45, 6.97], [125.46, 7.05]]]}, "properties": {"ADM3_EN": "Davao City (Toril / Talomo)", "ADM3_PCODE": "PH112402001", "ADM2_EN": "Davao del Sur", "ADM2_PCODE": "PH1124", "ADM1_EN": "Region XI (Davao Region)", "ADM1_PCODE": "PH11", "ADM0_EN": "Philippines (the)", "ADM0_PCODE": "PH", "psgc_id": "PH112402001", "psgc_code": "112402001", "psgc_name": "Davao City (Toril / Talomo)", "psgc_type": "city", "match_confidence": 1.0, "AREA_SQKM": 580.0, "population": 520000, "region_key": "r11"}}, {"type": "Feature", "geometry": {"type": "Polygon", "coordinates": [[[125.58, 7.21], [125.68, 7.2], [125.665, 7.12], [125.565, 7.125], [125.58, 7.21]]]}, "properties": {"ADM3_EN": "Davao City (Buhangin / Bunawan)", "ADM3_PCODE": "PH112402002", "ADM2_EN": "Davao del Sur", "ADM2_PCODE": "PH1124", "ADM1_EN": "Region XI (Davao Region)", "ADM1_PCODE": "PH11", "ADM0_EN": "Philippines (the)", "ADM0_PCODE": "PH", "psgc_id": "PH112402002", "psgc_code": "112402002", "psgc_name": "Davao City (Buhangin / Bunawan)", "psgc_type": "city", "match_confidence": 1.0, "AREA_SQKM": 650.0, "population": 480000, "region_key": "r11"}}, {"type": "Feature", "geometry": {"type": "Polygon", "coordinates": [[[125.76, 7.495], [125.86, 7.49], [125.845, 7.41], [125.75, 7.42], [125.76, 7.495]]]}, "properties": {"ADM3_EN": "Tagum City (Capital)", "ADM3_PCODE": "PH112319000", "ADM2_EN": "Davao del Norte", "ADM2_PCODE": "PH1123", "ADM1_EN": "Region XI (Davao Region)", "ADM1_PCODE": "PH11", "ADM0_EN": "Philippines (the)", "ADM0_PCODE": "PH", "psgc_id": "PH112319000", "psgc_code": "112319000", "psgc_name": "Tagum City (Capital)", "psgc_type": "city", "match_confidence": 1.0, "AREA_SQKM": 195.8, "population": 296202, "region_key": "r11"}}, {"type": "Feature", "geometry": {"type": "Polygon", "coordinates": [[[125.64, 7.34], [125.74, 7.33], [125.725, 7.26], [125.63, 7.27], [125.64, 7.34]]]}, "properties": {"ADM3_EN": "Panabo City", "ADM3_PCODE": "PH112315000", "ADM2_EN": "Davao del Norte", "ADM2_PCODE": "PH1123", "ADM1_EN": "Region XI (Davao Region)", "ADM1_PCODE": "PH11", "ADM0_EN": "Philippines (the)", "ADM0_PCODE": "PH", "psgc_id": "PH112315000", "psgc_code": "112315000", "psgc_name": "Panabo City", "psgc_type": "city", "match_confidence": 1.0, "AREA_SQKM": 251.23, "population": 209230, "region_key": "r11"}}, {"type": "Feature", "geometry": {"type": "Polygon", "coordinates": [[[125.68, 7.18], [125.76, 7.17], [125.745, 7.01], [125.67, 7.02], [125.68, 7.18]]]}, "properties": {"ADM3_EN": "Island Garden City of Samal", "ADM3_PCODE": "PH112317000", "ADM2_EN": "Davao del Norte", "ADM2_PCODE": "PH1123", "ADM1_EN": "Region XI (Davao Region)", "ADM1_PCODE": "PH11", "ADM0_EN": "Philippines (the)", "ADM0_PCODE": "PH", "psgc_id": "PH112317000", "psgc_code": "112317000", "psgc_name": "Island Garden City of Samal", "psgc_type": "city", "match_confidence": 1.0, "AREA_SQKM": 301.3, "population": 116771, "region_key": "r11"}}, {"type": "Feature", "geometry": {"type": "Polygon", "coordinates": [[[125.3, 6.8], [125.39, 6.79], [125.38, 6.71], [125.29, 6.72], [125.3, 6.8]]]}, "properties": {"ADM3_EN": "Digos City (Capital)", "ADM3_PCODE": "PH112403000", "ADM2_EN": "Davao del Sur", "ADM2_PCODE": "PH1124", "ADM1_EN": "Region XI (Davao Region)", "ADM1_PCODE": "PH11", "ADM0_EN": "Philippines (the)", "ADM0_PCODE": "PH", "psgc_id": "PH112403000", "psgc_code": "112403000", "psgc_name": "Digos City (Capital)", "psgc_type": "city", "match_confidence": 1.0, "AREA_SQKM": 287.1, "population": 188376, "region_key": "r11"}}]}