{"type": "FeatureCollection", "name": "region_r13_simplified", "region_key": "r13", "feature_count": 2, "features": [{"type": "Feature", "geometry": {"type": "Polygon", "coordinates": [[[125.48, 9.02], [125.6, 9.01], [125.59, 8.89], [125.47, 8.9], [125.48, 9.02]]]}, "properties": {"ADM3_EN": "Butuan City (Capital)", "ADM3_PCODE": "PH160202000", "ADM2_EN": "Agusan del Norte", "ADM2_PCODE": "PH1602", "ADM1_EN": "Region XIII (Caraga)", "ADM1_PCODE": "PH16", "ADM0_EN": "Philippines (the)", "ADM0_PCODE": "PH", "psgc_id": "PH160202000", "psgc_code": "160202000", "psgc_name": "Butuan City (Capital)", "psgc_type": "city", "match_confidence": 1.0, "AREA_SQKM": 816.62, "population": 372910, "region_key": "r13"}}, {"type": "Feature", "geometry": {"type": "Polygon", "coordinates": [[[125.45, 9.82], [125.54, 9.81], [125.53, 9.73], [125.44, 9.74], [125.45, 9.82]]]}, "properties": {"ADM3_EN": "Surigao City (Capital)", "ADM3_PCODE": "PH166724000", "ADM2_EN": "Surigao del Norte", "ADM2_PCODE": "PH1667", "ADM1_EN": "Region XIII (Caraga)", "ADM1_PCODE": "PH16", "ADM0_EN": "Philippines (the)", "ADM0_PCODE": "PH", "psgc_id": "PH166724000", "psgc_code": "166724000", "psgc_name": "Surigao City (Capital)", "psgc_type": "city", "match_confidence": 1.0, "AREA_SQKM": 245.3, "population": 171107, "region_key": "r13"}}]}