{"type": "FeatureCollection", "name": "region_r2_simplified", "region_key": "r2", "feature_count": 3, "features": [{"type": "Feature", "geometry": {"type": "Polygon", "coordinates": [[[121.68, 17.675], [121.77, 17.67], [121.76, 17.585], [121.67, 17.59], [121.68, 17.675]]]}, "properties": {"ADM3_EN": "Tuguegarao City (Capital)", "ADM3_PCODE": "PH021529000", "ADM2_EN": "Cagayan", "ADM2_PCODE": "PH0215", "ADM1_EN": "Region II (Cagayan Valley)", "ADM1_PCODE": "PH02", "ADM0_EN": "Philippines (the)", "ADM0_PCODE": "PH", "psgc_id": "PH021529000", "psgc_code": "021529000", "psgc_name": "Tuguegarao City (Capital)", "psgc_type": "city", "match_confidence": 1.0, "AREA_SQKM": 144.8, "population": 166334, "region_key": "r2"}}, {"type": "Feature", "geometry": {"type": "Polygon", "coordinates": [[[121.46, 16.745], [121.56, 16.74], [121.545, 16.645], [121.45, 16.65], [121.46, 16.745]]]}, "properties": {"ADM3_EN": "Santiago City", "ADM3_PCODE": "PH023132000", "ADM2_EN": "Isabela", "ADM2_PCODE": "PH0231", "ADM1_EN": "Region II (Cagayan Valley)", "ADM1_PCODE": "PH02", "ADM0_EN": "Philippines (the)", "ADM0_PCODE": "PH", "psgc_id": "PH023132000", "psgc_code": "023132000", "psgc_name": "Santiago City", "psgc_type": "city", "match_confidence": 1.0, "AREA_SQKM": 255.5, "population": 148580, "region_key": "r2"}}, {"type": "Feature", "geometry": {"type": "Polygon", "coordinates": [[[121.8, 17.2], [121.95, 17.19], [121.93, 17.06], [121.78, 17.07], [121.8, 17.2]]]}, "properties": {"ADM3_EN": "Ilagan City (Capital)", "ADM3_PCODE": "PH023114000", "ADM2_EN": "Isabela", "ADM2_PCODE": "PH0231", "ADM1_EN": "Region II (Cagayan Valley)", "ADM1_PCODE": "PH02", "ADM0_EN": "Philippines (the)", "ADM0_PCODE": "PH", "psgc_id": "PH023114000", "psgc_code": "023114000", "psgc_name": "Ilagan City (Capital)", "psgc_type": "city", "match_confidence": 1.0, "AREA_SQKM": 1166.26, "population": 158218, "region_key": "r2"}}]}