{"type": "FeatureCollection", "name": "region_r9_simplified", "region_key": "r9", "feature_count": 2, "features": [{"type": "Feature", "geometry": {"type": "Polygon", "coordinates": [[[122.0, 7.02], [122.12, 7.01], [122.11, 6.89], [121.99, 6.9], [122.0, 7.02]]]}, "properties": {"ADM3_EN": "Zamboanga City", "ADM3_PCODE": "PH097332000", "ADM2_EN": "Zamboanga del Sur", "ADM2_PCODE": "PH0973", "ADM1_EN": "Region IX (Zamboanga Peninsula)", "ADM1_PCODE": "PH09", "ADM0_EN": "Philippines (the)", "ADM0_PCODE": "PH", "psgc_id": "PH097332000", "psgc_code": "097332000", "psgc_name": "Zamboanga City", "psgc_type": "city", "match_confidence": 1.0, "AREA_SQKM": 1414.7, "population": 977234, "region_key": "r9"}}, {"type": "Feature", "geometry": {"type": "Polygon", "coordinates": [[[123.38, 7.86], [123.48, 7.85], [123.47, 7.78], [123.37, 7.79], [123.38, 7.86]]]}, "properties": {"ADM3_EN": "Pagadian City (Capital)", "ADM3_PCODE": "PH097322000", "ADM2_EN": "Zamboanga del Sur", "ADM2_PCODE": "PH0973", "ADM1_EN": "Region IX (Zamboanga Peninsula)", "ADM1_PCODE": "PH09", "ADM0_EN": "Philippines (the)", "ADM0_PCODE": "PH", "psgc_id": "PH097322000", "psgc_code": "097322000", "psgc_name": "Pagadian City (Capital)", "psgc_type": "city", "match_confidence": 1.0, "AREA_SQKM": 378.8, "population": 210452, "region_key": "r9"}}]}